{
  "type": "FeatureCollection",
  "features": [
    {
      "type": "Feature",
      "properties": {
        "@id": "relation/1306572",
        "DANE:area": "113.00",
        "DANE:departamento": "15",
        "admin_level": "6",
        "boundary": "administrative",
        "clcfile": "MunicipiosDepartamentos/ADM_Municipios.shp",
        "divipola": "15816",
        "entidad_te": "Cabecera Municipal",
        "is_in:country": "Colombia",
        "is_in:state": "Boyacá",
        "name": "Togüí",
        "objectid": "3810",
        "source": "OCHA - SIGOT",
        "type": "boundary",
        "wikidata": "Q1654994",
        "wikipedia": "es:Togüí"
      },
      "geometry": {
        "type": "Polygon",
        "coordinates": [
          [
            [
              -73.4628712,
              5.8467932
            ],
            [
              -73.4628468,
              5.8467089
            ],
            [
              -73.4620659,
              5.8474552
            ],
            [
              -73.4612866,
              5.8485379
            ],
            [
              -73.4601125,
              5.8489353
            ],
            [
              -73.4591327,
              5.8489395
            ],
            [
              -73.4582521,
              5.8492376
            ],
            [
              -73.4568812,
              5.8494397
            ],
            [
              -73.4560015,
              5.849934
            ],
            [
              -73.4552197,
              5.8504279
            ],
            [
              -73.4540464,
              5.8510216
            ],
            [
              -73.4530674,
              5.851222
            ],
            [
              -73.4520876,
              5.8512262
            ],
            [
              -73.4511082,
              5.8513285
            ],
            [
              -73.4499324,
              5.8513334
            ],
            [
              -73.4485599,
              5.851143
            ],
            [
              -73.4478715,
              5.8505571
            ],
            [
              -73.4462997,
              5.8495826
            ],
            [
              -73.4453194,
              5.8494886
            ],
            [
              -73.4443396,
              5.8494927
            ],
            [
              -73.443359,
              5.8493006
            ],
            [
              -73.4425722,
              5.8486171
            ],
            [
              -73.4417863,
              5.8481297
            ],
            [
              -73.4408065,
              5.8481339
            ],
            [
              -73.4397291,
              5.8482365
            ],
            [
              -73.4388485,
              5.8485346
            ],
            [
              -73.4345373,
              5.8485527
            ],
            [
              -73.4336575,
              5.849047
            ],
            [
              -73.4328773,
              5.8499334
            ],
            [
              -73.4328819,
              5.8510128
            ],
            [
              -73.432984,
              5.8519936
            ],
            [
              -73.4333804,
              5.8530713
            ],
            [
              -73.4340729,
              5.8546384
            ],
            [
              -73.434373,
              5.856109
            ],
            [
              -73.4343833,
              5.858562
            ],
            [
              -73.434781,
              5.8599341
            ],
            [
              -73.4356661,
              5.8607154
            ],
            [
              -73.4363545,
              5.8613012
            ],
            [
              -73.4369453,
              5.8619856
            ],
            [
              -73.4373422,
              5.8631614
            ],
            [
              -73.4376419,
              5.8645339
            ],
            [
              -73.437646,
              5.8655151
            ],
            [
              -73.4378461,
              5.8664955
            ],
            [
              -73.4381438,
              5.8673774
            ],
            [
              -73.438544,
              5.8693381
            ],
            [
              -73.4388417,
              5.87022
            ],
            [
              -73.4392398,
              5.8716902
            ],
            [
              -73.4394404,
              5.8727687
            ],
            [
              -73.4396421,
              5.8741416
            ],
            [
              -73.4396533,
              5.8767909
            ],
            [
              -73.4397554,
              5.8777717
            ],
            [
              -73.4399551,
              5.8786539
            ],
            [
              -73.4401552,
              5.8796343
            ],
            [
              -73.4403549,
              5.8805166
            ],
            [
              -73.4412439,
              5.8821809
            ],
            [
              -73.4420344,
              5.8837476
            ],
            [
              -73.4422366,
              5.8852186
            ],
            [
              -73.4416532,
              5.8863004
            ],
            [
              -73.4400912,
              5.8876808
            ],
            [
              -73.4390163,
              5.8883722
            ],
            [
              -73.4381356,
              5.8886703
            ],
            [
              -73.4372545,
              5.8888703
            ],
            [
              -73.4321591,
              5.8888918
            ],
            [
              -73.4306896,
              5.8889961
            ],
            [
              -73.4299078,
              5.8894901
            ],
            [
              -73.4290275,
              5.8898863
            ],
            [
              -73.4280489,
              5.8901848
            ],
            [
              -73.4271678,
              5.8903847
            ],
            [
              -73.4261891,
              5.8906832
            ],
            [
              -73.425308,
              5.8908832
            ],
            [
              -73.4243281,
              5.8908873
            ],
            [
              -73.4231534,
              5.8913841
            ],
            [
              -73.423781,
              5.8918165
            ],
            [
              -73.4243773,
              5.8920561
            ],
            [
              -73.4249056,
              5.8922616
            ],
            [
              -73.4252974,
              5.8924498
            ],
            [
              -73.4260657,
              5.8930479
            ],
            [
              -73.4274158,
              5.8940931
            ],
            [
              -73.4285163,
              5.894739
            ],
            [
              -73.4293966,
              5.8958146
            ],
            [
              -73.4299386,
              5.8965544
            ],
            [
              -73.4304816,
              5.8974965
            ],
            [
              -73.4310242,
              5.8983711
            ],
            [
              -73.4316367,
              5.8998526
            ],
            [
              -73.4319795,
              5.9012678
            ],
            [
              -73.4326606,
              5.9030188
            ],
            [
              -73.4332044,
              5.9041633
            ],
            [
              -73.4337473,
              5.9051054
            ],
            [
              -73.4343576,
              5.9060472
            ],
            [
              -73.4348326,
              5.9068547
            ],
            [
              -73.4355779,
              5.9078634
            ],
            [
              -73.4359856,
              5.9086711
            ],
            [
              -73.4363938,
              5.9096138
            ],
            [
              -73.4368017,
              5.910489
            ],
            [
              -73.4373441,
              5.9112962
            ],
            [
              -73.4379541,
              5.9121706
            ],
            [
              -73.4393083,
              5.9137838
            ],
            [
              -73.4402552,
              5.9146567
            ],
            [
              -73.440932,
              5.9153958
            ],
            [
              -73.4419474,
              5.9165383
            ],
            [
              -73.4429625,
              5.9176133
            ],
            [
              -73.4441815,
              5.9190921
            ],
            [
              -73.4449254,
              5.9197635
            ],
            [
              -73.4472905,
              5.9214399
            ],
            [
              -73.4491146,
              5.9226463
            ],
            [
              -73.450263,
              5.9233834
            ],
            [
              -73.4512759,
              5.9239187
            ],
            [
              -73.4520192,
              5.9244552
            ],
            [
              -73.452897,
              5.9249236
            ],
            [
              -73.4543809,
              5.925322
            ],
            [
              -73.4554608,
              5.9257895
            ],
            [
              -73.4562712,
              5.9262583
            ],
            [
              -73.4571496,
              5.9268616
            ],
            [
              -73.4578262,
              5.9275333
            ],
            [
              -73.4585699,
              5.9281372
            ],
            [
              -73.4593132,
              5.9286736
            ],
            [
              -73.4601919,
              5.9293309
            ],
            [
              -73.4617448,
              5.9301337
            ],
            [
              -73.4629632,
              5.9314776
            ],
            [
              -73.4626319,
              5.9327607
            ],
            [
              -73.4588422,
              5.9444942
            ],
            [
              -73.4579786,
              5.947331
            ],
            [
              -73.4567752,
              5.9494948
            ],
            [
              -73.4564485,
              5.9518572
            ],
            [
              -73.4568678,
              5.9553632
            ],
            [
              -73.4589686,
              5.9581872
            ],
            [
              -73.4609294,
              5.9597977
            ],
            [
              -73.4627545,
              5.9612064
            ],
            [
              -73.4657994,
              5.9642287
            ],
            [
              -73.466145,
              5.9662509
            ],
            [
              -73.4659546,
              5.96895
            ],
            [
              -73.4659607,
              5.9703665
            ],
            [
              -73.4670475,
              5.9723855
            ],
            [
              -73.4690772,
              5.9743328
            ],
            [
              -73.4711043,
              5.9756731
            ],
            [
              -73.4724556,
              5.9765442
            ],
            [
              -73.4748887,
              5.9782874
            ],
            [
              -73.4767122,
              5.9792913
            ],
            [
              -73.4784656,
              5.9796883
            ],
            [
              -73.4804895,
              5.9802866
            ],
            [
              -73.4831206,
              5.9810845
            ],
            [
              -73.4846752,
              5.9822244
            ],
            [
              -73.4871057,
              5.9833605
            ],
            [
              -73.4891367,
              5.9855776
            ],
            [
              -73.4902191,
              5.9865846
            ],
            [
              -73.4919744,
              5.9873864
            ],
            [
              -73.4937962,
              5.9879854
            ],
            [
              -73.4951355,
              5.9883616
            ],
            [
              -73.4958627,
              5.9872897
            ],
            [
              -73.4984748,
              5.9848097
            ],
            [
              -73.5000432,
              5.9835948
            ],
            [
              -73.5017705,
              5.9827469
            ],
            [
              -73.503756,
              5.9809524
            ],
            [
              -73.5049038,
              5.9795293
            ],
            [
              -73.5058418,
              5.9781071
            ],
            [
              -73.5068867,
              5.9771571
            ],
            [
              -73.5084033,
              5.9761
            ],
            [
              -73.5107564,
              5.974409
            ],
            [
              -73.5126388,
              5.9730351
            ],
            [
              -73.5135793,
              5.9721906
            ],
            [
              -73.5151527,
              5.9721311
            ],
            [
              -73.516569,
              5.9721248
            ],
            [
              -73.5186665,
              5.971958
            ],
            [
              -73.5212357,
              5.971684
            ],
            [
              -73.5238533,
              5.9705169
            ],
            [
              -73.5255808,
              5.9697214
            ],
            [
              -73.5283015,
              5.9681337
            ],
            [
              -73.5319619,
              5.965544
            ],
            [
              -73.532955,
              5.9647518
            ],
            [
              -73.534212,
              5.964326
            ],
            [
              -73.5348888,
              5.9631676
            ],
            [
              -73.5365062,
              5.9612171
            ],
            [
              -73.537707,
              5.9599513
            ],
            [
              -73.5386907,
              5.9593585
            ],
            [
              -73.5389611,
              5.9594296
            ],
            [
              -73.5392119,
              5.9594536
            ],
            [
              -73.5394433,
              5.9594304
            ],
            [
              -73.5396553,
              5.9593601
            ],
            [
              -73.5397331,
              5.9593134
            ],
            [
              -73.5398116,
              5.9592444
            ],
            [
              -73.5400674,
              5.9589374
            ],
            [
              -73.5401815,
              5.9588277
            ],
            [
              -73.5403084,
              5.9587497
            ],
            [
              -73.5406028,
              5.9586243
            ],
            [
              -73.5407225,
              5.9585593
            ],
            [
              -73.5408133,
              5.9584857
            ],
            [
              -73.5410112,
              5.9582768
            ],
            [
              -73.541161,
              5.9581826
            ],
            [
              -73.5413178,
              5.958125
            ],
            [
              -73.5417205,
              5.9580277
            ],
            [
              -73.5418968,
              5.9579673
            ],
            [
              -73.542106,
              5.9578617
            ],
            [
              -73.5426045,
              5.9575645
            ],
            [
              -73.5427455,
              5.9574975
            ],
            [
              -73.542876,
              5.9574511
            ],
            [
              -73.542995,
              5.9574245
            ],
            [
              -73.5431123,
              5.9574172
            ],
            [
              -73.5435178,
              5.957453
            ],
            [
              -73.5436521,
              5.9574552
            ],
            [
              -73.5437711,
              5.9574374
            ],
            [
              -73.5438709,
              5.9573971
            ],
            [
              -73.5439656,
              5.9573303
            ],
            [
              -73.5440619,
              5.9572331
            ],
            [
              -73.5443423,
              5.9568563
            ],
            [
              -73.5444444,
              5.9567365
            ],
            [
              -73.5445481,
              5.9566464
            ],
            [
              -73.5446528,
              5.9565904
            ],
            [
              -73.5447857,
              5.956561
            ],
            [
              -73.5449481,
              5.9565623
            ],
            [
              -73.5454977,
              5.9566644
            ],
            [
              -73.5456745,
              5.9566841
            ],
            [
              -73.5458195,
              5.9566766
            ],
            [
              -73.5459398,
              5.956641
            ],
            [
              -73.5460464,
              5.9565702
            ],
            [
              -73.5462299,
              5.9563732
            ],
            [
              -73.5463196,
              5.9563
            ],
            [
              -73.5464396,
              5.9562345
            ],
            [
              -73.5467394,
              5.9561065
            ],
            [
              -73.546873,
              5.9560225
            ],
            [
              -73.546996,
              5.9559069
            ],
            [
              -73.5472518,
              5.9556154
            ],
            [
              -73.5473809,
              5.9555031
            ],
            [
              -73.5475156,
              5.9554246
            ],
            [
              -73.5478996,
              5.9552472
            ],
            [
              -73.5482842,
              5.9549826
            ],
            [
              -73.5484596,
              5.9548338
            ],
            [
              -73.548597,
              5.9546887
            ],
            [
              -73.5486989,
              5.9545447
            ],
            [
              -73.5487658,
              5.9544011
            ],
            [
              -73.5487855,
              5.9543139
            ],
            [
              -73.5487887,
              5.9542091
            ],
            [
              -73.5487374,
              5.9537316
            ],
            [
              -73.5487488,
              5.9536279
            ],
            [
              -73.5487802,
              5.9535417
            ],
            [
              -73.5488254,
              5.9534719
            ],
            [
              -73.5488895,
              5.9534013
            ],
            [
              -73.5491977,
              5.9531484
            ],
            [
              -73.5493117,
              5.9530271
            ],
            [
              -73.5494768,
              5.9527457
            ],
            [
              -73.5496139,
              5.9524112
            ],
            [
              -73.5496434,
              5.9522175
            ],
            [
              -73.5496338,
              5.951982
            ],
            [
              -73.5495963,
              5.9517442
            ],
            [
              -73.5494842,
              5.9512097
            ],
            [
              -73.5494542,
              5.9509809
            ],
            [
              -73.5493996,
              5.9501923
            ],
            [
              -73.5493823,
              5.9499426
            ],
            [
              -73.547991,
              5.9494777
            ],
            [
              -73.547303,
              5.9492757
            ],
            [
              -73.546543,
              5.9491025
            ],
            [
              -73.5461563,
              5.9490353
            ],
            [
              -73.5452802,
              5.9489302
            ],
            [
              -73.5442876,
              5.9488744
            ],
            [
              -73.5421788,
              5.9488582
            ],
            [
              -73.5413699,
              5.9488439
            ],
            [
              -73.540732,
              5.9488125
            ],
            [
              -73.540174,
              5.9487632
            ],
            [
              -73.5396116,
              5.948687
            ],
            [
              -73.5391054,
              5.9485907
            ],
            [
              -73.5386433,
              5.9484763
            ],
            [
              -73.5382164,
              5.9483453
            ],
            [
              -73.5376987,
              5.9481514
            ],
            [
              -73.53716,
              5.9479069
            ],
            [
              -73.5366414,
              5.9476292
            ],
            [
              -73.5360534,
              5.9472599
            ],
            [
              -73.5356994,
              5.9470066
            ],
            [
              -73.5353927,
              5.9467659
            ],
            [
              -73.5348845,
              5.9463193
            ],
            [
              -73.5345576,
              5.9459991
            ],
            [
              -73.5335472,
              5.94494
            ],
            [
              -73.5331268,
              5.944578
            ],
            [
              -73.5328316,
              5.9443763
            ],
            [
              -73.5324647,
              5.9441715
            ],
            [
              -73.5313376,
              5.9436568
            ],
            [
              -73.5307617,
              5.9433571
            ],
            [
              -73.5302551,
              5.9430261
            ],
            [
              -73.5299926,
              5.9428195
            ],
            [
              -73.529738,
              5.9425883
            ],
            [
              -73.529503,
              5.942339
            ],
            [
              -73.5292963,
              5.9420799
            ],
            [
              -73.5291234,
              5.9418202
            ],
            [
              -73.5289239,
              5.9414357
            ],
            [
              -73.5288532,
              5.9412592
            ],
            [
              -73.5287584,
              5.9409464
            ],
            [
              -73.5286925,
              5.9405718
            ],
            [
              -73.5286724,
              5.9402626
            ],
            [
              -73.5286799,
              5.939846
            ],
            [
              -73.5287135,
              5.9392454
            ],
            [
              -73.5294636,
              5.9377738
            ],
            [
              -73.5296417,
              5.9364414
            ],
            [
              -73.5299437,
              5.9352982
            ],
            [
              -73.5302909,
              5.9344621
            ],
            [
              -73.5305067,
              5.9336706
            ],
            [
              -73.5305502,
              5.9335826
            ],
            [
              -73.5309393,
              5.9323072
            ],
            [
              -73.5315045,
              5.9311627
            ],
            [
              -73.5316788,
              5.9308984
            ],
            [
              -73.5320709,
              5.9302818
            ],
            [
              -73.5323762,
              5.9298852
            ],
            [
              -73.5326811,
              5.9294007
            ],
            [
              -73.5329858,
              5.9288723
            ],
            [
              -73.5331599,
              5.9285641
            ],
            [
              -73.5336389,
              5.9277714
            ],
            [
              -73.5341617,
              5.9269785
            ],
            [
              -73.5345105,
              5.9264939
            ],
            [
              -73.5348163,
              5.926229
            ],
            [
              -73.5360812,
              5.9245983
            ],
            [
              -73.5364299,
              5.9241136
            ],
            [
              -73.5366483,
              5.9238931
            ],
            [
              -73.5374359,
              5.9234504
            ],
            [
              -73.5381351,
              5.9228763
            ],
            [
              -73.539011,
              5.922565
            ],
            [
              -73.5400177,
              5.9220774
            ],
            [
              -73.5409373,
              5.921722
            ],
            [
              -73.542075,
              5.921102
            ],
            [
              -73.5429503,
              5.9206589
            ],
            [
              -73.5439575,
              5.9203031
            ],
            [
              -73.5448334,
              5.9199917
            ],
            [
              -73.5457531,
              5.9196802
            ],
            [
              -73.5466737,
              5.9195444
            ],
            [
              -73.5476376,
              5.9193205
            ],
            [
              -73.5486218,
              5.918507
            ],
            [
              -73.5492646,
              5.9178576
            ],
            [
              -73.550015,
              5.9172077
            ],
            [
              -73.5508744,
              5.9168807
            ],
            [
              -73.5515172,
              5.9162313
            ],
            [
              -73.5517281,
              5.9152606
            ],
            [
              -73.5516161,
              5.9142914
            ],
            [
              -73.5516118,
              5.9133216
            ],
            [
              -73.5507491,
              5.9128945
            ],
            [
              -73.5493478,
              5.912362
            ],
            [
              -73.5480536,
              5.9117212
            ],
            [
              -73.5436418,
              5.9117409
            ],
            [
              -73.5425647,
              5.9115301
            ],
            [
              -73.5413777,
              5.9107811
            ],
            [
              -73.540514,
              5.9101385
            ],
            [
              -73.5394351,
              5.9094968
            ],
            [
              -73.5382476,
              5.90864
            ],
            [
              -73.5367345,
              5.9071382
            ],
            [
              -73.5358703,
              5.9063878
            ],
            [
              -73.5351137,
              5.9056369
            ],
            [
              -73.5341443,
              5.9054256
            ],
            [
              -73.532853,
              5.9054314
            ],
            [
              -73.5319903,
              5.9050042
            ],
            [
              -73.5304791,
              5.9039333
            ],
            [
              -73.5299377,
              5.9031815
            ],
            [
              -73.5292892,
              5.9025378
            ],
            [
              -73.5291774,
              5.9015685
            ],
            [
              -73.5291731,
              5.9005988
            ],
            [
              -73.5285199,
              5.8988776
            ],
            [
              -73.5285156,
              5.8979079
            ],
            [
              -73.5280814,
              5.8970478
            ],
            [
              -73.5275401,
              5.8962959
            ],
            [
              -73.5265688,
              5.8956537
            ],
            [
              -73.5259203,
              5.89501
            ],
            [
              -73.5252662,
              5.8930734
            ],
            [
              -73.5248311,
              5.8919978
            ],
            [
              -73.5245045,
              5.8911372
            ],
            [
              -73.5236418,
              5.89071
            ],
            [
              -73.520306,
              5.8907246
            ],
            [
              -73.5194466,
              5.8910516
            ],
            [
              -73.5185881,
              5.8915941
            ],
            [
              -73.5180534,
              5.8923508
            ],
            [
              -73.5177343,
              5.8932142
            ],
            [
              -73.5169834,
              5.8937562
            ],
            [
              -73.516124,
              5.8940833
            ],
            [
              -73.5151565,
              5.894303
            ],
            [
              -73.5141885,
              5.894415
            ],
            [
              -73.5132201,
              5.8944192
            ],
            [
              -73.5126787,
              5.8936673
            ],
            [
              -73.5126745,
              5.8926976
            ],
            [
              -73.5125627,
              5.8917283
            ],
            [
              -73.5125542,
              5.8897888
            ],
            [
              -73.5115848,
              5.8895775
            ],
            [
              -73.5093251,
              5.8895873
            ],
            [
              -73.5083576,
              5.8898071
            ],
            [
              -73.5078229,
              5.8905637
            ],
            [
              -73.5069643,
              5.8908323
            ],
            [
              -73.5069577,
              5.8905852
            ],
            [
              -73.5069307,
              5.887906
            ],
            [
              -73.5069016,
              5.8870126
            ],
            [
              -73.5068474,
              5.8861208
            ],
            [
              -73.5067608,
              5.8852372
            ],
            [
              -73.5066457,
              5.884356
            ],
            [
              -73.5065078,
              5.8834776
            ],
            [
              -73.5063503,
              5.8826024
            ],
            [
              -73.5060356,
              5.8811139
            ],
            [
              -73.5058544,
              5.8803787
            ],
            [
              -73.5056531,
              5.879653
            ],
            [
              -73.5054262,
              5.8789402
            ],
            [
              -73.5051665,
              5.8782452
            ],
            [
              -73.5048376,
              5.8775129
            ],
            [
              -73.5044615,
              5.8768127
            ],
            [
              -73.504038,
              5.876151
            ],
            [
              -73.5035626,
              5.8755375
            ],
            [
              -73.5030267,
              5.874986
            ],
            [
              -73.5024703,
              5.8745414
            ],
            [
              -73.5018652,
              5.8741515
            ],
            [
              -73.5012225,
              5.8738061
            ],
            [
              -73.5006377,
              5.8735354
            ],
            [
              -73.500035,
              5.8732901
            ],
            [
              -73.4994177,
              5.8730685
            ],
            [
              -73.4985978,
              5.8728142
            ],
            [
              -73.4977631,
              5.8725916
            ],
            [
              -73.4969182,
              5.8723958
            ],
            [
              -73.4960661,
              5.8722248
            ],
            [
              -73.4952088,
              5.8720795
            ],
            [
              -73.4943475,
              5.8719632
            ],
            [
              -73.4934826,
              5.8718823
            ],
            [
              -73.4927468,
              5.8718455
            ],
            [
              -73.4922014,
              5.8718358
            ],
            [
              -73.4914526,
              5.8718387
            ],
            [
              -73.4911122,
              5.8714288
            ],
            [
              -73.4901789,
              5.8706194
            ],
            [
              -73.4885595,
              5.8690389
            ],
            [
              -73.4871474,
              5.8673007
            ],
            [
              -73.4857702,
              5.8650889
            ],
            [
              -73.4848776,
              5.8641971
            ],
            [
              -73.4838406,
              5.8634292
            ],
            [
              -73.4838415,
              5.8626003
            ],
            [
              -73.4836687,
              5.8622595
            ],
            [
              -73.4829514,
              5.8615687
            ],
            [
              -73.4827394,
              5.8612177
            ],
            [
              -73.4827408,
              5.8598362
            ],
            [
              -73.4821902,
              5.8587304
            ],
            [
              -73.4820728,
              5.8580446
            ],
            [
              -73.4821238,
              5.8563751
            ],
            [
              -73.4819175,
              5.855691
            ],
            [
              -73.4813446,
              5.8549035
            ],
            [
              -73.4808151,
              5.8545846
            ],
            [
              -73.4802633,
              5.854584
            ],
            [
              -73.4798834,
              5.8544118
            ],
            [
              -73.4794362,
              5.8540306
            ],
            [
              -73.4792383,
              5.8537507
            ],
            [
              -73.4791228,
              5.8533775
            ],
            [
              -73.479069,
              5.8516558
            ],
            [
              -73.4788876,
              5.8509908
            ],
            [
              -73.4783096,
              5.8500223
            ],
            [
              -73.4777855,
              5.8496081
            ],
            [
              -73.4766819,
              5.849607
            ],
            [
              -73.4762506,
              5.8493029
            ],
            [
              -73.4758551,
              5.8487772
            ],
            [
              -73.4755807,
              5.8473954
            ],
            [
              -73.4750298,
              5.846566
            ],
            [
              -73.4742027,
              5.8460125
            ],
            [
              -73.4733521,
              5.8457553
            ],
            [
              -73.4724096,
              5.8457343
            ],
            [
              -73.4711537,
              5.8461114
            ],
            [
              -73.4682531,
              5.8472013
            ],
            [
              -73.4662096,
              5.8474255
            ],
            [
              -73.4638433,
              5.8476511
            ],
            [
              -73.4628712,
              5.8467932
            ]
          ]
        ]
      },
      "id": "relation/1306572"
    }
  ]
}