{
  "type": "FeatureCollection",
  "features": [
    {
      "type": "Feature",
      "properties": {
        "@id": "relation/1306565",
        "DANE:area": "220.00",
        "DANE:departamento": "15",
        "admin_level": "6",
        "boundary": "administrative",
        "clcfile": "MunicipiosDepartamentos/ADM_Municipios.shp",
        "divipola": "15469",
        "entidad_te": "Cabecera Municipal",
        "is_in:country": "Colombia",
        "is_in:state": "Boyacá",
        "name": "Moniquirá",
        "objectid": "3809",
        "source": "OCHA - SIGOT",
        "type": "boundary",
        "wikidata": "Q1440715",
        "wikipedia": "es:Moniquirá"
      },
      "geometry": {
        "type": "Polygon",
        "coordinates": [
          [
            [
              -73.4628468,
              5.8467089
            ],
            [
              -73.4628712,
              5.8467932
            ],
            [
              -73.4638433,
              5.8476511
            ],
            [
              -73.4662096,
              5.8474255
            ],
            [
              -73.4682531,
              5.8472013
            ],
            [
              -73.4711537,
              5.8461114
            ],
            [
              -73.4724096,
              5.8457343
            ],
            [
              -73.4733521,
              5.8457553
            ],
            [
              -73.4742027,
              5.8460125
            ],
            [
              -73.4750298,
              5.846566
            ],
            [
              -73.4755807,
              5.8473954
            ],
            [
              -73.4758551,
              5.8487772
            ],
            [
              -73.4762506,
              5.8493029
            ],
            [
              -73.4766819,
              5.849607
            ],
            [
              -73.4777855,
              5.8496081
            ],
            [
              -73.4783096,
              5.8500223
            ],
            [
              -73.4788876,
              5.8509908
            ],
            [
              -73.479069,
              5.8516558
            ],
            [
              -73.4791228,
              5.8533775
            ],
            [
              -73.4792383,
              5.8537507
            ],
            [
              -73.4794362,
              5.8540306
            ],
            [
              -73.4798834,
              5.8544118
            ],
            [
              -73.4802633,
              5.854584
            ],
            [
              -73.4808151,
              5.8545846
            ],
            [
              -73.4813446,
              5.8549035
            ],
            [
              -73.4819175,
              5.855691
            ],
            [
              -73.4821238,
              5.8563751
            ],
            [
              -73.4820728,
              5.8580446
            ],
            [
              -73.4821902,
              5.8587304
            ],
            [
              -73.4827408,
              5.8598362
            ],
            [
              -73.4827394,
              5.8612177
            ],
            [
              -73.4829514,
              5.8615687
            ],
            [
              -73.4836687,
              5.8622595
            ],
            [
              -73.4838415,
              5.8626003
            ],
            [
              -73.4838406,
              5.8634292
            ],
            [
              -73.4848776,
              5.8641971
            ],
            [
              -73.4857702,
              5.8650889
            ],
            [
              -73.4871474,
              5.8673007
            ],
            [
              -73.4885595,
              5.8690389
            ],
            [
              -73.4901789,
              5.8706194
            ],
            [
              -73.4911122,
              5.8714288
            ],
            [
              -73.4914526,
              5.8718387
            ],
            [
              -73.4922014,
              5.8718358
            ],
            [
              -73.4927468,
              5.8718455
            ],
            [
              -73.4934826,
              5.8718823
            ],
            [
              -73.4943475,
              5.8719632
            ],
            [
              -73.4952088,
              5.8720795
            ],
            [
              -73.4960661,
              5.8722248
            ],
            [
              -73.4969182,
              5.8723958
            ],
            [
              -73.4977631,
              5.8725916
            ],
            [
              -73.4985978,
              5.8728142
            ],
            [
              -73.4994177,
              5.8730685
            ],
            [
              -73.500035,
              5.8732901
            ],
            [
              -73.5006377,
              5.8735354
            ],
            [
              -73.5012225,
              5.8738061
            ],
            [
              -73.5018652,
              5.8741515
            ],
            [
              -73.5024703,
              5.8745414
            ],
            [
              -73.5030267,
              5.874986
            ],
            [
              -73.5035626,
              5.8755375
            ],
            [
              -73.504038,
              5.876151
            ],
            [
              -73.5044615,
              5.8768127
            ],
            [
              -73.5048376,
              5.8775129
            ],
            [
              -73.5051665,
              5.8782452
            ],
            [
              -73.5054262,
              5.8789402
            ],
            [
              -73.5056531,
              5.879653
            ],
            [
              -73.5058544,
              5.8803787
            ],
            [
              -73.5060356,
              5.8811139
            ],
            [
              -73.5063503,
              5.8826024
            ],
            [
              -73.5065078,
              5.8834776
            ],
            [
              -73.5066457,
              5.884356
            ],
            [
              -73.5067608,
              5.8852372
            ],
            [
              -73.5068474,
              5.8861208
            ],
            [
              -73.5069016,
              5.8870126
            ],
            [
              -73.5069307,
              5.887906
            ],
            [
              -73.5069577,
              5.8905852
            ],
            [
              -73.5069643,
              5.8908323
            ],
            [
              -73.5078229,
              5.8905637
            ],
            [
              -73.5083576,
              5.8898071
            ],
            [
              -73.5093251,
              5.8895873
            ],
            [
              -73.5115848,
              5.8895775
            ],
            [
              -73.5125542,
              5.8897888
            ],
            [
              -73.5125627,
              5.8917283
            ],
            [
              -73.5126745,
              5.8926976
            ],
            [
              -73.5126787,
              5.8936673
            ],
            [
              -73.5132201,
              5.8944192
            ],
            [
              -73.5141885,
              5.894415
            ],
            [
              -73.5151565,
              5.894303
            ],
            [
              -73.516124,
              5.8940833
            ],
            [
              -73.5169834,
              5.8937562
            ],
            [
              -73.5177343,
              5.8932142
            ],
            [
              -73.5180534,
              5.8923508
            ],
            [
              -73.5185881,
              5.8915941
            ],
            [
              -73.5194466,
              5.8910516
            ],
            [
              -73.520306,
              5.8907246
            ],
            [
              -73.5236418,
              5.89071
            ],
            [
              -73.5245045,
              5.8911372
            ],
            [
              -73.5248311,
              5.8919978
            ],
            [
              -73.5252662,
              5.8930734
            ],
            [
              -73.5259203,
              5.89501
            ],
            [
              -73.5265688,
              5.8956537
            ],
            [
              -73.5275401,
              5.8962959
            ],
            [
              -73.5280814,
              5.8970478
            ],
            [
              -73.5285156,
              5.8979079
            ],
            [
              -73.5285199,
              5.8988776
            ],
            [
              -73.5291731,
              5.9005988
            ],
            [
              -73.5291774,
              5.9015685
            ],
            [
              -73.5292892,
              5.9025378
            ],
            [
              -73.5299377,
              5.9031815
            ],
            [
              -73.5304791,
              5.9039333
            ],
            [
              -73.5319903,
              5.9050042
            ],
            [
              -73.532853,
              5.9054314
            ],
            [
              -73.5341443,
              5.9054256
            ],
            [
              -73.5351137,
              5.9056369
            ],
            [
              -73.5358703,
              5.9063878
            ],
            [
              -73.5367345,
              5.9071382
            ],
            [
              -73.5382476,
              5.90864
            ],
            [
              -73.5394351,
              5.9094968
            ],
            [
              -73.540514,
              5.9101385
            ],
            [
              -73.5413777,
              5.9107811
            ],
            [
              -73.5425647,
              5.9115301
            ],
            [
              -73.5436418,
              5.9117409
            ],
            [
              -73.5480536,
              5.9117212
            ],
            [
              -73.5493478,
              5.912362
            ],
            [
              -73.5507491,
              5.9128945
            ],
            [
              -73.5516118,
              5.9133216
            ],
            [
              -73.5516161,
              5.9142914
            ],
            [
              -73.5517281,
              5.9152606
            ],
            [
              -73.5515172,
              5.9162313
            ],
            [
              -73.5508744,
              5.9168807
            ],
            [
              -73.550015,
              5.9172077
            ],
            [
              -73.5492646,
              5.9178576
            ],
            [
              -73.5486218,
              5.918507
            ],
            [
              -73.5476376,
              5.9193205
            ],
            [
              -73.5466737,
              5.9195444
            ],
            [
              -73.5457531,
              5.9196802
            ],
            [
              -73.5448334,
              5.9199917
            ],
            [
              -73.5439575,
              5.9203031
            ],
            [
              -73.5429503,
              5.9206589
            ],
            [
              -73.542075,
              5.921102
            ],
            [
              -73.5409373,
              5.921722
            ],
            [
              -73.5400177,
              5.9220774
            ],
            [
              -73.539011,
              5.922565
            ],
            [
              -73.5381351,
              5.9228763
            ],
            [
              -73.5374359,
              5.9234504
            ],
            [
              -73.5366483,
              5.9238931
            ],
            [
              -73.5364299,
              5.9241136
            ],
            [
              -73.5360812,
              5.9245983
            ],
            [
              -73.5348163,
              5.926229
            ],
            [
              -73.5345105,
              5.9264939
            ],
            [
              -73.5341617,
              5.9269785
            ],
            [
              -73.5336389,
              5.9277714
            ],
            [
              -73.5331599,
              5.9285641
            ],
            [
              -73.5329858,
              5.9288723
            ],
            [
              -73.5326811,
              5.9294007
            ],
            [
              -73.5323762,
              5.9298852
            ],
            [
              -73.5320709,
              5.9302818
            ],
            [
              -73.5316788,
              5.9308984
            ],
            [
              -73.5315045,
              5.9311627
            ],
            [
              -73.5309393,
              5.9323072
            ],
            [
              -73.5305502,
              5.9335826
            ],
            [
              -73.5305067,
              5.9336706
            ],
            [
              -73.5302909,
              5.9344621
            ],
            [
              -73.5299437,
              5.9352982
            ],
            [
              -73.5296417,
              5.9364414
            ],
            [
              -73.5294636,
              5.9377738
            ],
            [
              -73.5287135,
              5.9392454
            ],
            [
              -73.5286799,
              5.939846
            ],
            [
              -73.5286724,
              5.9402626
            ],
            [
              -73.5286925,
              5.9405718
            ],
            [
              -73.5287584,
              5.9409464
            ],
            [
              -73.5288532,
              5.9412592
            ],
            [
              -73.5289239,
              5.9414357
            ],
            [
              -73.5291234,
              5.9418202
            ],
            [
              -73.5292963,
              5.9420799
            ],
            [
              -73.529503,
              5.942339
            ],
            [
              -73.529738,
              5.9425883
            ],
            [
              -73.5299926,
              5.9428195
            ],
            [
              -73.5302551,
              5.9430261
            ],
            [
              -73.5307617,
              5.9433571
            ],
            [
              -73.5313376,
              5.9436568
            ],
            [
              -73.5324647,
              5.9441715
            ],
            [
              -73.5328316,
              5.9443763
            ],
            [
              -73.5331268,
              5.944578
            ],
            [
              -73.5335472,
              5.94494
            ],
            [
              -73.5345576,
              5.9459991
            ],
            [
              -73.5348845,
              5.9463193
            ],
            [
              -73.5353927,
              5.9467659
            ],
            [
              -73.5356994,
              5.9470066
            ],
            [
              -73.5360534,
              5.9472599
            ],
            [
              -73.5366414,
              5.9476292
            ],
            [
              -73.53716,
              5.9479069
            ],
            [
              -73.5376987,
              5.9481514
            ],
            [
              -73.5382164,
              5.9483453
            ],
            [
              -73.5386433,
              5.9484763
            ],
            [
              -73.5391054,
              5.9485907
            ],
            [
              -73.5396116,
              5.948687
            ],
            [
              -73.540174,
              5.9487632
            ],
            [
              -73.540732,
              5.9488125
            ],
            [
              -73.5413699,
              5.9488439
            ],
            [
              -73.5421788,
              5.9488582
            ],
            [
              -73.5442876,
              5.9488744
            ],
            [
              -73.5452802,
              5.9489302
            ],
            [
              -73.5461563,
              5.9490353
            ],
            [
              -73.546543,
              5.9491025
            ],
            [
              -73.547303,
              5.9492757
            ],
            [
              -73.547991,
              5.9494777
            ],
            [
              -73.5493823,
              5.9499426
            ],
            [
              -73.5498637,
              5.950077
            ],
            [
              -73.5502701,
              5.9501645
            ],
            [
              -73.550819,
              5.9502433
            ],
            [
              -73.5511292,
              5.9502715
            ],
            [
              -73.5530191,
              5.950359
            ],
            [
              -73.5541072,
              5.9504512
            ],
            [
              -73.5548777,
              5.9505603
            ],
            [
              -73.5552762,
              5.9506331
            ],
            [
              -73.5560977,
              5.9508209
            ],
            [
              -73.5566326,
              5.9509713
            ],
            [
              -73.5571776,
              5.9511479
            ],
            [
              -73.5577307,
              5.9513514
            ],
            [
              -73.5582898,
              5.951582
            ],
            [
              -73.5588532,
              5.9518394
            ],
            [
              -73.5594169,
              5.9521221
            ],
            [
              -73.5599779,
              5.9524273
            ],
            [
              -73.5605322,
              5.9527514
            ],
            [
              -73.5626895,
              5.9541215
            ],
            [
              -73.5634272,
              5.9545384
            ],
            [
              -73.5640746,
              5.954844
            ],
            [
              -73.5645592,
              5.9550325
            ],
            [
              -73.564957,
              5.9551646
            ],
            [
              -73.5670344,
              5.9557314
            ],
            [
              -73.5686709,
              5.9562778
            ],
            [
              -73.5692062,
              5.956414
            ],
            [
              -73.5696034,
              5.9564762
            ],
            [
              -73.5701568,
              5.9565091
            ],
            [
              -73.5706612,
              5.9564966
            ],
            [
              -73.5722723,
              5.9563568
            ],
            [
              -73.5728906,
              5.9563327
            ],
            [
              -73.5734548,
              5.9563534
            ],
            [
              -73.5745958,
              5.9564714
            ],
            [
              -73.5751979,
              5.9564844
            ],
            [
              -73.5773316,
              5.9562969
            ],
            [
              -73.5780113,
              5.9562208
            ],
            [
              -73.5782953,
              5.9561709
            ],
            [
              -73.5786104,
              5.9560956
            ],
            [
              -73.579088,
              5.9559326
            ],
            [
              -73.5793639,
              5.9558129
            ],
            [
              -73.5806655,
              5.9551775
            ],
            [
              -73.5809953,
              5.9550422
            ],
            [
              -73.5822728,
              5.9545726
            ],
            [
              -73.5827365,
              5.9543699
            ],
            [
              -73.5838435,
              5.9538482
            ],
            [
              -73.5843656,
              5.9536597
            ],
            [
              -73.584724,
              5.9535672
            ],
            [
              -73.5852414,
              5.9534719
            ],
            [
              -73.5864474,
              5.953314
            ],
            [
              -73.587103,
              5.9532753
            ],
            [
              -73.5874242,
              5.9532951
            ],
            [
              -73.5876641,
              5.9533398
            ],
            [
              -73.5878465,
              5.9533989
            ],
            [
              -73.5880432,
              5.9534966
            ],
            [
              -73.5881762,
              5.9535893
            ],
            [
              -73.5883336,
              5.9537357
            ],
            [
              -73.5885167,
              5.9539729
            ],
            [
              -73.5886136,
              5.9541382
            ],
            [
              -73.5887836,
              5.9545241
            ],
            [
              -73.5889453,
              5.9550654
            ],
            [
              -73.5890774,
              5.9556998
            ],
            [
              -73.5892714,
              5.9568688
            ],
            [
              -73.5893828,
              5.9574458
            ],
            [
              -73.5894855,
              5.9578596
            ],
            [
              -73.5896123,
              5.9582483
            ],
            [
              -73.5897596,
              5.9585824
            ],
            [
              -73.5899022,
              5.9588247
            ],
            [
              -73.5900318,
              5.9589957
            ],
            [
              -73.590187,
              5.9591549
            ],
            [
              -73.5903517,
              5.959283
            ],
            [
              -73.5905073,
              5.9593754
            ],
            [
              -73.5907607,
              5.9594845
            ],
            [
              -73.591083,
              5.9595766
            ],
            [
              -73.5920476,
              5.9597505
            ],
            [
              -73.5925101,
              5.9598636
            ],
            [
              -73.5927233,
              5.9599367
            ],
            [
              -73.5928173,
              5.9599789
            ],
            [
              -73.5933112,
              5.9583684
            ],
            [
              -73.5934956,
              5.9578437
            ],
            [
              -73.5937631,
              5.9571952
            ],
            [
              -73.5939263,
              5.956854
            ],
            [
              -73.5941582,
              5.9564203
            ],
            [
              -73.595119,
              5.9548446
            ],
            [
              -73.5955649,
              5.9540305
            ],
            [
              -73.5957975,
              5.9535328
            ],
            [
              -73.5960751,
              5.9529136
            ],
            [
              -73.5965698,
              5.9517465
            ],
            [
              -73.5969418,
              5.9509227
            ],
            [
              -73.5973175,
              5.9501707
            ],
            [
              -73.5983622,
              5.9482413
            ],
            [
              -73.598809,
              5.9473545
            ],
            [
              -73.5992409,
              5.9463924
            ],
            [
              -73.599921,
              5.9447205
            ],
            [
              -73.600374,
              5.9436567
            ],
            [
              -73.6007393,
              5.9428795
            ],
            [
              -73.6017542,
              5.9408554
            ],
            [
              -73.6020878,
              5.9401036
            ],
            [
              -73.6023704,
              5.9393708
            ],
            [
              -73.6030382,
              5.9374453
            ],
            [
              -73.6033588,
              5.9366537
            ],
            [
              -73.6037587,
              5.93582
            ],
            [
              -73.6040346,
              5.9353193
            ],
            [
              -73.6043342,
              5.9348261
            ],
            [
              -73.6046523,
              5.9343468
            ],
            [
              -73.6051316,
              5.9336867
            ],
            [
              -73.605906,
              5.9326955
            ],
            [
              -73.6061965,
              5.9323184
            ],
            [
              -73.6072074,
              5.9309657
            ],
            [
              -73.607791,
              5.9302807
            ],
            [
              -73.6088681,
              5.9291503
            ],
            [
              -73.6092865,
              5.9286737
            ],
            [
              -73.6097224,
              5.9280867
            ],
            [
              -73.6104741,
              5.9269129
            ],
            [
              -73.6107303,
              5.9265946
            ],
            [
              -73.6110455,
              5.9262979
            ],
            [
              -73.6110964,
              5.9262634
            ],
            [
              -73.6113894,
              5.9260646
            ],
            [
              -73.6116278,
              5.9259414
            ],
            [
              -73.6119223,
              5.9258211
            ],
            [
              -73.6122716,
              5.9257134
            ],
            [
              -73.612672,
              5.9256255
            ],
            [
              -73.6133583,
              5.9254071
            ],
            [
              -73.6146779,
              5.9254614
            ],
            [
              -73.6151463,
              5.9254169
            ],
            [
              -73.615616,
              5.9253414
            ],
            [
              -73.6161251,
              5.9252182
            ],
            [
              -73.6179364,
              5.9246288
            ],
            [
              -73.6195585,
              5.9241997
            ],
            [
              -73.6203156,
              5.9239723
            ],
            [
              -73.6209488,
              5.9237155
            ],
            [
              -73.621327,
              5.9235173
            ],
            [
              -73.6215513,
              5.9233804
            ],
            [
              -73.6219502,
              5.923096
            ],
            [
              -73.622242,
              5.9228502
            ],
            [
              -73.6226838,
              5.9224055
            ],
            [
              -73.6230224,
              5.9221096
            ],
            [
              -73.6232741,
              5.9216396
            ],
            [
              -73.6237059,
              5.9209279
            ],
            [
              -73.6244494,
              5.9195168
            ],
            [
              -73.6246182,
              5.9192031
            ],
            [
              -73.6248566,
              5.9187723
            ],
            [
              -73.6253767,
              5.9179279
            ],
            [
              -73.6258809,
              5.9172298
            ],
            [
              -73.6261316,
              5.9169245
            ],
            [
              -73.6266304,
              5.9163914
            ],
            [
              -73.6268786,
              5.9161589
            ],
            [
              -73.6274314,
              5.9157085
            ],
            [
              -73.6279823,
              5.9153393
            ],
            [
              -73.6283356,
              5.9151264
            ],
            [
              -73.6286206,
              5.9149939
            ],
            [
              -73.6297136,
              5.9145005
            ],
            [
              -73.6300937,
              5.9143126
            ],
            [
              -73.6301596,
              5.9142753
            ],
            [
              -73.630155,
              5.9142445
            ],
            [
              -73.6300005,
              5.9131929
            ],
            [
              -73.6297986,
              5.9122832
            ],
            [
              -73.6296759,
              5.9113733
            ],
            [
              -73.6296633,
              5.9086416
            ],
            [
              -73.6303266,
              5.9067106
            ],
            [
              -73.6306377,
              5.9055611
            ],
            [
              -73.6309097,
              5.9045305
            ],
            [
              -73.631446,
              5.9007671
            ],
            [
              -73.6316306,
              5.8979158
            ],
            [
              -73.6305573,
              5.8966538
            ],
            [
              -73.6292859,
              5.8952741
            ],
            [
              -73.6279368,
              5.8942113
            ],
            [
              -73.6261124,
              5.8929528
            ],
            [
              -73.6247281,
              5.8928404
            ],
            [
              -73.6230277,
              5.892769
            ],
            [
              -73.6199801,
              5.8920307
            ],
            [
              -73.6181194,
              5.8914849
            ],
            [
              -73.6159814,
              5.8908216
            ],
            [
              -73.6144366,
              5.8901952
            ],
            [
              -73.6138804,
              5.8896039
            ],
            [
              -73.61249,
              5.8881454
            ],
            [
              -73.6097864,
              5.8847926
            ],
            [
              -73.6081917,
              5.8818701
            ],
            [
              -73.6075498,
              5.8798144
            ],
            [
              -73.6070305,
              5.878629
            ],
            [
              -73.6056413,
              5.877408
            ],
            [
              -73.6040937,
              5.8761481
            ],
            [
              -73.6033375,
              5.875043
            ],
            [
              -73.6026207,
              5.8738981
            ],
            [
              -73.6020211,
              5.872436
            ],
            [
              -73.6007473,
              5.8705018
            ],
            [
              -73.599912,
              5.8693971
            ],
            [
              -73.5999074,
              5.8683678
            ],
            [
              -73.6005758,
              5.8675333
            ],
            [
              -73.6012824,
              5.8664216
            ],
            [
              -73.6026132,
              5.8634503
            ],
            [
              -73.6038595,
              5.859264
            ],
            [
              -73.6046445,
              5.8579935
            ],
            [
              -73.6055044,
              5.8558122
            ],
            [
              -73.6062069,
              5.8537899
            ],
            [
              -73.6067467,
              5.8507391
            ],
            [
              -73.607449,
              5.8486772
            ],
            [
              -73.6087401,
              5.8456625
            ],
            [
              -73.6095245,
              5.8442733
            ],
            [
              -73.6104647,
              5.8423688
            ],
            [
              -73.6124267,
              5.8391136
            ],
            [
              -73.614109,
              5.8351866
            ],
            [
              -73.6152069,
              5.8332021
            ],
            [
              -73.6163094,
              5.8322074
            ],
            [
              -73.6172914,
              5.8308173
            ],
            [
              -73.6178397,
              5.8296588
            ],
            [
              -73.6183092,
              5.8285878
            ],
            [
              -73.6188571,
              5.827358
            ],
            [
              -73.6191689,
              5.8263669
            ],
            [
              -73.6195993,
              5.8253752
            ],
            [
              -73.6199102,
              5.8241861
            ],
            [
              -73.6199457,
              5.8232754
            ],
            [
              -73.6199328,
              5.820425
            ],
            [
              -73.6204784,
              5.8186806
            ],
            [
              -73.62087,
              5.8178474
            ],
            [
              -73.6215381,
              5.8169734
            ],
            [
              -73.6221675,
              5.8162975
            ],
            [
              -73.6227963,
              5.8154633
            ],
            [
              -73.6229503,
              5.8145521
            ],
            [
              -73.6231439,
              5.8136406
            ],
            [
              -73.6232979,
              5.8127294
            ],
            [
              -73.62361,
              5.8118174
            ],
            [
              -73.623962,
              5.8109844
            ],
            [
              -73.6241942,
              5.8098749
            ],
            [
              -73.6241894,
              5.808806
            ],
            [
              -73.62426,
              5.8069054
            ],
            [
              -73.6243743,
              5.8059547
            ],
            [
              -73.6243695,
              5.8048858
            ],
            [
              -73.62472,
              5.8037282
            ],
            [
              -73.6253098,
              5.8030129
            ],
            [
              -73.625741,
              5.8022192
            ],
            [
              -73.6257316,
              5.800121
            ],
            [
              -73.6258853,
              5.7991306
            ],
            [
              -73.6264738,
              5.7981382
            ],
            [
              -73.6271011,
              5.7969873
            ],
            [
              -73.6275692,
              5.7955995
            ],
            [
              -73.6279608,
              5.7947664
            ],
            [
              -73.6281148,
              5.7938551
            ],
            [
              -73.628546,
              5.7930614
            ],
            [
              -73.6292137,
              5.7921082
            ],
            [
              -73.6297235,
              5.7911954
            ],
            [
              -73.6295608,
              5.7901668
            ],
            [
              -73.6291223,
              5.7893374
            ],
            [
              -73.6289601,
              5.7884275
            ],
            [
              -73.6287977,
              5.7874781
            ],
            [
              -73.6285171,
              5.7866084
            ],
            [
              -73.6282359,
              5.7856199
            ],
            [
              -73.6281528,
              5.7847098
            ],
            [
              -73.6277931,
              5.7838404
            ],
            [
              -73.627473,
              5.7829709
            ],
            [
              -73.6272314,
              5.7819822
            ],
            [
              -73.6268324,
              5.7811407
            ],
            [
              -73.6266307,
              5.7802311
            ],
            [
              -73.6263494,
              5.779203
            ],
            [
              -73.6261477,
              5.7782934
            ],
            [
              -73.6260949,
              5.7777158
            ],
            [
              -73.6258974,
              5.7775574
            ],
            [
              -73.6256882,
              5.7774407
            ],
            [
              -73.6253512,
              5.7772658
            ],
            [
              -73.6249327,
              5.777149
            ],
            [
              -73.6243048,
              5.77723
            ],
            [
              -73.6237211,
              5.7775095
            ],
            [
              -73.6234184,
              5.7777692
            ],
            [
              -73.6233161,
              5.778071
            ],
            [
              -73.6231923,
              5.7783586
            ],
            [
              -73.623056,
              5.7786148
            ],
            [
              -73.6228939,
              5.7788627
            ],
            [
              -73.6226995,
              5.7791111
            ],
            [
              -73.6224783,
              5.7793513
            ],
            [
              -73.6222325,
              5.7795808
            ],
            [
              -73.6219654,
              5.7797966
            ],
            [
              -73.6216702,
              5.7800024
            ],
            [
              -73.6213256,
              5.7802097
            ],
            [
              -73.6211038,
              5.780326
            ],
            [
              -73.6209194,
              5.7803961
            ],
            [
              -73.6208048,
              5.7804157
            ],
            [
              -73.6206703,
              5.7804157
            ],
            [
              -73.6202282,
              5.7803529
            ],
            [
              -73.620084,
              5.7803419
            ],
            [
              -73.6199582,
              5.7803505
            ],
            [
              -73.6198523,
              5.7803809
            ],
            [
              -73.6197721,
              5.7804265
            ],
            [
              -73.6196914,
              5.7804971
            ],
            [
              -73.6194486,
              5.7807938
            ],
            [
              -73.6193527,
              5.7808909
            ],
            [
              -73.6192465,
              5.7809599
            ],
            [
              -73.6190933,
              5.7810213
            ],
            [
              -73.6189595,
              5.7810554
            ],
            [
              -73.6188144,
              5.7810774
            ],
            [
              -73.6185028,
              5.7810832
            ],
            [
              -73.6181883,
              5.7810381
            ],
            [
              -73.6180424,
              5.7809979
            ],
            [
              -73.61791,
              5.7809474
            ],
            [
              -73.6177995,
              5.7808824
            ],
            [
              -73.6176891,
              5.7807807
            ],
            [
              -73.6173659,
              5.7803593
            ],
            [
              -73.6172418,
              5.7802243
            ],
            [
              -73.6171148,
              5.7801327
            ],
            [
              -73.6169526,
              5.7800716
            ],
            [
              -73.6167291,
              5.780027
            ],
            [
              -73.6164905,
              5.7800188
            ],
            [
              -73.6162368,
              5.780047
            ],
            [
              -73.615968,
              5.7801117
            ],
            [
              -73.6158491,
              5.7802104
            ],
            [
              -73.6157477,
              5.7803162
            ],
            [
              -73.6156754,
              5.7804131
            ],
            [
              -73.6156374,
              5.7805023
            ],
            [
              -73.6156195,
              5.7806145
            ],
            [
              -73.6156244,
              5.7807483
            ],
            [
              -73.6157502,
              5.781349
            ],
            [
              -73.6157638,
              5.7814818
            ],
            [
              -73.6157583,
              5.7815937
            ],
            [
              -73.6157286,
              5.7817022
            ],
            [
              -73.6156716,
              5.7817954
            ],
            [
              -73.6155558,
              5.7819256
            ],
            [
              -73.6154147,
              5.7820454
            ],
            [
              -73.6151743,
              5.7823411
            ],
            [
              -73.6149123,
              5.7826068
            ],
            [
              -73.6146195,
              5.7828493
            ],
            [
              -73.6143401,
              5.7830327
            ],
            [
              -73.6139731,
              5.7832196
            ],
            [
              -73.6134604,
              5.7834335
            ],
            [
              -73.6133099,
              5.7834702
            ],
            [
              -73.612901,
              5.7835289
            ],
            [
              -73.612803,
              5.7835578
            ],
            [
              -73.6127309,
              5.7835956
            ],
            [
              -73.6126832,
              5.7836416
            ],
            [
              -73.6126554,
              5.7836981
            ],
            [
              -73.6126488,
              5.7837589
            ],
            [
              -73.6126591,
              5.7839575
            ],
            [
              -73.6126403,
              5.7840057
            ],
            [
              -73.6126027,
              5.7840384
            ],
            [
              -73.6125368,
              5.7840568
            ],
            [
              -73.6124433,
              5.784056
            ],
            [
              -73.6120335,
              5.7839811
            ],
            [
              -73.6118777,
              5.7839704
            ],
            [
              -73.6117106,
              5.7840094
            ],
            [
              -73.6115419,
              5.7840943
            ],
            [
              -73.6113892,
              5.7842126
            ],
            [
              -73.6112347,
              5.7843732
            ],
            [
              -73.6110752,
              5.7845767
            ],
            [
              -73.6106099,
              5.7852306
            ],
            [
              -73.6104482,
              5.7854138
            ],
            [
              -73.6102903,
              5.7855533
            ],
            [
              -73.6101158,
              5.7856623
            ],
            [
              -73.609899,
              5.7857526
            ],
            [
              -73.6096592,
              5.7858216
            ],
            [
              -73.6089715,
              5.7859811
            ],
            [
              -73.6087717,
              5.7860492
            ],
            [
              -73.6086038,
              5.7861289
            ],
            [
              -73.6083621,
              5.7862956
            ],
            [
              -73.6081157,
              5.7865094
            ],
            [
              -73.6078923,
              5.7867469
            ],
            [
              -73.6076862,
              5.7870124
            ],
            [
              -73.6074584,
              5.7870946
            ],
            [
              -73.6072513,
              5.7872057
            ],
            [
              -73.6071032,
              5.7873148
            ],
            [
              -73.606893,
              5.78754
            ],
            [
              -73.606816,
              5.7875876
            ],
            [
              -73.6067224,
              5.7876268
            ],
            [
              -73.6065694,
              5.7876594
            ],
            [
              -73.6064031,
              5.7876597
            ],
            [
              -73.6062235,
              5.7876278
            ],
            [
              -73.6060306,
              5.7875636
            ],
            [
              -73.605894,
              5.7878116
            ],
            [
              -73.6057408,
              5.788019
            ],
            [
              -73.6055709,
              5.7881861
            ],
            [
              -73.6053843,
              5.7883126
            ],
            [
              -73.6052149,
              5.7883875
            ],
            [
              -73.6051039,
              5.7884096
            ],
            [
              -73.6049691,
              5.7884036
            ],
            [
              -73.6046021,
              5.7883478
            ],
            [
              -73.6045019,
              5.78835
            ],
            [
              -73.6044193,
              5.7883695
            ],
            [
              -73.6043115,
              5.7884393
            ],
            [
              -73.6041406,
              5.7886273
            ],
            [
              -73.6040566,
              5.7887023
            ],
            [
              -73.6037548,
              5.7889142
            ],
            [
              -73.6035787,
              5.7890098
            ],
            [
              -73.6033934,
              5.7890925
            ],
            [
              -73.6031986,
              5.7891622
            ],
            [
              -73.6029946,
              5.7892189
            ],
            [
              -73.602876,
              5.789504
            ],
            [
              -73.6027231,
              5.7897642
            ],
            [
              -73.6025349,
              5.7900003
            ],
            [
              -73.6023128,
              5.7902118
            ],
            [
              -73.6021005,
              5.7903635
            ],
            [
              -73.6017642,
              5.7905103
            ],
            [
              -73.6016446,
              5.790577
            ],
            [
              -73.601556,
              5.7906507
            ],
            [
              -73.6013784,
              5.7908406
            ],
            [
              -73.6012858,
              5.7909112
            ],
            [
              -73.6011781,
              5.7909664
            ],
            [
              -73.6009218,
              5.7910708
            ],
            [
              -73.6008161,
              5.7911293
            ],
            [
              -73.6007295,
              5.7912013
            ],
            [
              -73.6005513,
              5.7913925
            ],
            [
              -73.6004489,
              5.7914669
            ],
            [
              -73.6002618,
              5.7915429
            ],
            [
              -73.5997741,
              5.7916639
            ],
            [
              -73.5996568,
              5.7917158
            ],
            [
              -73.5995355,
              5.7917918
            ],
            [
              -73.5993934,
              5.7919102
            ],
            [
              -73.599248,
              5.7920637
            ],
            [
              -73.5986924,
              5.7927708
            ],
            [
              -73.5985643,
              5.7928995
            ],
            [
              -73.5984375,
              5.7930014
            ],
            [
              -73.5983167,
              5.7930753
            ],
            [
              -73.5982009,
              5.7931249
            ],
            [
              -73.597736,
              5.7932387
            ],
            [
              -73.5975619,
              5.7933041
            ],
            [
              -73.5974391,
              5.7933877
            ],
            [
              -73.5972392,
              5.7936047
            ],
            [
              -73.597136,
              5.7936621
            ],
            [
              -73.597056,
              5.7936773
            ],
            [
              -73.5969602,
              5.7936773
            ],
            [
              -73.5966094,
              5.7936231
            ],
            [
              -73.5964793,
              5.7936156
            ],
            [
              -73.5963756,
              5.7936322
            ],
            [
              -73.5962197,
              5.7936965
            ],
            [
              -73.5960231,
              5.7938222
            ],
            [
              -73.5958445,
              5.7939917
            ],
            [
              -73.595684,
              5.794205
            ],
            [
              -73.5955415,
              5.7944622
            ],
            [
              -73.5954262,
              5.7946198
            ],
            [
              -73.5953008,
              5.7947611
            ],
            [
              -73.5951653,
              5.794886
            ],
            [
              -73.5950197,
              5.7949945
            ],
            [
              -73.5949316,
              5.7950463
            ],
            [
              -73.5948298,
              5.7950861
            ],
            [
              -73.5944061,
              5.7951811
            ],
            [
              -73.5942408,
              5.7952411
            ],
            [
              -73.5941652,
              5.7952871
            ],
            [
              -73.5940612,
              5.795373
            ],
            [
              -73.5938853,
              5.795566
            ],
            [
              -73.5936217,
              5.7956683
            ],
            [
              -73.5933742,
              5.7957314
            ],
            [
              -73.593143,
              5.7957555
            ],
            [
              -73.592928,
              5.7957403
            ],
            [
              -73.5927292,
              5.795686
            ],
            [
              -73.5925467,
              5.7955926
            ],
            [
              -73.5923804,
              5.79546
            ],
            [
              -73.5922303,
              5.7952883
            ],
            [
              -73.5920625,
              5.7952736
            ],
            [
              -73.5919038,
              5.7952441
            ],
            [
              -73.5917542,
              5.7951998
            ],
            [
              -73.5916138,
              5.7951406
            ],
            [
              -73.5914953,
              5.7950748
            ],
            [
              -73.5913867,
              5.7949985
            ],
            [
              -73.59118,
              5.7947804
            ],
            [
              -73.5910851,
              5.7947049
            ],
            [
              -73.5909199,
              5.7946169
            ],
            [
              -73.5907151,
              5.794546
            ],
            [
              -73.5904836,
              5.7944921
            ],
            [
              -73.5902136,
              5.7944464
            ],
            [
              -73.5900177,
              5.7944455
            ],
            [
              -73.5895929,
              5.7944874
            ],
            [
              -73.5894152,
              5.7944927
            ],
            [
              -73.5892424,
              5.7944702
            ],
            [
              -73.5890779,
              5.7944084
            ],
            [
              -73.5889226,
              5.7943186
            ],
            [
              -73.588767,
              5.7941989
            ],
            [
              -73.5886108,
              5.794049
            ],
            [
              -73.5884535,
              5.7938684
            ],
            [
              -73.5882719,
              5.7936243
            ],
            [
              -73.5880843,
              5.7933346
            ],
            [
              -73.5879332,
              5.7929769
            ],
            [
              -73.5878785,
              5.7928735
            ],
            [
              -73.5878108,
              5.7927903
            ],
            [
              -73.5877103,
              5.7927112
            ],
            [
              -73.5875862,
              5.7926425
            ],
            [
              -73.5874273,
              5.7925766
            ],
            [
              -73.5872349,
              5.7925113
            ],
            [
              -73.5871086,
              5.7924892
            ],
            [
              -73.5868642,
              5.7924958
            ],
            [
              -73.5862606,
              5.7925856
            ],
            [
              -73.5861082,
              5.7925843
            ],
            [
              -73.5859798,
              5.7925593
            ],
            [
              -73.5858171,
              5.7924774
            ],
            [
              -73.5856373,
              5.7923375
            ],
            [
              -73.5854798,
              5.792169
            ],
            [
              -73.5853363,
              5.7919668
            ],
            [
              -73.5851935,
              5.791758
            ],
            [
              -73.5850406,
              5.7915631
            ],
            [
              -73.5848778,
              5.7913821
            ],
            [
              -73.584705,
              5.791215
            ],
            [
              -73.5844778,
              5.7910277
            ],
            [
              -73.5842353,
              5.7908615
            ],
            [
              -73.5837821,
              5.7906415
            ],
            [
              -73.5836339,
              5.7905488
            ],
            [
              -73.5834837,
              5.7903928
            ],
            [
              -73.5832368,
              5.7900413
            ],
            [
              -73.5831335,
              5.7899153
            ],
            [
              -73.5830127,
              5.7898135
            ],
            [
              -73.5828872,
              5.7897602
            ],
            [
              -73.5827429,
              5.7897415
            ],
            [
              -73.5824773,
              5.7897532
            ],
            [
              -73.581923,
              5.7896833
            ],
            [
              -73.5817732,
              5.7896457
            ],
            [
              -73.5814636,
              5.7891999
            ],
            [
              -73.5812397,
              5.7907176
            ],
            [
              -73.5811969,
              5.7911495
            ],
            [
              -73.5811672,
              5.7918703
            ],
            [
              -73.5811851,
              5.7923721
            ],
            [
              -73.5812403,
              5.7929013
            ],
            [
              -73.5813222,
              5.7934024
            ],
            [
              -73.5815644,
              5.794592
            ],
            [
              -73.5816068,
              5.7948508
            ],
            [
              -73.5816536,
              5.7952988
            ],
            [
              -73.5816609,
              5.7955743
            ],
            [
              -73.5816381,
              5.7959644
            ],
            [
              -73.5815939,
              5.7962524
            ],
            [
              -73.5815392,
              5.7964867
            ],
            [
              -73.5813766,
              5.7969579
            ],
            [
              -73.5811628,
              5.7973974
            ],
            [
              -73.5809019,
              5.7978247
            ],
            [
              -73.5806491,
              5.7981788
            ],
            [
              -73.5801314,
              5.7988067
            ],
            [
              -73.5796262,
              5.7993551
            ],
            [
              -73.5786933,
              5.8003677
            ],
            [
              -73.5783098,
              5.8008199
            ],
            [
              -73.5778309,
              5.8014596
            ],
            [
              -73.5775045,
              5.8019749
            ],
            [
              -73.5772311,
              5.8024908
            ],
            [
              -73.5769669,
              5.8031199
            ],
            [
              -73.5768508,
              5.8034689
            ],
            [
              -73.5767489,
              5.8038413
            ],
            [
              -73.5766553,
              5.8042838
            ],
            [
              -73.5765911,
              5.8047124
            ],
            [
              -73.5765524,
              5.8051161
            ],
            [
              -73.5765304,
              5.8057868
            ],
            [
              -73.5765454,
              5.8063412
            ],
            [
              -73.5765902,
              5.8070106
            ],
            [
              -73.5766008,
              5.8071352
            ],
            [
              -73.5733699,
              5.8053949
            ],
            [
              -73.5704888,
              5.8033869
            ],
            [
              -73.5681316,
              5.8021647
            ],
            [
              -73.5664729,
              5.8005059
            ],
            [
              -73.5644649,
              5.7980614
            ],
            [
              -73.5621077,
              5.7953549
            ],
            [
              -73.5607541,
              5.7957837
            ],
            [
              -73.5602829,
              5.7958973
            ],
            [
              -73.5601052,
              5.7959198
            ],
            [
              -73.5599551,
              5.7959177
            ],
            [
              -73.559828,
              5.7958917
            ],
            [
              -73.5597186,
              5.7958414
            ],
            [
              -73.5596316,
              5.7957728
            ],
            [
              -73.5594001,
              5.7955349
            ],
            [
              -73.5592961,
              5.7954737
            ],
            [
              -73.5591765,
              5.795435
            ],
            [
              -73.5590354,
              5.7954177
            ],
            [
              -73.5588702,
              5.7954225
            ],
            [
              -73.5581624,
              5.7955392
            ],
            [
              -73.5580019,
              5.795553
            ],
            [
              -73.5578622,
              5.7955507
            ],
            [
              -73.5576854,
              5.7955205
            ],
            [
              -73.5574088,
              5.7954454
            ],
            [
              -73.5571622,
              5.7953597
            ],
            [
              -73.5569183,
              5.7952569
            ],
            [
              -73.5566915,
              5.7953065
            ],
            [
              -73.5564704,
              5.7953319
            ],
            [
              -73.5562549,
              5.7953333
            ],
            [
              -73.5560452,
              5.7953106
            ],
            [
              -73.5558412,
              5.7952639
            ],
            [
              -73.5556429,
              5.795193
            ],
            [
              -73.5554502,
              5.7950981
            ],
            [
              -73.5552633,
              5.7949791
            ],
            [
              -73.555169,
              5.7948608
            ],
            [
              -73.5550667,
              5.7947619
            ],
            [
              -73.5549668,
              5.7946897
            ],
            [
              -73.5548764,
              5.7946549
            ],
            [
              -73.5547815,
              5.7946427
            ],
            [
              -73.5546687,
              5.7946474
            ],
            [
              -73.5542304,
              5.7947287
            ],
            [
              -73.5540592,
              5.7947416
            ],
            [
              -73.5539101,
              5.7947132
            ],
            [
              -73.5537542,
              5.7946199
            ],
            [
              -73.5536511,
              5.7945325
            ],
            [
              -73.5535462,
              5.7944241
            ],
            [
              -73.5533281,
              5.7941413
            ],
            [
              -73.5532695,
              5.794037
            ],
            [
              -73.5531498,
              5.7937535
            ],
            [
              -73.5530832,
              5.7936313
            ],
            [
              -73.553008,
              5.7935394
            ],
            [
              -73.5528156,
              5.7933585
            ],
            [
              -73.5527482,
              5.793269
            ],
            [
              -73.552699,
              5.7931682
            ],
            [
              -73.5526321,
              5.7929933
            ],
            [
              -73.5521271,
              5.7925355
            ],
            [
              -73.5516649,
              5.7918019
            ],
            [
              -73.5511606,
              5.7912959
            ],
            [
              -73.5503679,
              5.7905729
            ],
            [
              -73.549587,
              5.7900937
            ],
            [
              -73.5488544,
              5.7895602
            ],
            [
              -73.548494,
              5.7893432
            ],
            [
              -73.5479896,
              5.7888371
            ],
            [
              -73.5475572,
              5.7885478
            ],
            [
              -73.5469082,
              5.788475
            ],
            [
              -73.5462593,
              5.7883299
            ],
            [
              -73.5454815,
              5.7879464
            ],
            [
              -73.5453386,
              5.7877862
            ],
            [
              -73.5452413,
              5.7876646
            ],
            [
              -73.5451355,
              5.7875636
            ],
            [
              -73.5450337,
              5.7874919
            ],
            [
              -73.5449342,
              5.7874534
            ],
            [
              -73.5448356,
              5.7874383
            ],
            [
              -73.5447202,
              5.7874387
            ],
            [
              -73.5442121,
              5.7875126
            ],
            [
              -73.5439955,
              5.7875141
            ],
            [
              -73.5437826,
              5.7874707
            ],
            [
              -73.5435611,
              5.7874073
            ],
            [
              -73.5433453,
              5.7873278
            ],
            [
              -73.5431321,
              5.7872315
            ],
            [
              -73.5429508,
              5.7871908
            ],
            [
              -73.5427916,
              5.787181
            ],
            [
              -73.5426523,
              5.7872028
            ],
            [
              -73.5425453,
              5.787254
            ],
            [
              -73.5424918,
              5.7873205
            ],
            [
              -73.5424526,
              5.7874206
            ],
            [
              -73.542383,
              5.7878346
            ],
            [
              -73.5423431,
              5.7879801
            ],
            [
              -73.5422817,
              5.7880925
            ],
            [
              -73.5421697,
              5.7882275
            ],
            [
              -73.5417867,
              5.7885774
            ],
            [
              -73.5414936,
              5.7888718
            ],
            [
              -73.5410824,
              5.7892001
            ],
            [
              -73.5407053,
              5.7892637
            ],
            [
              -73.5404166,
              5.7894801
            ],
            [
              -73.5399116,
              5.7896963
            ],
            [
              -73.5392623,
              5.7899124
            ],
            [
              -73.5389017,
              5.789912
            ],
            [
              -73.5381085,
              5.7897668
            ],
            [
              -73.5376761,
              5.7894775
            ],
            [
              -73.5373158,
              5.7891882
            ],
            [
              -73.5363068,
              5.788465
            ],
            [
              -73.5359159,
              5.788297
            ],
            [
              -73.5352474,
              5.7880087
            ],
            [
              -73.5346797,
              5.7880524
            ],
            [
              -73.5341274,
              5.7886045
            ],
            [
              -73.533635,
              5.7887379
            ],
            [
              -73.5322065,
              5.7884962
            ],
            [
              -73.5316446,
              5.7886021
            ],
            [
              -73.5310513,
              5.789274
            ],
            [
              -73.5308162,
              5.7894302
            ],
            [
              -73.5299886,
              5.7894294
            ],
            [
              -73.529341,
              5.7892483
            ],
            [
              -73.5286358,
              5.7900822
            ],
            [
              -73.5275192,
              5.790973
            ],
            [
              -73.5265792,
              5.7918039
            ],
            [
              -73.5254054,
              5.7931083
            ],
            [
              -73.5249987,
              5.7945276
            ],
            [
              -73.5244228,
              5.7977194
            ],
            [
              -73.523661,
              5.7988449
            ],
            [
              -73.5229159,
              5.7994791
            ],
            [
              -73.5228062,
              5.799369
            ],
            [
              -73.5225087,
              5.7991927
            ],
            [
              -73.5221269,
              5.7991089
            ],
            [
              -73.5204182,
              5.7992166
            ],
            [
              -73.5197719,
              5.7990897
            ],
            [
              -73.5191871,
              5.7985897
            ],
            [
              -73.5181302,
              5.7970387
            ],
            [
              -73.5175673,
              5.7966009
            ],
            [
              -73.51674,
              5.7963238
            ],
            [
              -73.5166191,
              5.7960873
            ],
            [
              -73.5166119,
              5.7958315
            ],
            [
              -73.5165884,
              5.7958143
            ],
            [
              -73.5163463,
              5.7950844
            ],
            [
              -73.5156992,
              5.7945163
            ],
            [
              -73.5145667,
              5.7937855
            ],
            [
              -73.5139198,
              5.7930552
            ],
            [
              -73.513192,
              5.7923248
            ],
            [
              -73.5125453,
              5.7914324
            ],
            [
              -73.5118175,
              5.790702
            ],
            [
              -73.5111704,
              5.7902149
            ],
            [
              -73.5098754,
              5.7900515
            ],
            [
              -73.5092275,
              5.7903751
            ],
            [
              -73.5085051,
              5.7903744
            ],
            [
              -73.5082922,
              5.790251
            ],
            [
              -73.5078885,
              5.7898639
            ],
            [
              -73.50723,
              5.7887162
            ],
            [
              -73.5054452,
              5.7866383
            ],
            [
              -73.5041383,
              5.7843995
            ],
            [
              -73.5033626,
              5.7822765
            ],
            [
              -73.502941,
              5.7802112
            ],
            [
              -73.5006314,
              5.7779176
            ],
            [
              -73.4988417,
              5.7775575
            ],
            [
              -73.4985529,
              5.7806854
            ],
            [
              -73.4985668,
              5.7839537
            ],
            [
              -73.4991573,
              5.7893511
            ],
            [
              -73.4985028,
              5.790448
            ],
            [
              -73.4972704,
              5.7918708
            ],
            [
              -73.495624,
              5.793
            ],
            [
              -73.4935042,
              5.7937769
            ],
            [
              -73.4915607,
              5.7943758
            ],
            [
              -73.4896196,
              5.7955653
            ],
            [
              -73.4880898,
              5.7963987
            ],
            [
              -73.486494,
              5.7973969
            ],
            [
              -73.4858801,
              5.7985335
            ],
            [
              -73.4861089,
              5.8009741
            ],
            [
              -73.4867954,
              5.8028808
            ],
            [
              -73.4878631,
              5.8047113
            ],
            [
              -73.4891597,
              5.8061604
            ],
            [
              -73.4908377,
              5.8076095
            ],
            [
              -73.4928207,
              5.8089061
            ],
            [
              -73.4947274,
              5.8105078
            ],
            [
              -73.4964053,
              5.8126433
            ],
            [
              -73.4974731,
              5.8144738
            ],
            [
              -73.4987697,
              5.8168381
            ],
            [
              -73.5002188,
              5.8187449
            ],
            [
              -73.5023544,
              5.8206516
            ],
            [
              -73.5047187,
              5.822177
            ],
            [
              -73.5065492,
              5.8235499
            ],
            [
              -73.508761,
              5.8251515
            ],
            [
              -73.5108965,
              5.8274396
            ],
            [
              -73.5118118,
              5.8290413
            ],
            [
              -73.5121169,
              5.8304141
            ],
            [
              -73.511888,
              5.8315582
            ],
            [
              -73.5105915,
              5.8322446
            ],
            [
              -73.5085322,
              5.8327785
            ],
            [
              -73.5069305,
              5.8334649
            ],
            [
              -73.5063204,
              5.8347615
            ],
            [
              -73.5066254,
              5.8367445
            ],
            [
              -73.5073881,
              5.8384987
            ],
            [
              -73.5086847,
              5.8402529
            ],
            [
              -73.5102864,
              5.8417783
            ],
            [
              -73.5118118,
              5.8435325
            ],
            [
              -73.5128796,
              5.8455918
            ],
            [
              -73.5131035,
              5.8466055
            ],
            [
              -73.5120865,
              5.8465821
            ],
            [
              -73.5111725,
              5.8463273
            ],
            [
              -73.5107416,
              5.8460382
            ],
            [
              -73.509902,
              5.8451855
            ],
            [
              -73.5095185,
              5.8449442
            ],
            [
              -73.5084661,
              5.8447917
            ],
            [
              -73.5081393,
              5.8446665
            ],
            [
              -73.507588,
              5.8441133
            ],
            [
              -73.5071802,
              5.843885
            ],
            [
              -73.5066645,
              5.8437873
            ],
            [
              -73.5039476,
              5.8441024
            ],
            [
              -73.5033581,
              5.8440401
            ],
            [
              -73.5028981,
              5.8438323
            ],
            [
              -73.5017956,
              5.842726
            ],
            [
              -73.5012321,
              5.8426534
            ],
            [
              -73.4998626,
              5.8429932
            ],
            [
              -73.4993123,
              5.8429997
            ],
            [
              -73.4989136,
              5.8428421
            ],
            [
              -73.4985155,
              5.8425484
            ],
            [
              -73.4971834,
              5.8410256
            ],
            [
              -73.4965559,
              5.8405102
            ],
            [
              -73.4954529,
              5.8399565
            ],
            [
              -73.4943494,
              5.8399554
            ],
            [
              -73.4941111,
              5.8397238
            ],
            [
              -73.4937552,
              5.8388592
            ],
            [
              -73.4935231,
              5.838573
            ],
            [
              -73.4921439,
              5.8382953
            ],
            [
              -73.4913814,
              5.8377596
            ],
            [
              -73.4910415,
              5.837189
            ],
            [
              -73.4910421,
              5.8366364
            ],
            [
              -73.4913061,
              5.8360205
            ],
            [
              -73.4923751,
              5.8349416
            ],
            [
              -73.4926997,
              5.8344278
            ],
            [
              -73.4930184,
              5.8332002
            ],
            [
              -73.4929779,
              5.8322178
            ],
            [
              -73.4924273,
              5.831112
            ],
            [
              -73.4919327,
              5.830518
            ],
            [
              -73.4913248,
              5.8300057
            ],
            [
              -73.4896314,
              5.8301648
            ],
            [
              -73.4880142,
              5.8300023
            ],
            [
              -73.4870005,
              5.8297229
            ],
            [
              -73.4860192,
              5.8293068
            ],
            [
              -73.4850703,
              5.8287539
            ],
            [
              -73.4841538,
              5.8280642
            ],
            [
              -73.4836398,
              5.8285932
            ],
            [
              -73.4830494,
              5.8288919
            ],
            [
              -73.4825357,
              5.8289575
            ],
            [
              -73.4819458,
              5.8288907
            ],
            [
              -73.4808429,
              5.8283369
            ],
            [
              -73.4795796,
              5.8281361
            ],
            [
              -73.4782219,
              5.8283342
            ],
            [
              -73.4769042,
              5.8279868
            ],
            [
              -73.4749287,
              5.8268639
            ],
            [
              -73.4735542,
              5.8258107
            ],
            [
              -73.472228,
              5.8247814
            ],
            [
              -73.47072,
              5.8233608
            ],
            [
              -73.4706289,
              5.8238512
            ],
            [
              -73.4690309,
              5.8276295
            ],
            [
              -73.4664627,
              5.8309808
            ],
            [
              -73.4651809,
              5.833206
            ],
            [
              -73.4632533,
              5.8353693
            ],
            [
              -73.4627217,
              5.8368802
            ],
            [
              -73.462734,
              5.8397896
            ],
            [
              -73.4626328,
              5.8412986
            ],
            [
              -73.4620989,
              5.8422707
            ],
            [
              -73.462216,
              5.8445331
            ],
            [
              -73.4628468,
              5.8467089
            ]
          ]
        ]
      },
      "id": "relation/1306565"
    }
  ]
}