{
  "type": "FeatureCollection",
  "features": [
    {
      "type": "Feature",
      "properties": {
        "@id": "relation/1352536",
        "DANE:area": "73.00",
        "DANE:departamento": "15",
        "admin_level": "6",
        "boundary": "administrative",
        "clcfile": "MunicipiosDepartamentos/ADM_Municipios.shp",
        "divipola": "15686",
        "entidad_te": "Cabecera Municipal",
        "is_in:country": "Colombia",
        "is_in:state": "Boyacá",
        "name": "Santana",
        "objectid": "4346",
        "source": "OCHA - SIGOT",
        "type": "boundary",
        "wikidata": "Q1575506",
        "wikipedia": "es:Santana (Boyacá)"
      },
      "geometry": {
        "type": "Polygon",
        "coordinates": [
          [
            [
              -73.4839409,
              6.003647
            ],
            [
              -73.4816271,
              6.0068481
            ],
            [
              -73.4802211,
              6.0092177
            ],
            [
              -73.4786592,
              6.0119556
            ],
            [
              -73.4773569,
              6.0140622
            ],
            [
              -73.4756906,
              6.0169057
            ],
            [
              -73.4744426,
              6.0194322
            ],
            [
              -73.4722525,
              6.022488
            ],
            [
              -73.4688574,
              6.0259168
            ],
            [
              -73.4673968,
              6.027814
            ],
            [
              -73.4659902,
              6.0300786
            ],
            [
              -73.4650005,
              6.0317111
            ],
            [
              -73.4635393,
              6.0335032
            ],
            [
              -73.4619723,
              6.0350857
            ],
            [
              -73.459986,
              6.0367751
            ],
            [
              -73.4579982,
              6.0380969
            ],
            [
              -73.4566893,
              6.0387329
            ],
            [
              -73.4558549,
              6.039892
            ],
            [
              -73.4550215,
              6.0412612
            ],
            [
              -73.4542414,
              6.0428403
            ],
            [
              -73.4536166,
              6.043946
            ],
            [
              -73.4529905,
              6.0447365
            ],
            [
              -73.4521549,
              6.0456331
            ],
            [
              -73.45111,
              6.0466356
            ],
            [
              -73.4492228,
              6.0470115
            ],
            [
              -73.4457077,
              6.0470268
            ],
            [
              -73.444818,
              6.0475559
            ],
            [
              -73.4440342,
              6.0482946
            ],
            [
              -73.4430951,
              6.0495067
            ],
            [
              -73.4425743,
              6.0504019
            ],
            [
              -73.4412707,
              6.0522458
            ],
            [
              -73.439964,
              6.053407
            ],
            [
              -73.4380269,
              6.0543609
            ],
            [
              -73.4367171,
              6.0547867
            ],
            [
              -73.4358797,
              6.0552631
            ],
            [
              -73.4346798,
              6.056844
            ],
            [
              -73.4335319,
              6.0583196
            ],
            [
              -73.4325936,
              6.0597418
            ],
            [
              -73.4316031,
              6.0612167
            ],
            [
              -73.4304577,
              6.0632701
            ],
            [
              -73.4297816,
              6.0646386
            ],
            [
              -73.4286336,
              6.0661142
            ],
            [
              -73.4274303,
              6.0669073
            ],
            [
              -73.4265038,
              6.0679598
            ],
            [
              -73.4254524,
              6.0695582
            ],
            [
              -73.4258902,
              6.0694953
            ],
            [
              -73.4263939,
              6.0692678
            ],
            [
              -73.426835,
              6.0691646
            ],
            [
              -73.4272594,
              6.069086
            ],
            [
              -73.4276686,
              6.0690298
            ],
            [
              -73.4280646,
              6.0689939
            ],
            [
              -73.429007,
              6.0683378
            ],
            [
              -73.4302329,
              6.0686732
            ],
            [
              -73.4310104,
              6.0690425
            ],
            [
              -73.4318876,
              6.0696767
            ],
            [
              -73.4354765,
              6.0709945
            ],
            [
              -73.4365439,
              6.071133
            ],
            [
              -73.4370691,
              6.0716224
            ],
            [
              -73.4381176,
              6.0722131
            ],
            [
              -73.4391339,
              6.0728433
            ],
            [
              -73.4396872,
              6.0732091
            ],
            [
              -73.442491,
              6.0751757
            ],
            [
              -73.4437215,
              6.0759928
            ],
            [
              -73.4442938,
              6.0763408
            ],
            [
              -73.4448832,
              6.0766727
            ],
            [
              -73.4454431,
              6.0769605
            ],
            [
              -73.4459821,
              6.0772114
            ],
            [
              -73.4465051,
              6.0774303
            ],
            [
              -73.4474269,
              6.0777601
            ],
            [
              -73.4481686,
              6.0780889
            ],
            [
              -73.4503171,
              6.0785042
            ],
            [
              -73.4513817,
              6.0787984
            ],
            [
              -73.4521192,
              6.079061
            ],
            [
              -73.4527595,
              6.0793488
            ],
            [
              -73.4530786,
              6.0795179
            ],
            [
              -73.4535327,
              6.0797923
            ],
            [
              -73.4539938,
              6.080115
            ],
            [
              -73.4544677,
              6.0804965
            ],
            [
              -73.454963,
              6.0809511
            ],
            [
              -73.4553861,
              6.0813842
            ],
            [
              -73.4558478,
              6.0819007
            ],
            [
              -73.4563558,
              6.0825132
            ],
            [
              -73.458449,
              6.0851934
            ],
            [
              -73.4593541,
              6.0862801
            ],
            [
              -73.4607032,
              6.0878009
            ],
            [
              -73.4622793,
              6.0894753
            ],
            [
              -73.4634844,
              6.0906656
            ],
            [
              -73.4644916,
              6.0915767
            ],
            [
              -73.465263,
              6.0922118
            ],
            [
              -73.4659409,
              6.0927198
            ],
            [
              -73.4663632,
              6.0930112
            ],
            [
              -73.4670615,
              6.0934489
            ],
            [
              -73.4675911,
              6.0937436
            ],
            [
              -73.4681102,
              6.0940009
            ],
            [
              -73.46862,
              6.0942234
            ],
            [
              -73.4691213,
              6.0944135
            ],
            [
              -73.4696155,
              6.0945737
            ],
            [
              -73.4701033,
              6.0947062
            ],
            [
              -73.4705859,
              6.0948136
            ],
            [
              -73.4710645,
              6.0948981
            ],
            [
              -73.4713883,
              6.0950901
            ],
            [
              -73.4717663,
              6.095486
            ],
            [
              -73.4722201,
              6.0955983
            ],
            [
              -73.4734559,
              6.0957728
            ],
            [
              -73.4743862,
              6.0951631
            ],
            [
              -73.4745596,
              6.0950991
            ],
            [
              -73.4747647,
              6.0952102
            ],
            [
              -73.4754156,
              6.0953341
            ],
            [
              -73.4757044,
              6.0954114
            ],
            [
              -73.4762103,
              6.0955875
            ],
            [
              -73.4768114,
              6.0958723
            ],
            [
              -73.4772791,
              6.0961511
            ],
            [
              -73.4775498,
              6.0963327
            ],
            [
              -73.4781146,
              6.0967464
            ],
            [
              -73.4791653,
              6.0975501
            ],
            [
              -73.4796593,
              6.0979001
            ],
            [
              -73.4801422,
              6.0982096
            ],
            [
              -73.480879,
              6.0986175
            ],
            [
              -73.4812945,
              6.0988164
            ],
            [
              -73.4815514,
              6.0988654
            ],
            [
              -73.4822431,
              6.0992035
            ],
            [
              -73.4834063,
              6.0995928
            ],
            [
              -73.4851187,
              6.1001169
            ],
            [
              -73.4851613,
              6.1001143
            ],
            [
              -73.4866028,
              6.1006563
            ],
            [
              -73.4870624,
              6.1008617
            ],
            [
              -73.4874833,
              6.1010721
            ],
            [
              -73.4878728,
              6.101289
            ],
            [
              -73.488224,
              6.1015049
            ],
            [
              -73.4888612,
              6.1019504
            ],
            [
              -73.4892164,
              6.1022292
            ],
            [
              -73.4899242,
              6.1028421
            ],
            [
              -73.4912777,
              6.104119
            ],
            [
              -73.4918293,
              6.1046217
            ],
            [
              -73.4924018,
              6.1051047
            ],
            [
              -73.4929137,
              6.1054953
            ],
            [
              -73.4934887,
              6.1058868
            ],
            [
              -73.4940264,
              6.1062125
            ],
            [
              -73.4956969,
              6.1071144
            ],
            [
              -73.4962009,
              6.1074181
            ],
            [
              -73.4965252,
              6.1076457
            ],
            [
              -73.4968033,
              6.1078786
            ],
            [
              -73.4973081,
              6.1080471
            ],
            [
              -73.498537,
              6.1074632
            ],
            [
              -73.4992596,
              6.1072081
            ],
            [
              -73.4996332,
              6.1070093
            ],
            [
              -73.5001835,
              6.1067624
            ],
            [
              -73.5021369,
              6.1060168
            ],
            [
              -73.5025318,
              6.1058541
            ],
            [
              -73.5032025,
              6.105545
            ],
            [
              -73.5037516,
              6.1052507
            ],
            [
              -73.5042166,
              6.104966
            ],
            [
              -73.5047669,
              6.1045863
            ],
            [
              -73.5065971,
              6.1031547
            ],
            [
              -73.5071325,
              6.1027622
            ],
            [
              -73.5076413,
              6.1024245
            ],
            [
              -73.5082426,
              6.1020719
            ],
            [
              -73.5090366,
              6.1016726
            ],
            [
              -73.509942,
              6.1012815
            ],
            [
              -73.5111247,
              6.1008115
            ],
            [
              -73.5117869,
              6.1005329
            ],
            [
              -73.5124026,
              6.1002326
            ],
            [
              -73.5127916,
              6.1000016
            ],
            [
              -73.5130862,
              6.099789
            ],
            [
              -73.5133492,
              6.0995528
            ],
            [
              -73.5135372,
              6.0993377
            ],
            [
              -73.513671,
              6.0991421
            ],
            [
              -73.5138024,
              6.0988808
            ],
            [
              -73.5138856,
              6.0986296
            ],
            [
              -73.5139236,
              6.0984482
            ],
            [
              -73.5139493,
              6.0982263
            ],
            [
              -73.5139558,
              6.0979936
            ],
            [
              -73.5139407,
              6.097705
            ],
            [
              -73.513845,
              6.0970588
            ],
            [
              -73.513298,
              6.0960597
            ],
            [
              -73.5134533,
              6.0949442
            ],
            [
              -73.5134211,
              6.0944911
            ],
            [
              -73.5134164,
              6.0940079
            ],
            [
              -73.5134712,
              6.0931759
            ],
            [
              -73.5135335,
              6.0926769
            ],
            [
              -73.5137088,
              6.0916047
            ],
            [
              -73.5139914,
              6.0900417
            ],
            [
              -73.5141608,
              6.089231
            ],
            [
              -73.5142744,
              6.0888041
            ],
            [
              -73.5144031,
              6.0884157
            ],
            [
              -73.5145427,
              6.0880775
            ],
            [
              -73.5146422,
              6.0878782
            ],
            [
              -73.5148875,
              6.0874713
            ],
            [
              -73.5149712,
              6.0873377
            ],
            [
              -73.5152539,
              6.0869744
            ],
            [
              -73.5154357,
              6.0867672
            ],
            [
              -73.5158448,
              6.0863432
            ],
            [
              -73.5168255,
              6.0853807
            ],
            [
              -73.5171372,
              6.0850489
            ],
            [
              -73.518126,
              6.0845166
            ],
            [
              -73.5179724,
              6.0840127
            ],
            [
              -73.5188874,
              6.082749
            ],
            [
              -73.5195021,
              6.0819862
            ],
            [
              -73.5219242,
              6.0793156
            ],
            [
              -73.5224691,
              6.0787809
            ],
            [
              -73.5227014,
              6.0785854
            ],
            [
              -73.5230118,
              6.0783573
            ],
            [
              -73.5235012,
              6.0771981
            ],
            [
              -73.5243806,
              6.0776263
            ],
            [
              -73.5249703,
              6.077869
            ],
            [
              -73.5257196,
              6.0776956
            ],
            [
              -73.5266018,
              6.0767713
            ],
            [
              -73.5262444,
              6.0758098
            ],
            [
              -73.5263294,
              6.0756099
            ],
            [
              -73.5264843,
              6.0751449
            ],
            [
              -73.5265534,
              6.0748694
            ],
            [
              -73.5266604,
              6.0742763
            ],
            [
              -73.5267308,
              6.0736423
            ],
            [
              -73.5267752,
              6.0729918
            ],
            [
              -73.5268948,
              6.0701785
            ],
            [
              -73.5268919,
              6.0692662
            ],
            [
              -73.526863,
              6.068868
            ],
            [
              -73.5267686,
              6.0682548
            ],
            [
              -73.5264623,
              6.0670415
            ],
            [
              -73.5257828,
              6.0667381
            ],
            [
              -73.5254819,
              6.0658932
            ],
            [
              -73.5253967,
              6.0647181
            ],
            [
              -73.5253519,
              6.0642943
            ],
            [
              -73.5250886,
              6.0637064
            ],
            [
              -73.524964,
              6.0631072
            ],
            [
              -73.524892,
              6.062535
            ],
            [
              -73.5248719,
              6.0620027
            ],
            [
              -73.5248976,
              6.061522
            ],
            [
              -73.5249607,
              6.0610921
            ],
            [
              -73.5250034,
              6.0608961
            ],
            [
              -73.5251055,
              6.0605395
            ],
            [
              -73.524971,
              6.0604695
            ],
            [
              -73.5254465,
              6.0597705
            ],
            [
              -73.5257367,
              6.0593064
            ],
            [
              -73.5273475,
              6.0573382
            ],
            [
              -73.5277206,
              6.0566384
            ],
            [
              -73.5283184,
              6.0559352
            ],
            [
              -73.5293228,
              6.0545387
            ],
            [
              -73.5304427,
              6.0538815
            ],
            [
              -73.5306589,
              6.0529755
            ],
            [
              -73.5305871,
              6.0522642
            ],
            [
              -73.5306393,
              6.0517606
            ],
            [
              -73.5308015,
              6.0514094
            ],
            [
              -73.5309818,
              6.0510793
            ],
            [
              -73.5311806,
              6.0507847
            ],
            [
              -73.5313429,
              6.0499659
            ],
            [
              -73.5312045,
              6.0493364
            ],
            [
              -73.5309442,
              6.0456998
            ],
            [
              -73.5302664,
              6.0441848
            ],
            [
              -73.5293494,
              6.0429488
            ],
            [
              -73.5284723,
              6.0418325
            ],
            [
              -73.527635,
              6.0409155
            ],
            [
              -73.5266383,
              6.0392809
            ],
            [
              -73.5257213,
              6.0380848
            ],
            [
              -73.524605,
              6.0367292
            ],
            [
              -73.5236481,
              6.0357724
            ],
            [
              -73.5223324,
              6.0338985
            ],
            [
              -73.5218141,
              6.0326625
            ],
            [
              -73.5212559,
              6.0309083
            ],
            [
              -73.5205782,
              6.029473
            ],
            [
              -73.5198184,
              6.0281364
            ],
            [
              -73.51928,
              6.0284712
            ],
            [
              -73.5187139,
              6.0286879
            ],
            [
              -73.5178411,
              6.0288029
            ],
            [
              -73.517058,
              6.0286862
            ],
            [
              -73.5164732,
              6.0283461
            ],
            [
              -73.5156792,
              6.0275796
            ],
            [
              -73.5156753,
              6.0275748
            ],
            [
              -73.5152286,
              6.0272848
            ],
            [
              -73.5142117,
              6.0268013
            ],
            [
              -73.5131947,
              6.0265322
            ],
            [
              -73.512124,
              6.0263167
            ],
            [
              -73.5111603,
              6.0261549
            ],
            [
              -73.51025,
              6.0262075
            ],
            [
              -73.5091255,
              6.02626
            ],
            [
              -73.5081616,
              6.0263662
            ],
            [
              -73.5077944,
              6.0264271
            ],
            [
              -73.5073053,
              6.0259365
            ],
            [
              -73.5072479,
              6.0255627
            ],
            [
              -73.5068091,
              6.0243717
            ],
            [
              -73.5065753,
              6.0239784
            ],
            [
              -73.5061705,
              6.0236555
            ],
            [
              -73.5050186,
              6.0230307
            ],
            [
              -73.5046449,
              6.0225949
            ],
            [
              -73.5046076,
              6.0222454
            ],
            [
              -73.5047535,
              6.0213128
            ],
            [
              -73.5046466,
              6.0209371
            ],
            [
              -73.5043709,
              6.0206606
            ],
            [
              -73.5024402,
              6.0195534
            ],
            [
              -73.5016131,
              6.0187236
            ],
            [
              -73.5012813,
              6.0186125
            ],
            [
              -73.5009626,
              6.0182529
            ],
            [
              -73.5003021,
              6.0172285
            ],
            [
              -73.4992215,
              6.0151799
            ],
            [
              -73.498501,
              6.0139145
            ],
            [
              -73.4979005,
              6.0130106
            ],
            [
              -73.4971795,
              6.012227
            ],
            [
              -73.4963987,
              6.0111422
            ],
            [
              -73.4957379,
              6.0102985
            ],
            [
              -73.4950629,
              6.0096777
            ],
            [
              -73.4941751,
              6.0092731
            ],
            [
              -73.4930977,
              6.0083323
            ],
            [
              -73.4916492,
              6.007441
            ],
            [
              -73.4903504,
              6.006599
            ],
            [
              -73.4882039,
              6.0055612
            ],
            [
              -73.486157,
              6.004523
            ],
            [
              -73.4839409,
              6.003647
            ]
          ]
        ]
      },
      "id": "relation/1352536"
    }
  ]
}