{
  "type": "FeatureCollection",
  "features": [
    {
      "type": "Feature",
      "properties": {
        "@id": "relation/1306568",
        "DANE:area": "77.00",
        "DANE:departamento": "15",
        "admin_level": "6",
        "boundary": "administrative",
        "clcfile": "MunicipiosDepartamentos/ADM_Municipios.shp",
        "divipola": "15664",
        "entidad_te": "Cabecera Municipal",
        "is_in:country": "Colombia",
        "is_in:state": "Boyacá",
        "name": "San José de Pare",
        "objectid": "3811",
        "source": "OCHA - SIGOT",
        "type": "boundary",
        "wikidata": "Q1576405",
        "wikipedia": "es:San José de Pare"
      },
      "geometry": {
        "type": "Polygon",
        "coordinates": [
          [
            [
              -73.5311806,
              6.0507847
            ],
            [
              -73.5313574,
              6.0505758
            ],
            [
              -73.5315223,
              6.0504153
            ],
            [
              -73.5318666,
              6.050157
            ],
            [
              -73.5322291,
              6.0499621
            ],
            [
              -73.5329427,
              6.0497764
            ],
            [
              -73.5340905,
              6.0503287
            ],
            [
              -73.5340328,
              6.0489482
            ],
            [
              -73.5342517,
              6.0486958
            ],
            [
              -73.5344005,
              6.0484911
            ],
            [
              -73.534547,
              6.0482573
            ],
            [
              -73.534692,
              6.0479873
            ],
            [
              -73.5348368,
              6.0476715
            ],
            [
              -73.5349663,
              6.0473425
            ],
            [
              -73.5352569,
              6.0464295
            ],
            [
              -73.5357542,
              6.0446832
            ],
            [
              -73.5359837,
              6.044029
            ],
            [
              -73.5360973,
              6.0437476
            ],
            [
              -73.5363279,
              6.0432449
            ],
            [
              -73.536568,
              6.0427949
            ],
            [
              -73.5368128,
              6.0423875
            ],
            [
              -73.5370643,
              6.042014
            ],
            [
              -73.5377291,
              6.0410266
            ],
            [
              -73.538125,
              6.0404036
            ],
            [
              -73.5385343,
              6.0396789
            ],
            [
              -73.5392754,
              6.0382384
            ],
            [
              -73.5395637,
              6.0377143
            ],
            [
              -73.5399281,
              6.0371216
            ],
            [
              -73.5406458,
              6.0371469
            ],
            [
              -73.5410482,
              6.0365494
            ],
            [
              -73.5427004,
              6.0353384
            ],
            [
              -73.543945,
              6.0348156
            ],
            [
              -73.5460079,
              6.0333241
            ],
            [
              -73.5474891,
              6.0322097
            ],
            [
              -73.547845,
              6.0318437
            ],
            [
              -73.548435,
              6.0316095
            ],
            [
              -73.549718,
              6.0313608
            ],
            [
              -73.5508591,
              6.0311652
            ],
            [
              -73.5540462,
              6.0307639
            ],
            [
              -73.5546947,
              6.030651
            ],
            [
              -73.5553092,
              6.0305105
            ],
            [
              -73.5558166,
              6.0303581
            ],
            [
              -73.5562996,
              6.03017
            ],
            [
              -73.5566981,
              6.0299712
            ],
            [
              -73.5570286,
              6.0297656
            ],
            [
              -73.557305,
              6.0295555
            ],
            [
              -73.5576461,
              6.02923
            ],
            [
              -73.557843,
              6.0289968
            ],
            [
              -73.5581031,
              6.0286184
            ],
            [
              -73.5583802,
              6.0280975
            ],
            [
              -73.5585173,
              6.0277878
            ],
            [
              -73.5590536,
              6.0264119
            ],
            [
              -73.5593409,
              6.025759
            ],
            [
              -73.5595386,
              6.0253708
            ],
            [
              -73.559768,
              6.0249685
            ],
            [
              -73.5602095,
              6.0242874
            ],
            [
              -73.561729,
              6.0222232
            ],
            [
              -73.5631129,
              6.0202513
            ],
            [
              -73.563538,
              6.0196768
            ],
            [
              -73.5639439,
              6.0191765
            ],
            [
              -73.5642335,
              6.0188477
            ],
            [
              -73.5646801,
              6.0183982
            ],
            [
              -73.5650593,
              6.0180644
            ],
            [
              -73.5653907,
              6.0178036
            ],
            [
              -73.5661018,
              6.0173498
            ],
            [
              -73.5669644,
              6.016798
            ],
            [
              -73.5693991,
              6.0156317
            ],
            [
              -73.5698274,
              6.0151797
            ],
            [
              -73.5701859,
              6.0150154
            ],
            [
              -73.5707895,
              6.0147539
            ],
            [
              -73.5713427,
              6.0145531
            ],
            [
              -73.5719492,
              6.0143848
            ],
            [
              -73.5726186,
              6.0142439
            ],
            [
              -73.5732091,
              6.0141986
            ],
            [
              -73.5744975,
              6.0139071
            ],
            [
              -73.5749678,
              6.0137946
            ],
            [
              -73.5801441,
              6.0124415
            ],
            [
              -73.5808843,
              6.0121534
            ],
            [
              -73.5817909,
              6.0119293
            ],
            [
              -73.5820323,
              6.0117373
            ],
            [
              -73.5820592,
              6.0111931
            ],
            [
              -73.5819894,
              6.0110117
            ],
            [
              -73.5818392,
              6.010809
            ],
            [
              -73.5818231,
              6.010825
            ],
            [
              -73.5816085,
              6.0104996
            ],
            [
              -73.5816783,
              6.0100408
            ],
            [
              -73.5819894,
              6.0098007
            ],
            [
              -73.5824561,
              6.0095393
            ],
            [
              -73.5837206,
              6.0079414
            ],
            [
              -73.5841311,
              6.007457
            ],
            [
              -73.5845117,
              6.0069626
            ],
            [
              -73.5846831,
              6.0067173
            ],
            [
              -73.5849648,
              6.0062671
            ],
            [
              -73.5852629,
              6.0056942
            ],
            [
              -73.5854288,
              6.0053085
            ],
            [
              -73.5859698,
              6.0050259
            ],
            [
              -73.585729,
              6.0044005
            ],
            [
              -73.5858406,
              6.0039507
            ],
            [
              -73.5859472,
              6.0034302
            ],
            [
              -73.586052,
              6.0028083
            ],
            [
              -73.5863309,
              6.000825
            ],
            [
              -73.5864462,
              6.000114
            ],
            [
              -73.5865632,
              5.9995033
            ],
            [
              -73.5867534,
              5.9986706
            ],
            [
              -73.586926,
              5.9979936
            ],
            [
              -73.5871758,
              5.9970133
            ],
            [
              -73.5873047,
              5.9963583
            ],
            [
              -73.587503,
              5.9951375
            ],
            [
              -73.5875912,
              5.9946763
            ],
            [
              -73.5877196,
              5.9941199
            ],
            [
              -73.588163,
              5.9924061
            ],
            [
              -73.5884416,
              5.9909323
            ],
            [
              -73.5886021,
              5.9901946
            ],
            [
              -73.5887604,
              5.9896794
            ],
            [
              -73.5889796,
              5.9891509
            ],
            [
              -73.5891912,
              5.988735
            ],
            [
              -73.5899078,
              5.9874825
            ],
            [
              -73.5901335,
              5.9870287
            ],
            [
              -73.5903148,
              5.9865729
            ],
            [
              -73.5904525,
              5.9860934
            ],
            [
              -73.5905709,
              5.9854304
            ],
            [
              -73.590728,
              5.9838521
            ],
            [
              -73.5908142,
              5.9831855
            ],
            [
              -73.5909686,
              5.9822943
            ],
            [
              -73.5912218,
              5.9810096
            ],
            [
              -73.5913481,
              5.9802859
            ],
            [
              -73.5914486,
              5.9795588
            ],
            [
              -73.591523,
              5.9787851
            ],
            [
              -73.5915643,
              5.9779578
            ],
            [
              -73.591566,
              5.9770663
            ],
            [
              -73.5915349,
              5.9763164
            ],
            [
              -73.5914706,
              5.9755042
            ],
            [
              -73.5913925,
              5.9748564
            ],
            [
              -73.5913347,
              5.9743859
            ],
            [
              -73.5911732,
              5.9733793
            ],
            [
              -73.5907655,
              5.9712087
            ],
            [
              -73.5906614,
              5.9705879
            ],
            [
              -73.5905756,
              5.9699764
            ],
            [
              -73.5905168,
              5.9694277
            ],
            [
              -73.5904745,
              5.9688139
            ],
            [
              -73.5904596,
              5.968207
            ],
            [
              -73.5904701,
              5.9676799
            ],
            [
              -73.5905008,
              5.9671957
            ],
            [
              -73.5905497,
              5.9667369
            ],
            [
              -73.5906139,
              5.9663088
            ],
            [
              -73.5906959,
              5.9658848
            ],
            [
              -73.5908299,
              5.9653368
            ],
            [
              -73.5910744,
              5.9645529
            ],
            [
              -73.5913025,
              5.9639373
            ],
            [
              -73.5920755,
              5.9620678
            ],
            [
              -73.5924069,
              5.9612138
            ],
            [
              -73.5927242,
              5.9602823
            ],
            [
              -73.5928173,
              5.9599789
            ],
            [
              -73.5927233,
              5.9599367
            ],
            [
              -73.5925101,
              5.9598636
            ],
            [
              -73.5920476,
              5.9597505
            ],
            [
              -73.591083,
              5.9595766
            ],
            [
              -73.5907607,
              5.9594845
            ],
            [
              -73.5905073,
              5.9593754
            ],
            [
              -73.5903517,
              5.959283
            ],
            [
              -73.590187,
              5.9591549
            ],
            [
              -73.5900318,
              5.9589957
            ],
            [
              -73.5899022,
              5.9588247
            ],
            [
              -73.5897596,
              5.9585824
            ],
            [
              -73.5896123,
              5.9582483
            ],
            [
              -73.5894855,
              5.9578596
            ],
            [
              -73.5893828,
              5.9574458
            ],
            [
              -73.5892714,
              5.9568688
            ],
            [
              -73.5890774,
              5.9556998
            ],
            [
              -73.5889453,
              5.9550654
            ],
            [
              -73.5887836,
              5.9545241
            ],
            [
              -73.5886136,
              5.9541382
            ],
            [
              -73.5885167,
              5.9539729
            ],
            [
              -73.5883336,
              5.9537357
            ],
            [
              -73.5881762,
              5.9535893
            ],
            [
              -73.5880432,
              5.9534966
            ],
            [
              -73.5878465,
              5.9533989
            ],
            [
              -73.5876641,
              5.9533398
            ],
            [
              -73.5874242,
              5.9532951
            ],
            [
              -73.587103,
              5.9532753
            ],
            [
              -73.5864474,
              5.953314
            ],
            [
              -73.5852414,
              5.9534719
            ],
            [
              -73.584724,
              5.9535672
            ],
            [
              -73.5843656,
              5.9536597
            ],
            [
              -73.5838435,
              5.9538482
            ],
            [
              -73.5827365,
              5.9543699
            ],
            [
              -73.5822728,
              5.9545726
            ],
            [
              -73.5809953,
              5.9550422
            ],
            [
              -73.5806655,
              5.9551775
            ],
            [
              -73.5793639,
              5.9558129
            ],
            [
              -73.579088,
              5.9559326
            ],
            [
              -73.5786104,
              5.9560956
            ],
            [
              -73.5782953,
              5.9561709
            ],
            [
              -73.5780113,
              5.9562208
            ],
            [
              -73.5773316,
              5.9562969
            ],
            [
              -73.5751979,
              5.9564844
            ],
            [
              -73.5745958,
              5.9564714
            ],
            [
              -73.5734548,
              5.9563534
            ],
            [
              -73.5728906,
              5.9563327
            ],
            [
              -73.5722723,
              5.9563568
            ],
            [
              -73.5706612,
              5.9564966
            ],
            [
              -73.5701568,
              5.9565091
            ],
            [
              -73.5696034,
              5.9564762
            ],
            [
              -73.5692062,
              5.956414
            ],
            [
              -73.5686709,
              5.9562778
            ],
            [
              -73.5670344,
              5.9557314
            ],
            [
              -73.564957,
              5.9551646
            ],
            [
              -73.5645592,
              5.9550325
            ],
            [
              -73.5640746,
              5.954844
            ],
            [
              -73.5634272,
              5.9545384
            ],
            [
              -73.5626895,
              5.9541215
            ],
            [
              -73.5605322,
              5.9527514
            ],
            [
              -73.5599779,
              5.9524273
            ],
            [
              -73.5594169,
              5.9521221
            ],
            [
              -73.5588532,
              5.9518394
            ],
            [
              -73.5582898,
              5.951582
            ],
            [
              -73.5577307,
              5.9513514
            ],
            [
              -73.5571776,
              5.9511479
            ],
            [
              -73.5566326,
              5.9509713
            ],
            [
              -73.5560977,
              5.9508209
            ],
            [
              -73.5552762,
              5.9506331
            ],
            [
              -73.5548777,
              5.9505603
            ],
            [
              -73.5541072,
              5.9504512
            ],
            [
              -73.5530191,
              5.950359
            ],
            [
              -73.5511292,
              5.9502715
            ],
            [
              -73.550819,
              5.9502433
            ],
            [
              -73.5502701,
              5.9501645
            ],
            [
              -73.5498637,
              5.950077
            ],
            [
              -73.5493823,
              5.9499426
            ],
            [
              -73.5493996,
              5.9501923
            ],
            [
              -73.5494542,
              5.9509809
            ],
            [
              -73.5494842,
              5.9512097
            ],
            [
              -73.5495963,
              5.9517442
            ],
            [
              -73.5496338,
              5.951982
            ],
            [
              -73.5496434,
              5.9522175
            ],
            [
              -73.5496139,
              5.9524112
            ],
            [
              -73.5494768,
              5.9527457
            ],
            [
              -73.5493117,
              5.9530271
            ],
            [
              -73.5491977,
              5.9531484
            ],
            [
              -73.5488895,
              5.9534013
            ],
            [
              -73.5488254,
              5.9534719
            ],
            [
              -73.5487802,
              5.9535417
            ],
            [
              -73.5487488,
              5.9536279
            ],
            [
              -73.5487374,
              5.9537316
            ],
            [
              -73.5487887,
              5.9542091
            ],
            [
              -73.5487855,
              5.9543139
            ],
            [
              -73.5487658,
              5.9544011
            ],
            [
              -73.5486989,
              5.9545447
            ],
            [
              -73.548597,
              5.9546887
            ],
            [
              -73.5484596,
              5.9548338
            ],
            [
              -73.5482842,
              5.9549826
            ],
            [
              -73.5478996,
              5.9552472
            ],
            [
              -73.5475156,
              5.9554246
            ],
            [
              -73.5473809,
              5.9555031
            ],
            [
              -73.5472518,
              5.9556154
            ],
            [
              -73.546996,
              5.9559069
            ],
            [
              -73.546873,
              5.9560225
            ],
            [
              -73.5467394,
              5.9561065
            ],
            [
              -73.5464396,
              5.9562345
            ],
            [
              -73.5463196,
              5.9563
            ],
            [
              -73.5462299,
              5.9563732
            ],
            [
              -73.5460464,
              5.9565702
            ],
            [
              -73.5459398,
              5.956641
            ],
            [
              -73.5458195,
              5.9566766
            ],
            [
              -73.5456745,
              5.9566841
            ],
            [
              -73.5454977,
              5.9566644
            ],
            [
              -73.5449481,
              5.9565623
            ],
            [
              -73.5447857,
              5.956561
            ],
            [
              -73.5446528,
              5.9565904
            ],
            [
              -73.5445481,
              5.9566464
            ],
            [
              -73.5444444,
              5.9567365
            ],
            [
              -73.5443423,
              5.9568563
            ],
            [
              -73.5440619,
              5.9572331
            ],
            [
              -73.5439656,
              5.9573303
            ],
            [
              -73.5438709,
              5.9573971
            ],
            [
              -73.5437711,
              5.9574374
            ],
            [
              -73.5436521,
              5.9574552
            ],
            [
              -73.5435178,
              5.957453
            ],
            [
              -73.5431123,
              5.9574172
            ],
            [
              -73.542995,
              5.9574245
            ],
            [
              -73.542876,
              5.9574511
            ],
            [
              -73.5427455,
              5.9574975
            ],
            [
              -73.5426045,
              5.9575645
            ],
            [
              -73.542106,
              5.9578617
            ],
            [
              -73.5418968,
              5.9579673
            ],
            [
              -73.5417205,
              5.9580277
            ],
            [
              -73.5413178,
              5.958125
            ],
            [
              -73.541161,
              5.9581826
            ],
            [
              -73.5410112,
              5.9582768
            ],
            [
              -73.5408133,
              5.9584857
            ],
            [
              -73.5407225,
              5.9585593
            ],
            [
              -73.5406028,
              5.9586243
            ],
            [
              -73.5403084,
              5.9587497
            ],
            [
              -73.5401815,
              5.9588277
            ],
            [
              -73.5400674,
              5.9589374
            ],
            [
              -73.5398116,
              5.9592444
            ],
            [
              -73.5397331,
              5.9593134
            ],
            [
              -73.5396553,
              5.9593601
            ],
            [
              -73.5394433,
              5.9594304
            ],
            [
              -73.5392119,
              5.9594536
            ],
            [
              -73.5389611,
              5.9594296
            ],
            [
              -73.5386907,
              5.9593585
            ],
            [
              -73.537707,
              5.9599513
            ],
            [
              -73.5365062,
              5.9612171
            ],
            [
              -73.5348888,
              5.9631676
            ],
            [
              -73.534212,
              5.964326
            ],
            [
              -73.532955,
              5.9647518
            ],
            [
              -73.5319619,
              5.965544
            ],
            [
              -73.5283015,
              5.9681337
            ],
            [
              -73.5255808,
              5.9697214
            ],
            [
              -73.5238533,
              5.9705169
            ],
            [
              -73.5212357,
              5.971684
            ],
            [
              -73.5186665,
              5.971958
            ],
            [
              -73.516569,
              5.9721248
            ],
            [
              -73.5151527,
              5.9721311
            ],
            [
              -73.5135793,
              5.9721906
            ],
            [
              -73.5126388,
              5.9730351
            ],
            [
              -73.5107564,
              5.974409
            ],
            [
              -73.5084033,
              5.9761
            ],
            [
              -73.5068867,
              5.9771571
            ],
            [
              -73.5058418,
              5.9781071
            ],
            [
              -73.5049038,
              5.9795293
            ],
            [
              -73.503756,
              5.9809524
            ],
            [
              -73.5017705,
              5.9827469
            ],
            [
              -73.5000432,
              5.9835948
            ],
            [
              -73.4984748,
              5.9848097
            ],
            [
              -73.4958627,
              5.9872897
            ],
            [
              -73.4951355,
              5.9883616
            ],
            [
              -73.4933609,
              5.9909772
            ],
            [
              -73.491276,
              5.9940325
            ],
            [
              -73.4881455,
              5.9979329
            ],
            [
              -73.4850165,
              6.0021588
            ],
            [
              -73.4839409,
              6.003647
            ],
            [
              -73.486157,
              6.004523
            ],
            [
              -73.4882039,
              6.0055612
            ],
            [
              -73.4903504,
              6.006599
            ],
            [
              -73.4916492,
              6.007441
            ],
            [
              -73.4930977,
              6.0083323
            ],
            [
              -73.4941751,
              6.0092731
            ],
            [
              -73.4950629,
              6.0096777
            ],
            [
              -73.4957379,
              6.0102985
            ],
            [
              -73.4963987,
              6.0111422
            ],
            [
              -73.4971795,
              6.012227
            ],
            [
              -73.4979005,
              6.0130106
            ],
            [
              -73.498501,
              6.0139145
            ],
            [
              -73.4992215,
              6.0151799
            ],
            [
              -73.5003021,
              6.0172285
            ],
            [
              -73.5009626,
              6.0182529
            ],
            [
              -73.5012813,
              6.0186125
            ],
            [
              -73.5016131,
              6.0187236
            ],
            [
              -73.5024402,
              6.0195534
            ],
            [
              -73.5043709,
              6.0206606
            ],
            [
              -73.5046466,
              6.0209371
            ],
            [
              -73.5047535,
              6.0213128
            ],
            [
              -73.5046076,
              6.0222454
            ],
            [
              -73.5046449,
              6.0225949
            ],
            [
              -73.5050186,
              6.0230307
            ],
            [
              -73.5061705,
              6.0236555
            ],
            [
              -73.5065753,
              6.0239784
            ],
            [
              -73.5068091,
              6.0243717
            ],
            [
              -73.5072479,
              6.0255627
            ],
            [
              -73.5073053,
              6.0259365
            ],
            [
              -73.5077944,
              6.0264271
            ],
            [
              -73.5081616,
              6.0263662
            ],
            [
              -73.5091255,
              6.02626
            ],
            [
              -73.51025,
              6.0262075
            ],
            [
              -73.5111603,
              6.0261549
            ],
            [
              -73.512124,
              6.0263167
            ],
            [
              -73.5131947,
              6.0265322
            ],
            [
              -73.5142117,
              6.0268013
            ],
            [
              -73.5152286,
              6.0272848
            ],
            [
              -73.5156753,
              6.0275748
            ],
            [
              -73.5156792,
              6.0275796
            ],
            [
              -73.5164732,
              6.0283461
            ],
            [
              -73.517058,
              6.0286862
            ],
            [
              -73.5178411,
              6.0288029
            ],
            [
              -73.5187139,
              6.0286879
            ],
            [
              -73.51928,
              6.0284712
            ],
            [
              -73.5198184,
              6.0281364
            ],
            [
              -73.5205782,
              6.029473
            ],
            [
              -73.5212559,
              6.0309083
            ],
            [
              -73.5218141,
              6.0326625
            ],
            [
              -73.5223324,
              6.0338985
            ],
            [
              -73.5236481,
              6.0357724
            ],
            [
              -73.524605,
              6.0367292
            ],
            [
              -73.5257213,
              6.0380848
            ],
            [
              -73.5266383,
              6.0392809
            ],
            [
              -73.527635,
              6.0409155
            ],
            [
              -73.5284723,
              6.0418325
            ],
            [
              -73.5293494,
              6.0429488
            ],
            [
              -73.5302664,
              6.0441848
            ],
            [
              -73.5309442,
              6.0456998
            ],
            [
              -73.5312045,
              6.0493364
            ],
            [
              -73.5313429,
              6.0499659
            ],
            [
              -73.5311806,
              6.0507847
            ]
          ]
        ]
      },
      "id": "relation/1306568"
    }
  ]
}