{
  "type": "FeatureCollection",
  "features": [
    {
      "type": "Feature",
      "properties": {
        "@id": "relation/1315449",
        "DANE:area": "50.00",
        "DANE:departamento": "68",
        "admin_level": "6",
        "boundary": "administrative",
        "clcfile": "MunicipiosDepartamentos/ADM_Municipios.shp",
        "divipola": "68673",
        "entidad_te": "Cabecera Municipal",
        "is_in:country": "Colombia",
        "is_in:state": "Santander",
        "name": "San Benito",
        "objectid": "3733",
        "source": "OCHA - SIGOT",
        "type": "boundary",
        "wikidata": "Q1655659",
        "wikipedia": "es:San Benito (Santander)"
      },
      "geometry": {
        "type": "Polygon",
        "coordinates": [
          [
            [
              -73.5422123,
              6.1085489
            ],
            [
              -73.543718,
              6.1080438
            ],
            [
              -73.5466084,
              6.107105
            ],
            [
              -73.5480873,
              6.1065822
            ],
            [
              -73.549037,
              6.1062098
            ],
            [
              -73.5501834,
              6.1057015
            ],
            [
              -73.5507455,
              6.1054203
            ],
            [
              -73.5512667,
              6.1051356
            ],
            [
              -73.5517499,
              6.1048465
            ],
            [
              -73.5521981,
              6.1045524
            ],
            [
              -73.5526127,
              6.1042536
            ],
            [
              -73.5529957,
              6.1039502
            ],
            [
              -73.5533489,
              6.1036422
            ],
            [
              -73.5537053,
              6.1032982
            ],
            [
              -73.5540301,
              6.1029489
            ],
            [
              -73.5543257,
              6.1025943
            ],
            [
              -73.5545943,
              6.1022342
            ],
            [
              -73.5548384,
              6.101868
            ],
            [
              -73.55506,
              6.1014953
            ],
            [
              -73.5552613,
              6.101115
            ],
            [
              -73.5554442,
              6.1007269
            ],
            [
              -73.5556697,
              6.1001783
            ],
            [
              -73.5559035,
              6.0995138
            ],
            [
              -73.5564579,
              6.097708
            ],
            [
              -73.5566442,
              6.0971668
            ],
            [
              -73.5568096,
              6.0967512
            ],
            [
              -73.5569694,
              6.0964062
            ],
            [
              -73.5571565,
              6.0960627
            ],
            [
              -73.5573414,
              6.0957763
            ],
            [
              -73.5575249,
              6.0955347
            ],
            [
              -73.5577079,
              6.0953279
            ],
            [
              -73.5579998,
              6.0950539
            ],
            [
              -73.5583343,
              6.0948037
            ],
            [
              -73.5586168,
              6.0946309
            ],
            [
              -73.5589333,
              6.0944676
            ],
            [
              -73.5593233,
              6.0942978
            ],
            [
              -73.5597589,
              6.0941349
            ],
            [
              -73.561032,
              6.0937055
            ],
            [
              -73.5617179,
              6.0934325
            ],
            [
              -73.5620488,
              6.0932716
            ],
            [
              -73.5623286,
              6.0931138
            ],
            [
              -73.5625692,
              6.0929581
            ],
            [
              -73.5629752,
              6.0926419
            ],
            [
              -73.5633817,
              6.0922414
            ],
            [
              -73.5637974,
              6.0917295
            ],
            [
              -73.5640121,
              6.0914237
            ],
            [
              -73.564383,
              6.090843
            ],
            [
              -73.5650356,
              6.0897793
            ],
            [
              -73.5653328,
              6.0893334
            ],
            [
              -73.5657562,
              6.0887715
            ],
            [
              -73.5661383,
              6.0883364
            ],
            [
              -73.5666169,
              6.0878709
            ],
            [
              -73.5671541,
              6.0874322
            ],
            [
              -73.5674508,
              6.0872209
            ],
            [
              -73.5679875,
              6.0868847
            ],
            [
              -73.5685766,
              6.0865734
            ],
            [
              -73.5692149,
              6.0862926
            ],
            [
              -73.5698966,
              6.0860471
            ],
            [
              -73.5706152,
              6.0858404
            ],
            [
              -73.5713567,
              6.0856754
            ],
            [
              -73.5721069,
              6.0855525
            ],
            [
              -73.5728486,
              6.0854694
            ],
            [
              -73.5738665,
              6.0854086
            ],
            [
              -73.5756716,
              6.0853778
            ],
            [
              -73.5761506,
              6.0853439
            ],
            [
              -73.5765896,
              6.0852733
            ],
            [
              -73.5768248,
              6.0852084
            ],
            [
              -73.5770037,
              6.085139
            ],
            [
              -73.5772601,
              6.0849932
            ],
            [
              -73.577406,
              6.0848711
            ],
            [
              -73.5775226,
              6.0847395
            ],
            [
              -73.5776422,
              6.0845537
            ],
            [
              -73.5777266,
              6.0843709
            ],
            [
              -73.5777904,
              6.0841839
            ],
            [
              -73.5778498,
              6.083941
            ],
            [
              -73.577923,
              6.0834385
            ],
            [
              -73.5780448,
              6.0820004
            ],
            [
              -73.5781538,
              6.0813228
            ],
            [
              -73.5782959,
              6.0807783
            ],
            [
              -73.5783965,
              6.0804857
            ],
            [
              -73.5786526,
              6.0798997
            ],
            [
              -73.5788226,
              6.0795822
            ],
            [
              -73.5790285,
              6.079242
            ],
            [
              -73.5782007,
              6.0788152
            ],
            [
              -73.5775493,
              6.0781621
            ],
            [
              -73.5772365,
              6.0778438
            ],
            [
              -73.577113,
              6.0777157
            ],
            [
              -73.5769926,
              6.0775858
            ],
            [
              -73.5769345,
              6.0775193
            ],
            [
              -73.5768786,
              6.0774514
            ],
            [
              -73.5768258,
              6.0773813
            ],
            [
              -73.5767769,
              6.077309
            ],
            [
              -73.576731,
              6.0772346
            ],
            [
              -73.5766873,
              6.0771587
            ],
            [
              -73.5766042,
              6.0770037
            ],
            [
              -73.5764458,
              6.0766883
            ],
            [
              -73.5759793,
              6.0757356
            ],
            [
              -73.5758995,
              6.075578
            ],
            [
              -73.5758166,
              6.0754226
            ],
            [
              -73.575773,
              6.0753464
            ],
            [
              -73.5757272,
              6.0752717
            ],
            [
              -73.5756785,
              6.0751992
            ],
            [
              -73.5756248,
              6.0751278
            ],
            [
              -73.5755681,
              6.0750587
            ],
            [
              -73.575509,
              6.0749914
            ],
            [
              -73.5754482,
              6.0749255
            ],
            [
              -73.575323,
              6.0747973
            ],
            [
              -73.575259,
              6.0747351
            ],
            [
              -73.575194,
              6.0746746
            ],
            [
              -73.5751279,
              6.0746164
            ],
            [
              -73.5750605,
              6.0745611
            ],
            [
              -73.5749913,
              6.0745101
            ],
            [
              -73.5749198,
              6.0744646
            ],
            [
              -73.5748451,
              6.0744268
            ],
            [
              -73.5747766,
              6.0744011
            ],
            [
              -73.5747059,
              6.0743808
            ],
            [
              -73.5744897,
              6.0743298
            ],
            [
              -73.574419,
              6.0743094
            ],
            [
              -73.5743505,
              6.0742837
            ],
            [
              -73.5742769,
              6.0742464
            ],
            [
              -73.5742063,
              6.0742018
            ],
            [
              -73.574138,
              6.0741516
            ],
            [
              -73.5740712,
              6.0740974
            ],
            [
              -73.5740056,
              6.0740403
            ],
            [
              -73.5738765,
              6.0739206
            ],
            [
              -73.5736213,
              6.0736718
            ],
            [
              -73.5733696,
              6.0734192
            ],
            [
              -73.5732493,
              6.0732911
            ],
            [
              -73.5731924,
              6.073226
            ],
            [
              -73.5731393,
              6.0731598
            ],
            [
              -73.5730913,
              6.0730918
            ],
            [
              -73.5730505,
              6.0730215
            ],
            [
              -73.5730197,
              6.0729479
            ],
            [
              -73.573001,
              6.0728703
            ],
            [
              -73.5729922,
              6.0727895
            ],
            [
              -73.5729907,
              6.0727062
            ],
            [
              -73.5729944,
              6.0726212
            ],
            [
              -73.5730019,
              6.072535
            ],
            [
              -73.5730236,
              6.0723604
            ],
            [
              -73.5731194,
              6.0717431
            ],
            [
              -73.5731432,
              6.071568
            ],
            [
              -73.5731528,
              6.0714812
            ],
            [
              -73.57316,
              6.0713951
            ],
            [
              -73.5731639,
              6.0713102
            ],
            [
              -73.5731631,
              6.0712266
            ],
            [
              -73.573156,
              6.071145
            ],
            [
              -73.5731404,
              6.071066
            ],
            [
              -73.5731184,
              6.070999
            ],
            [
              -73.5730907,
              6.0709335
            ],
            [
              -73.573029,
              6.070803
            ],
            [
              -73.573,
              6.0707359
            ],
            [
              -73.5729719,
              6.0706566
            ],
            [
              -73.5729485,
              6.0705746
            ],
            [
              -73.5729287,
              6.0704907
            ],
            [
              -73.5729115,
              6.0704053
            ],
            [
              -73.5728825,
              6.0702318
            ],
            [
              -73.5728577,
              6.0700561
            ],
            [
              -73.5728244,
              6.0697907
            ],
            [
              -73.5727608,
              6.0692589
            ],
            [
              -73.5727259,
              6.068994
            ],
            [
              -73.572698,
              6.0688189
            ],
            [
              -73.5726812,
              6.0687322
            ],
            [
              -73.5726616,
              6.0686463
            ],
            [
              -73.5726382,
              6.0685616
            ],
            [
              -73.5726103,
              6.0684791
            ],
            [
              -73.5725787,
              6.0683978
            ],
            [
              -73.5725444,
              6.0683172
            ],
            [
              -73.5724705,
              6.0681577
            ],
            [
              -73.5723175,
              6.0678406
            ],
            [
              -73.5722809,
              6.067761
            ],
            [
              -73.5722462,
              6.067681
            ],
            [
              -73.5722142,
              6.0676003
            ],
            [
              -73.572186,
              6.0675187
            ],
            [
              -73.572163,
              6.0674359
            ],
            [
              -73.5721464,
              6.0673519
            ],
            [
              -73.572135,
              6.0672667
            ],
            [
              -73.5721275,
              6.0671805
            ],
            [
              -73.5721228,
              6.0670938
            ],
            [
              -73.57212,
              6.0670065
            ],
            [
              -73.5721188,
              6.0667431
            ],
            [
              -73.572125,
              6.0661262
            ],
            [
              -73.5721228,
              6.0659511
            ],
            [
              -73.5721194,
              6.0658643
            ],
            [
              -73.5721135,
              6.0657782
            ],
            [
              -73.5721043,
              6.0656931
            ],
            [
              -73.5720903,
              6.0656095
            ],
            [
              -73.5720699,
              6.0655277
            ],
            [
              -73.5720421,
              6.0654495
            ],
            [
              -73.5720081,
              6.0653732
            ],
            [
              -73.5719695,
              6.0652983
            ],
            [
              -73.5719275,
              6.0652244
            ],
            [
              -73.5718831,
              6.0651512
            ],
            [
              -73.5717897,
              6.0650062
            ],
            [
              -73.5716929,
              6.0648622
            ],
            [
              -73.5713987,
              6.0644315
            ],
            [
              -73.5713033,
              6.0642871
            ],
            [
              -73.5712571,
              6.0642144
            ],
            [
              -73.5712127,
              6.0641413
            ],
            [
              -73.5711707,
              6.0640673
            ],
            [
              -73.571132,
              6.0639924
            ],
            [
              -73.571098,
              6.0639161
            ],
            [
              -73.5710702,
              6.0638378
            ],
            [
              -73.5710497,
              6.0637561
            ],
            [
              -73.5710357,
              6.0636724
            ],
            [
              -73.5710264,
              6.0635873
            ],
            [
              -73.5710205,
              6.0635011
            ],
            [
              -73.571017,
              6.0634142
            ],
            [
              -73.5710147,
              6.0632388
            ],
            [
              -73.5710203,
              6.0626189
            ],
            [
              -73.5710195,
              6.0624412
            ],
            [
              -73.5710174,
              6.0623525
            ],
            [
              -73.5710135,
              6.0622639
            ],
            [
              -73.5710069,
              6.0621757
            ],
            [
              -73.5709966,
              6.0620881
            ],
            [
              -73.5709811,
              6.0620014
            ],
            [
              -73.5709585,
              6.0619162
            ],
            [
              -73.5709281,
              6.0618357
            ],
            [
              -73.5708906,
              6.0617566
            ],
            [
              -73.5708474,
              6.0616781
            ],
            [
              -73.5707998,
              6.0615998
            ],
            [
              -73.5707486,
              6.0615215
            ],
            [
              -73.570639,
              6.0613647
            ],
            [
              -73.5705252,
              6.0612103
            ],
            [
              -73.5703424,
              6.0609691
            ],
            [
              -73.5703316,
              6.0609517
            ],
            [
              -73.5700667,
              6.0605631
            ],
            [
              -73.5693236,
              6.0600105
            ],
            [
              -73.5685807,
              6.0594888
            ],
            [
              -73.5670642,
              6.0585074
            ],
            [
              -73.565456,
              6.0577117
            ],
            [
              -73.5633839,
              6.056671
            ],
            [
              -73.562517,
              6.0560263
            ],
            [
              -73.5615876,
              6.0552274
            ],
            [
              -73.5609978,
              6.0544579
            ],
            [
              -73.5602219,
              6.053473
            ],
            [
              -73.559663,
              6.0527034
            ],
            [
              -73.5590735,
              6.0519956
            ],
            [
              -73.5582996,
              6.0514432
            ],
            [
              -73.5572794,
              6.0510154
            ],
            [
              -73.5562918,
              6.050989
            ],
            [
              -73.5546836,
              6.0501624
            ],
            [
              -73.5537537,
              6.0492399
            ],
            [
              -73.5531329,
              6.0484396
            ],
            [
              -73.5523898,
              6.047887
            ],
            [
              -73.5514008,
              6.0475209
            ],
            [
              -73.5507485,
              6.0471184
            ],
            [
              -73.5506935,
              6.0470637
            ],
            [
              -73.5500992,
              6.0464492
            ],
            [
              -73.549966,
              6.0463147
            ],
            [
              -73.5498339,
              6.0461873
            ],
            [
              -73.5497674,
              6.0461272
            ],
            [
              -73.5497001,
              6.0460704
            ],
            [
              -73.5496314,
              6.0460181
            ],
            [
              -73.5495604,
              6.0459716
            ],
            [
              -73.5494863,
              6.0459329
            ],
            [
              -73.549406,
              6.0459028
            ],
            [
              -73.5493225,
              6.0458805
            ],
            [
              -73.5492366,
              6.0458639
            ],
            [
              -73.549149,
              6.0458512
            ],
            [
              -73.5490604,
              6.0458413
            ],
            [
              -73.5489709,
              6.0458333
            ],
            [
              -73.5487004,
              6.0458151
            ],
            [
              -73.5478864,
              6.0457691
            ],
            [
              -73.5467134,
              6.045698
            ],
            [
              -73.5458103,
              6.0456452
            ],
            [
              -73.5456311,
              6.0456317
            ],
            [
              -73.5455423,
              6.0456232
            ],
            [
              -73.5454544,
              6.0456126
            ],
            [
              -73.5453677,
              6.0455993
            ],
            [
              -73.5452829,
              6.0455819
            ],
            [
              -73.5452006,
              6.045559
            ],
            [
              -73.5451218,
              6.0455284
            ],
            [
              -73.5450499,
              6.0454903
            ],
            [
              -73.5449811,
              6.0454455
            ],
            [
              -73.5449144,
              6.045396
            ],
            [
              -73.5447181,
              6.0452372
            ],
            [
              -73.5446516,
              6.045186
            ],
            [
              -73.5445831,
              6.0451382
            ],
            [
              -73.5445118,
              6.0450959
            ],
            [
              -73.5444356,
              6.0450599
            ],
            [
              -73.5443563,
              6.0450298
            ],
            [
              -73.5442746,
              6.0450041
            ],
            [
              -73.5441913,
              6.0449816
            ],
            [
              -73.5441067,
              6.0449614
            ],
            [
              -73.5439353,
              6.0449253
            ],
            [
              -73.5437623,
              6.0448924
            ],
            [
              -73.5429791,
              6.0447494
            ],
            [
              -73.5422824,
              6.0446162
            ],
            [
              -73.5421089,
              6.0445845
            ],
            [
              -73.5419369,
              6.0445577
            ],
            [
              -73.541852,
              6.0445478
            ],
            [
              -73.5417683,
              6.0445416
            ],
            [
              -73.5416862,
              6.0445409
            ],
            [
              -73.5416066,
              6.0445477
            ],
            [
              -73.54153,
              6.0445647
            ],
            [
              -73.5414566,
              6.0445946
            ],
            [
              -73.5414254,
              6.0446125
            ],
            [
              -73.5411071,
              6.0445679
            ],
            [
              -73.5404129,
              6.0442337
            ],
            [
              -73.5397743,
              6.0437868
            ],
            [
              -73.5391728,
              6.0432461
            ],
            [
              -73.5384597,
              6.0428557
            ],
            [
              -73.5378588,
              6.0424649
            ],
            [
              -73.5373333,
              6.0421674
            ],
            [
              -73.5370643,
              6.042014
            ],
            [
              -73.5368128,
              6.0423875
            ],
            [
              -73.536568,
              6.0427949
            ],
            [
              -73.5363279,
              6.0432449
            ],
            [
              -73.5360973,
              6.0437476
            ],
            [
              -73.5359837,
              6.044029
            ],
            [
              -73.5357542,
              6.0446832
            ],
            [
              -73.5352569,
              6.0464295
            ],
            [
              -73.5349663,
              6.0473425
            ],
            [
              -73.5348368,
              6.0476715
            ],
            [
              -73.534692,
              6.0479873
            ],
            [
              -73.534547,
              6.0482573
            ],
            [
              -73.5344005,
              6.0484911
            ],
            [
              -73.5342517,
              6.0486958
            ],
            [
              -73.5340328,
              6.0489482
            ],
            [
              -73.5340905,
              6.0503287
            ],
            [
              -73.5329427,
              6.0497764
            ],
            [
              -73.5322291,
              6.0499621
            ],
            [
              -73.5318666,
              6.050157
            ],
            [
              -73.5315223,
              6.0504153
            ],
            [
              -73.5313574,
              6.0505758
            ],
            [
              -73.5311806,
              6.0507847
            ],
            [
              -73.5309818,
              6.0510793
            ],
            [
              -73.5308015,
              6.0514094
            ],
            [
              -73.5306393,
              6.0517606
            ],
            [
              -73.5305871,
              6.0522642
            ],
            [
              -73.5306589,
              6.0529755
            ],
            [
              -73.5304427,
              6.0538815
            ],
            [
              -73.5293228,
              6.0545387
            ],
            [
              -73.5283184,
              6.0559352
            ],
            [
              -73.5277206,
              6.0566384
            ],
            [
              -73.5273475,
              6.0573382
            ],
            [
              -73.5257367,
              6.0593064
            ],
            [
              -73.5254465,
              6.0597705
            ],
            [
              -73.524971,
              6.0604695
            ],
            [
              -73.5251055,
              6.0605395
            ],
            [
              -73.5250034,
              6.0608961
            ],
            [
              -73.5249607,
              6.0610921
            ],
            [
              -73.5248976,
              6.061522
            ],
            [
              -73.5248719,
              6.0620027
            ],
            [
              -73.524892,
              6.062535
            ],
            [
              -73.524964,
              6.0631072
            ],
            [
              -73.5250886,
              6.0637064
            ],
            [
              -73.5253519,
              6.0642943
            ],
            [
              -73.5253967,
              6.0647181
            ],
            [
              -73.5254819,
              6.0658932
            ],
            [
              -73.5257828,
              6.0667381
            ],
            [
              -73.5264623,
              6.0670415
            ],
            [
              -73.5267686,
              6.0682548
            ],
            [
              -73.526863,
              6.068868
            ],
            [
              -73.5268919,
              6.0692662
            ],
            [
              -73.5268948,
              6.0701785
            ],
            [
              -73.5267752,
              6.0729918
            ],
            [
              -73.5267308,
              6.0736423
            ],
            [
              -73.5266604,
              6.0742763
            ],
            [
              -73.5265534,
              6.0748694
            ],
            [
              -73.5264843,
              6.0751449
            ],
            [
              -73.5263294,
              6.0756099
            ],
            [
              -73.5262444,
              6.0758098
            ],
            [
              -73.5266018,
              6.0767713
            ],
            [
              -73.5257196,
              6.0776956
            ],
            [
              -73.5249703,
              6.077869
            ],
            [
              -73.5243806,
              6.0776263
            ],
            [
              -73.5235012,
              6.0771981
            ],
            [
              -73.5230118,
              6.0783573
            ],
            [
              -73.5227014,
              6.0785854
            ],
            [
              -73.5224691,
              6.0787809
            ],
            [
              -73.5219242,
              6.0793156
            ],
            [
              -73.5195021,
              6.0819862
            ],
            [
              -73.5188874,
              6.082749
            ],
            [
              -73.5179724,
              6.0840127
            ],
            [
              -73.518126,
              6.0845166
            ],
            [
              -73.5171372,
              6.0850489
            ],
            [
              -73.5168255,
              6.0853807
            ],
            [
              -73.5158448,
              6.0863432
            ],
            [
              -73.5154357,
              6.0867672
            ],
            [
              -73.5152539,
              6.0869744
            ],
            [
              -73.5149712,
              6.0873377
            ],
            [
              -73.5148875,
              6.0874713
            ],
            [
              -73.5146422,
              6.0878782
            ],
            [
              -73.5145427,
              6.0880775
            ],
            [
              -73.5144031,
              6.0884157
            ],
            [
              -73.5142744,
              6.0888041
            ],
            [
              -73.5141608,
              6.089231
            ],
            [
              -73.5139914,
              6.0900417
            ],
            [
              -73.5137088,
              6.0916047
            ],
            [
              -73.5135335,
              6.0926769
            ],
            [
              -73.5134712,
              6.0931759
            ],
            [
              -73.5134164,
              6.0940079
            ],
            [
              -73.5134211,
              6.0944911
            ],
            [
              -73.5134533,
              6.0949442
            ],
            [
              -73.513298,
              6.0960597
            ],
            [
              -73.513845,
              6.0970588
            ],
            [
              -73.5139407,
              6.097705
            ],
            [
              -73.5139558,
              6.0979936
            ],
            [
              -73.5139493,
              6.0982263
            ],
            [
              -73.5139236,
              6.0984482
            ],
            [
              -73.5138856,
              6.0986296
            ],
            [
              -73.5138024,
              6.0988808
            ],
            [
              -73.513671,
              6.0991421
            ],
            [
              -73.5135372,
              6.0993377
            ],
            [
              -73.5133492,
              6.0995528
            ],
            [
              -73.5130862,
              6.099789
            ],
            [
              -73.5127916,
              6.1000016
            ],
            [
              -73.5124026,
              6.1002326
            ],
            [
              -73.5117869,
              6.1005329
            ],
            [
              -73.5111247,
              6.1008115
            ],
            [
              -73.509942,
              6.1012815
            ],
            [
              -73.5090366,
              6.1016726
            ],
            [
              -73.5082426,
              6.1020719
            ],
            [
              -73.5076413,
              6.1024245
            ],
            [
              -73.5071325,
              6.1027622
            ],
            [
              -73.5065971,
              6.1031547
            ],
            [
              -73.5047669,
              6.1045863
            ],
            [
              -73.5042166,
              6.104966
            ],
            [
              -73.5037516,
              6.1052507
            ],
            [
              -73.5032025,
              6.105545
            ],
            [
              -73.5025318,
              6.1058541
            ],
            [
              -73.5021369,
              6.1060168
            ],
            [
              -73.5001835,
              6.1067624
            ],
            [
              -73.4996332,
              6.1070093
            ],
            [
              -73.4992596,
              6.1072081
            ],
            [
              -73.498537,
              6.1074632
            ],
            [
              -73.4973081,
              6.1080471
            ],
            [
              -73.497233,
              6.1082833
            ],
            [
              -73.4966544,
              6.1101021
            ],
            [
              -73.4970166,
              6.1122679
            ],
            [
              -73.4967817,
              6.1130366
            ],
            [
              -73.4964784,
              6.1138433
            ],
            [
              -73.4962981,
              6.114256
            ],
            [
              -73.4959554,
              6.1149455
            ],
            [
              -73.4955605,
              6.1156285
            ],
            [
              -73.495023,
              6.1164249
            ],
            [
              -73.4944081,
              6.117217
            ],
            [
              -73.4928863,
              6.119031
            ],
            [
              -73.4925393,
              6.1194793
            ],
            [
              -73.4922445,
              6.1198901
            ],
            [
              -73.4919754,
              6.1202985
            ],
            [
              -73.4917256,
              6.1207164
            ],
            [
              -73.4913856,
              6.1213751
            ],
            [
              -73.4912531,
              6.1216747
            ],
            [
              -73.4911411,
              6.1219568
            ],
            [
              -73.4909738,
              6.1224536
            ],
            [
              -73.4908128,
              6.1230861
            ],
            [
              -73.4907451,
              6.1234412
            ],
            [
              -73.4906438,
              6.1241897
            ],
            [
              -73.4904596,
              6.1264241
            ],
            [
              -73.4907568,
              6.1280953
            ],
            [
              -73.4893573,
              6.129624
            ],
            [
              -73.4891015,
              6.1299882
            ],
            [
              -73.4885426,
              6.1306777
            ],
            [
              -73.4877436,
              6.1315359
            ],
            [
              -73.486099,
              6.1332292
            ],
            [
              -73.4855628,
              6.1338256
            ],
            [
              -73.4840729,
              6.1355676
            ],
            [
              -73.4835854,
              6.1360776
            ],
            [
              -73.4823623,
              6.137261
            ],
            [
              -73.4818229,
              6.1378633
            ],
            [
              -73.4815509,
              6.1382149
            ],
            [
              -73.4812917,
              6.1385945
            ],
            [
              -73.481073,
              6.1389615
            ],
            [
              -73.4808013,
              6.1395053
            ],
            [
              -73.4806695,
              6.1398182
            ],
            [
              -73.4804137,
              6.1405522
            ],
            [
              -73.4798577,
              6.1425469
            ],
            [
              -73.4796466,
              6.143192
            ],
            [
              -73.4793918,
              6.1438323
            ],
            [
              -73.4790441,
              6.1445409
            ],
            [
              -73.4788296,
              6.1449163
            ],
            [
              -73.4785812,
              6.1453113
            ],
            [
              -73.4780214,
              6.1460995
            ],
            [
              -73.4777045,
              6.1465066
            ],
            [
              -73.4762464,
              6.148283
            ],
            [
              -73.4753394,
              6.1489125
            ],
            [
              -73.4751309,
              6.149852
            ],
            [
              -73.4747608,
              6.1505192
            ],
            [
              -73.474565,
              6.1509328
            ],
            [
              -73.4742872,
              6.1516387
            ],
            [
              -73.4740631,
              6.1524034
            ],
            [
              -73.4739249,
              6.1531515
            ],
            [
              -73.4738783,
              6.1538319
            ],
            [
              -73.4739086,
              6.1544061
            ],
            [
              -73.4739947,
              6.1548922
            ],
            [
              -73.4741193,
              6.1553014
            ],
            [
              -73.4742933,
              6.1556947
            ],
            [
              -73.4744951,
              6.1560352
            ],
            [
              -73.4747775,
              6.1564058
            ],
            [
              -73.4751693,
              6.1568129
            ],
            [
              -73.4754274,
              6.1570427
            ],
            [
              -73.475845,
              6.1573783
            ],
            [
              -73.4775291,
              6.1586101
            ],
            [
              -73.4783959,
              6.1592865
            ],
            [
              -73.4789249,
              6.159733
            ],
            [
              -73.4794518,
              6.1602101
            ],
            [
              -73.4799695,
              6.1607164
            ],
            [
              -73.4804706,
              6.1612485
            ],
            [
              -73.4809116,
              6.1617572
            ],
            [
              -73.4813213,
              6.16227
            ],
            [
              -73.4817247,
              6.1628197
            ],
            [
              -73.4821126,
              6.1633978
            ],
            [
              -73.4824216,
              6.1638999
            ],
            [
              -73.4824913,
              6.1640259
            ],
            [
              -73.482541,
              6.1636952
            ],
            [
              -73.4826828,
              6.1635275
            ],
            [
              -73.4828952,
              6.163406
            ],
            [
              -73.4831337,
              6.1633265
            ],
            [
              -73.4833739,
              6.1632826
            ],
            [
              -73.4836047,
              6.1632664
            ],
            [
              -73.4838259,
              6.1632712
            ],
            [
              -73.4842291,
              6.1633243
            ],
            [
              -73.4847193,
              6.1634517
            ],
            [
              -73.4861503,
              6.1639751
            ],
            [
              -73.4867245,
              6.164147
            ],
            [
              -73.4873641,
              6.16427
            ],
            [
              -73.4878088,
              6.1643079
            ],
            [
              -73.4882816,
              6.1643028
            ],
            [
              -73.4887608,
              6.1642463
            ],
            [
              -73.4892223,
              6.1641385
            ],
            [
              -73.4896468,
              6.163987
            ],
            [
              -73.4898448,
              6.1644276
            ],
            [
              -73.4903397,
              6.163609
            ],
            [
              -73.4905202,
              6.1634783
            ],
            [
              -73.4908312,
              6.1632158
            ],
            [
              -73.4911544,
              6.1628882
            ],
            [
              -73.4913286,
              6.162688
            ],
            [
              -73.4916594,
              6.162266
            ],
            [
              -73.4919769,
              6.161821
            ],
            [
              -73.4929111,
              6.1604515
            ],
            [
              -73.493366,
              6.1598163
            ],
            [
              -73.493862,
              6.1591661
            ],
            [
              -73.494409,
              6.1585007
            ],
            [
              -73.4950179,
              6.1578167
            ],
            [
              -73.4954304,
              6.1573823
            ],
            [
              -73.4963589,
              6.1564722
            ],
            [
              -73.49689,
              6.1559842
            ],
            [
              -73.497898,
              6.1551021
            ],
            [
              -73.5007775,
              6.152662
            ],
            [
              -73.5014124,
              6.1521653
            ],
            [
              -73.5029125,
              6.1517127
            ],
            [
              -73.5035871,
              6.1503112
            ],
            [
              -73.5047977,
              6.1493123
            ],
            [
              -73.5054529,
              6.1488032
            ],
            [
              -73.5064406,
              6.1480984
            ],
            [
              -73.506837,
              6.147841
            ],
            [
              -73.5075757,
              6.1474053
            ],
            [
              -73.5082807,
              6.1470475
            ],
            [
              -73.508959,
              6.1467598
            ],
            [
              -73.5093739,
              6.146612
            ],
            [
              -73.5097817,
              6.1464876
            ],
            [
              -73.5101868,
              6.1463847
            ],
            [
              -73.5108959,
              6.1462534
            ],
            [
              -73.511587,
              6.1461825
            ],
            [
              -73.511964,
              6.1461655
            ],
            [
              -73.5126978,
              6.1461704
            ],
            [
              -73.5135484,
              6.1462268
            ],
            [
              -73.5143965,
              6.1463201
            ],
            [
              -73.5165033,
              6.1465907
            ],
            [
              -73.5175749,
              6.1466775
            ],
            [
              -73.5181058,
              6.146691
            ],
            [
              -73.5185869,
              6.1466811
            ],
            [
              -73.5190284,
              6.1466505
            ],
            [
              -73.5194369,
              6.1466017
            ],
            [
              -73.5198577,
              6.1465287
            ],
            [
              -73.5202535,
              6.1464378
            ],
            [
              -73.5207603,
              6.1462885
            ],
            [
              -73.5213153,
              6.1460816
            ],
            [
              -73.5219072,
              6.1458095
            ],
            [
              -73.5224991,
              6.1454815
            ],
            [
              -73.5230752,
              6.1451037
            ],
            [
              -73.5236213,
              6.1446848
            ],
            [
              -73.5239535,
              6.1443959
            ],
            [
              -73.5242653,
              6.1440966
            ],
            [
              -73.5245547,
              6.1437897
            ],
            [
              -73.5248202,
              6.1434778
            ],
            [
              -73.5250604,
              6.1431638
            ],
            [
              -73.5252751,
              6.1428496
            ],
            [
              -73.5254643,
              6.1425374
            ],
            [
              -73.5256285,
              6.142229
            ],
            [
              -73.5257677,
              6.1419275
            ],
            [
              -73.5259792,
              6.1413456
            ],
            [
              -73.5261116,
              6.1407964
            ],
            [
              -73.5261787,
              6.1402806
            ],
            [
              -73.5261922,
              6.1397459
            ],
            [
              -73.5261755,
              6.1394347
            ],
            [
              -73.526138,
              6.1390935
            ],
            [
              -73.5260749,
              6.1387129
            ],
            [
              -73.5259971,
              6.1383535
            ],
            [
              -73.5258897,
              6.1379415
            ],
            [
              -73.5256456,
              6.137156
            ],
            [
              -73.5250292,
              6.1353747
            ],
            [
              -73.5247558,
              6.1344908
            ],
            [
              -73.5245964,
              6.1338883
            ],
            [
              -73.5244625,
              6.133286
            ],
            [
              -73.5243278,
              6.1324588
            ],
            [
              -73.5242665,
              6.1317269
            ],
            [
              -73.5242687,
              6.1310939
            ],
            [
              -73.5243259,
              6.1305229
            ],
            [
              -73.5244278,
              6.1300305
            ],
            [
              -73.5245644,
              6.1296067
            ],
            [
              -73.5247271,
              6.1292416
            ],
            [
              -73.5249673,
              6.1288389
            ],
            [
              -73.5253072,
              6.1284137
            ],
            [
              -73.5256245,
              6.1281011
            ],
            [
              -73.5260001,
              6.1277926
            ],
            [
              -73.5264814,
              6.1274568
            ],
            [
              -73.5270201,
              6.1271261
            ],
            [
              -73.5284619,
              6.1262917
            ],
            [
              -73.5288415,
              6.1260458
            ],
            [
              -73.5291468,
              6.125826
            ],
            [
              -73.529452,
              6.1255763
            ],
            [
              -73.5296892,
              6.1253518
            ],
            [
              -73.5299516,
              6.1250563
            ],
            [
              -73.5301995,
              6.1247058
            ],
            [
              -73.5304244,
              6.1242922
            ],
            [
              -73.5309426,
              6.1230361
            ],
            [
              -73.5312304,
              6.1224577
            ],
            [
              -73.531438,
              6.1221136
            ],
            [
              -73.5316834,
              6.121747
            ],
            [
              -73.5325063,
              6.1205653
            ],
            [
              -73.5327411,
              6.1201751
            ],
            [
              -73.5329891,
              6.119689
            ],
            [
              -73.5331916,
              6.1191967
            ],
            [
              -73.5333866,
              6.1185906
            ],
            [
              -73.5335538,
              6.1179189
            ],
            [
              -73.5339397,
              6.1160264
            ],
            [
              -73.5341347,
              6.1152649
            ],
            [
              -73.5343183,
              6.1147022
            ],
            [
              -73.534595,
              6.1140326
            ],
            [
              -73.5349341,
              6.1133907
            ],
            [
              -73.5351304,
              6.1130778
            ],
            [
              -73.5353465,
              6.1127693
            ],
            [
              -73.5355841,
              6.1124647
            ],
            [
              -73.5358749,
              6.112131
            ],
            [
              -73.5361966,
              6.1118015
            ],
            [
              -73.5365516,
              6.1114761
            ],
            [
              -73.5369426,
              6.1111551
            ],
            [
              -73.5373714,
              6.1108389
            ],
            [
              -73.5378413,
              6.1105272
            ],
            [
              -73.5383551,
              6.1102201
            ],
            [
              -73.5389161,
              6.1099171
            ],
            [
              -73.5394749,
              6.1096426
            ],
            [
              -73.5400814,
              6.1093696
            ],
            [
              -73.5407687,
              6.1090851
            ],
            [
              -73.5422123,
              6.1085489
            ]
          ]
        ]
      },
      "id": "relation/1315449"
    }
  ]
}