{
  "type": "FeatureCollection",
  "features": [
    {
      "type": "Feature",
      "properties": {
        "@id": "relation/1423471",
        "DANE:area": "69.00",
        "DANE:departamento": "68",
        "admin_level": "6",
        "boundary": "administrative",
        "clcfile": "MunicipiosDepartamentos/ADM_Municipios.shp",
        "divipola": "68322",
        "entidad_te": "Cabecera Municipal",
        "is_in:country": "Colombia",
        "is_in:state": "Santander",
        "name": "Guapotá",
        "objectid": "4316",
        "source": "OCHA - SIGOT",
        "type": "boundary",
        "wikidata": "Q1655667",
        "wikipedia": "es:Guapotá"
      },
      "geometry": {
        "type": "Polygon",
        "coordinates": [
          [
            [
              -73.3589586,
              6.2764566
            ],
            [
              -73.3585765,
              6.2762689
            ],
            [
              -73.3580768,
              6.2760559
            ],
            [
              -73.3575471,
              6.2758508
            ],
            [
              -73.3569807,
              6.2756529
            ],
            [
              -73.356367,
              6.2754603
            ],
            [
              -73.3550704,
              6.2751099
            ],
            [
              -73.3524267,
              6.2744851
            ],
            [
              -73.3513325,
              6.2741971
            ],
            [
              -73.3507514,
              6.2740241
            ],
            [
              -73.3497213,
              6.2736697
            ],
            [
              -73.3488238,
              6.2733004
            ],
            [
              -73.3480304,
              6.2729222
            ],
            [
              -73.3468588,
              6.2722853
            ],
            [
              -73.3456797,
              6.2715988
            ],
            [
              -73.3446421,
              6.2710182
            ],
            [
              -73.3442377,
              6.2708092
            ],
            [
              -73.3438835,
              6.2706425
            ],
            [
              -73.3434889,
              6.2704568
            ],
            [
              -73.3434616,
              6.2704458
            ],
            [
              -73.3429763,
              6.2709359
            ],
            [
              -73.3428264,
              6.2711003
            ],
            [
              -73.3425411,
              6.2713919
            ],
            [
              -73.3423959,
              6.2715291
            ],
            [
              -73.3422485,
              6.2716583
            ],
            [
              -73.342098,
              6.2717777
            ],
            [
              -73.3419088,
              6.2719067
            ],
            [
              -73.3417818,
              6.271979
            ],
            [
              -73.3416514,
              6.272042
            ],
            [
              -73.3415384,
              6.2720881
            ],
            [
              -73.3414235,
              6.272128
            ],
            [
              -73.3412613,
              6.2721744
            ],
            [
              -73.3410968,
              6.2722126
            ],
            [
              -73.3409307,
              6.2722449
            ],
            [
              -73.3406338,
              6.2722932
            ],
            [
              -73.3402051,
              6.2723521
            ],
            [
              -73.339776,
              6.2724055
            ],
            [
              -73.3376524,
              6.2726563
            ],
            [
              -73.3352995,
              6.2729188
            ],
            [
              -73.3346579,
              6.273001
            ],
            [
              -73.3342292,
              6.2730672
            ],
            [
              -73.3338335,
              6.2731409
            ],
            [
              -73.3335003,
              6.273213
            ],
            [
              -73.3324944,
              6.2734503
            ],
            [
              -73.3321766,
              6.2735179
            ],
            [
              -73.3317643,
              6.273591
            ],
            [
              -73.3313921,
              6.2736399
            ],
            [
              -73.3310192,
              6.2736731
            ],
            [
              -73.3308064,
              6.2736851
            ],
            [
              -73.3305934,
              6.2736924
            ],
            [
              -73.3302733,
              6.2736951
            ],
            [
              -73.3298926,
              6.273687
            ],
            [
              -73.3295124,
              6.2736683
            ],
            [
              -73.3291166,
              6.2736369
            ],
            [
              -73.3285095,
              6.2735756
            ],
            [
              -73.3283209,
              6.2735606
            ],
            [
              -73.3281315,
              6.2735512
            ],
            [
              -73.3279425,
              6.2735497
            ],
            [
              -73.3278272,
              6.2735537
            ],
            [
              -73.3277122,
              6.2735617
            ],
            [
              -73.3274869,
              6.2735897
            ],
            [
              -73.3273383,
              6.2736165
            ],
            [
              -73.3271903,
              6.2736485
            ],
            [
              -73.3270428,
              6.2736844
            ],
            [
              -73.3264525,
              6.2738405
            ],
            [
              -73.3262556,
              6.2738874
            ],
            [
              -73.3258651,
              6.2739671
            ],
            [
              -73.3256685,
              6.274002
            ],
            [
              -73.3252737,
              6.2740646
            ],
            [
              -73.3241327,
              6.2742287
            ],
            [
              -73.3237592,
              6.2742963
            ],
            [
              -73.3235722,
              6.2743376
            ],
            [
              -73.3234321,
              6.2743727
            ],
            [
              -73.3231812,
              6.2744452
            ],
            [
              -73.3225675,
              6.2746515
            ],
            [
              -73.3224014,
              6.2747054
            ],
            [
              -73.3221667,
              6.2747757
            ],
            [
              -73.3219501,
              6.2748343
            ],
            [
              -73.321213,
              6.275019
            ],
            [
              -73.3210297,
              6.2750711
            ],
            [
              -73.3208967,
              6.2751134
            ],
            [
              -73.3207659,
              6.2751601
            ],
            [
              -73.3206428,
              6.2752098
            ],
            [
              -73.3205227,
              6.275265
            ],
            [
              -73.3203521,
              6.2753571
            ],
            [
              -73.3202001,
              6.275454
            ],
            [
              -73.3200538,
              6.2755581
            ],
            [
              -73.3198062,
              6.275745
            ],
            [
              -73.3196211,
              6.2758745
            ],
            [
              -73.3195078,
              6.2759424
            ],
            [
              -73.3193906,
              6.2760007
            ],
            [
              -73.3192448,
              6.2760541
            ],
            [
              -73.3190339,
              6.2760996
            ],
            [
              -73.3187932,
              6.276115
            ],
            [
              -73.3186029,
              6.2761081
            ],
            [
              -73.3184092,
              6.2760917
            ],
            [
              -73.3179494,
              6.2760441
            ],
            [
              -73.317789,
              6.2760321
            ],
            [
              -73.3176275,
              6.2760251
            ],
            [
              -73.3174401,
              6.2760251
            ],
            [
              -73.3172519,
              6.2760349
            ],
            [
              -73.3170966,
              6.2760512
            ],
            [
              -73.3169413,
              6.2760752
            ],
            [
              -73.3167349,
              6.2761193
            ],
            [
              -73.316533,
              6.2761753
            ],
            [
              -73.3164043,
              6.2762171
            ],
            [
              -73.3161494,
              6.2763109
            ],
            [
              -73.3156229,
              6.276517
            ],
            [
              -73.315301,
              6.27663
            ],
            [
              -73.3151504,
              6.2766764
            ],
            [
              -73.3149996,
              6.276718
            ],
            [
              -73.3147615,
              6.276774
            ],
            [
              -73.3145349,
              6.2768176
            ],
            [
              -73.314333,
              6.276849
            ],
            [
              -73.3142115,
              6.2768639
            ],
            [
              -73.3140922,
              6.2768682
            ],
            [
              -73.3166332,
              6.277502
            ],
            [
              -73.3181425,
              6.2776544
            ],
            [
              -73.3194128,
              6.277649
            ],
            [
              -73.3197482,
              6.2777035
            ],
            [
              -73.3208431,
              6.2778812
            ],
            [
              -73.3217828,
              6.2786019
            ],
            [
              -73.3220301,
              6.2788455
            ],
            [
              -73.3224921,
              6.2792845
            ],
            [
              -73.3228243,
              6.2795904
            ],
            [
              -73.323338,
              6.2800495
            ],
            [
              -73.3234931,
              6.280191
            ],
            [
              -73.3236429,
              6.2803338
            ],
            [
              -73.3237863,
              6.2804794
            ],
            [
              -73.3239682,
              6.2806814
            ],
            [
              -73.3240745,
              6.2808087
            ],
            [
              -73.3243884,
              6.2812026
            ],
            [
              -73.3244953,
              6.2813319
            ],
            [
              -73.3245949,
              6.281445
            ],
            [
              -73.3246981,
              6.281554
            ],
            [
              -73.3247879,
              6.2816416
            ],
            [
              -73.3248808,
              6.2817254
            ],
            [
              -73.3250014,
              6.2818246
            ],
            [
              -73.3251268,
              6.2819179
            ],
            [
              -73.3252864,
              6.2820245
            ],
            [
              -73.3254515,
              6.2821236
            ],
            [
              -73.3257068,
              6.2822603
            ],
            [
              -73.3262847,
              6.2825446
            ],
            [
              -73.3264831,
              6.2826496
            ],
            [
              -73.3266838,
              6.2827674
            ],
            [
              -73.3268516,
              6.2828786
            ],
            [
              -73.3269529,
              6.282953
            ],
            [
              -73.3270507,
              6.2830313
            ],
            [
              -73.3271847,
              6.2831509
            ],
            [
              -73.3273096,
              6.2832784
            ],
            [
              -73.3274166,
              6.2834051
            ],
            [
              -73.3275408,
              6.2835774
            ],
            [
              -73.3276207,
              6.283712
            ],
            [
              -73.3276763,
              6.2838229
            ],
            [
              -73.3277247,
              6.2839367
            ],
            [
              -73.3277763,
              6.2840891
            ],
            [
              -73.3278147,
              6.2842454
            ],
            [
              -73.3278378,
              6.2843913
            ],
            [
              -73.3278489,
              6.2845391
            ],
            [
              -73.3278489,
              6.2846561
            ],
            [
              -73.3278414,
              6.2847736
            ],
            [
              -73.3278146,
              6.2849648
            ],
            [
              -73.3277731,
              6.2851564
            ],
            [
              -73.3277201,
              6.2853483
            ],
            [
              -73.3276495,
              6.2855654
            ],
            [
              -73.3275705,
              6.2857831
            ],
            [
              -73.3274876,
              6.2859965
            ],
            [
              -73.3273076,
              6.2864262
            ],
            [
              -73.3272116,
              6.2866405
            ],
            [
              -73.3271105,
              6.2868555
            ],
            [
              -73.3269222,
              6.2872269
            ],
            [
              -73.3267363,
              6.2875611
            ],
            [
              -73.3264311,
              6.288094
            ],
            [
              -73.3263048,
              6.2883329
            ],
            [
              -73.3262399,
              6.2884668
            ],
            [
              -73.3261841,
              6.2885926
            ],
            [
              -73.3261267,
              6.2887407
            ],
            [
              -73.3259484,
              6.2895601
            ],
            [
              -73.325872,
              6.2899278
            ],
            [
              -73.3257969,
              6.2903248
            ],
            [
              -73.3257643,
              6.2905217
            ],
            [
              -73.3257363,
              6.2907161
            ],
            [
              -73.3257142,
              6.2909082
            ],
            [
              -73.3256993,
              6.291098
            ],
            [
              -73.3256933,
              6.2913273
            ],
            [
              -73.3256984,
              6.2914915
            ],
            [
              -73.3257115,
              6.2916537
            ],
            [
              -73.3257292,
              6.2917931
            ],
            [
              -73.3257523,
              6.2919308
            ],
            [
              -73.3257803,
              6.2920668
            ],
            [
              -73.3258135,
              6.2922044
            ],
            [
              -73.3259486,
              6.2926989
            ],
            [
              -73.3259765,
              6.2928208
            ],
            [
              -73.325999,
              6.2929436
            ],
            [
              -73.3260169,
              6.2930834
            ],
            [
              -73.3260276,
              6.2932241
            ],
            [
              -73.3260321,
              6.2933717
            ],
            [
              -73.3260315,
              6.29352
            ],
            [
              -73.3260051,
              6.2942978
            ],
            [
              -73.3260045,
              6.294655
            ],
            [
              -73.3260193,
              6.2949503
            ],
            [
              -73.3260494,
              6.295238
            ],
            [
              -73.3261041,
              6.2955745
            ],
            [
              -73.3261402,
              6.2957535
            ],
            [
              -73.3262584,
              6.2962843
            ],
            [
              -73.3263254,
              6.2966335
            ],
            [
              -73.3263612,
              6.2968869
            ],
            [
              -73.3264258,
              6.2975461
            ],
            [
              -73.3264467,
              6.297727
            ],
            [
              -73.3264722,
              6.2979079
            ],
            [
              -73.3265092,
              6.29812
            ],
            [
              -73.3265518,
              6.2983266
            ],
            [
              -73.3265973,
              6.2985223
            ],
            [
              -73.3266782,
              6.2988282
            ],
            [
              -73.3267188,
              6.2989551
            ],
            [
              -73.3264433,
              6.298754
            ],
            [
              -73.3263155,
              6.2986274
            ],
            [
              -73.3259552,
              6.2982194
            ],
            [
              -73.3251149,
              6.2979623
            ],
            [
              -73.3233623,
              6.2969937
            ],
            [
              -73.3215173,
              6.2962558
            ],
            [
              -73.3199031,
              6.2953333
            ],
            [
              -73.3188422,
              6.2947798
            ],
            [
              -73.3172279,
              6.2941341
            ],
            [
              -73.3157981,
              6.2931655
            ],
            [
              -73.3143683,
              6.2924276
            ],
            [
              -73.3128924,
              6.2919663
            ],
            [
              -73.3115548,
              6.2917357
            ],
            [
              -73.3103095,
              6.2917357
            ],
            [
              -73.3087413,
              6.2922892
            ],
            [
              -73.307496,
              6.2927965
            ],
            [
              -73.3057894,
              6.2934884
            ],
            [
              -73.3039907,
              6.2941341
            ],
            [
              -73.3019612,
              6.2945031
            ],
            [
              -73.3003008,
              6.2947337
            ],
            [
              -73.2982714,
              6.2947337
            ],
            [
              -73.2973499,
              6.2953474
            ],
            [
              -73.2972066,
              6.2954592
            ],
            [
              -73.2960415,
              6.2963553
            ],
            [
              -73.2952118,
              6.2975842
            ],
            [
              -73.2939921,
              6.298759
            ],
            [
              -73.2930506,
              6.2998769
            ],
            [
              -73.2913852,
              6.3009422
            ],
            [
              -73.2899448,
              6.3025636
            ],
            [
              -73.2891176,
              6.3044051
            ],
            [
              -73.2884563,
              6.3059674
            ],
            [
              -73.2877366,
              6.3069173
            ],
            [
              -73.2871852,
              6.3081449
            ],
            [
              -73.2860782,
              6.3096534
            ],
            [
              -73.2846359,
              6.3108292
            ],
            [
              -73.2833587,
              6.3115587
            ],
            [
              -73.2821369,
              6.3122322
            ],
            [
              -73.280248,
              6.3131314
            ],
            [
              -73.2783594,
              6.3140862
            ],
            [
              -73.2766394,
              6.3154302
            ],
            [
              -73.2755884,
              6.3169942
            ],
            [
              -73.2742601,
              6.3188378
            ],
            [
              -73.2741535,
              6.3199522
            ],
            [
              -73.2743255,
              6.3211211
            ],
            [
              -73.2754996,
              6.3223415
            ],
            [
              -73.2768948,
              6.323171
            ],
            [
              -73.2787349,
              6.3238873
            ],
            [
              -73.279501,
              6.3248875
            ],
            [
              -73.2796853,
              6.3253475
            ],
            [
              -73.2797587,
              6.3255358
            ],
            [
              -73.279899,
              6.3259259
            ],
            [
              -73.2799632,
              6.3261261
            ],
            [
              -73.2800208,
              6.3263272
            ],
            [
              -73.2800697,
              6.3265284
            ],
            [
              -73.280114,
              6.3267669
            ],
            [
              -73.2801313,
              6.3268937
            ],
            [
              -73.280154,
              6.3271418
            ],
            [
              -73.2801652,
              6.3274449
            ],
            [
              -73.2801652,
              6.3276252
            ],
            [
              -73.2801608,
              6.3278136
            ],
            [
              -73.2801516,
              6.3280004
            ],
            [
              -73.2801373,
              6.3281853
            ],
            [
              -73.2801169,
              6.3283683
            ],
            [
              -73.2801005,
              6.3284818
            ],
            [
              -73.280051,
              6.3287364
            ],
            [
              -73.2800157,
              6.3288768
            ],
            [
              -73.2799638,
              6.3290517
            ],
            [
              -73.2799043,
              6.3292239
            ],
            [
              -73.2798011,
              6.3294808
            ],
            [
              -73.2796509,
              6.3298025
            ],
            [
              -73.2794989,
              6.3300979
            ],
            [
              -73.279346,
              6.3303802
            ],
            [
              -73.2789602,
              6.3310703
            ],
            [
              -73.2788159,
              6.3313354
            ],
            [
              -73.2786476,
              6.3316587
            ],
            [
              -73.2785732,
              6.3318093
            ],
            [
              -73.27843,
              6.3321146
            ],
            [
              -73.2782727,
              6.3324786
            ],
            [
              -73.2781875,
              6.3326911
            ],
            [
              -73.2781058,
              6.3329073
            ],
            [
              -73.2779967,
              6.3332225
            ],
            [
              -73.2778999,
              6.3335458
            ],
            [
              -73.2778529,
              6.3337322
            ],
            [
              -73.2778131,
              6.3339212
            ],
            [
              -73.2777864,
              6.3340822
            ],
            [
              -73.277767,
              6.3342438
            ],
            [
              -73.2777541,
              6.3344627
            ],
            [
              -73.2777578,
              6.3346831
            ],
            [
              -73.2777678,
              6.3348116
            ],
            [
              -73.2777829,
              6.3349327
            ],
            [
              -73.277812,
              6.3350877
            ],
            [
              -73.2779205,
              6.3353937
            ],
            [
              -73.278058,
              6.3353302
            ],
            [
              -73.278216,
              6.3353048
            ],
            [
              -73.2783754,
              6.3352861
            ],
            [
              -73.2785479,
              6.3352727
            ],
            [
              -73.2787214,
              6.3352658
            ],
            [
              -73.2788935,
              6.3352645
            ],
            [
              -73.2792384,
              6.3352757
            ],
            [
              -73.2794109,
              6.3352868
            ],
            [
              -73.2799824,
              6.3353348
            ],
            [
              -73.2801723,
              6.3353468
            ],
            [
              -73.2803618,
              6.3353522
            ],
            [
              -73.2805241,
              6.3353496
            ],
            [
              -73.2806859,
              6.3353396
            ],
            [
              -73.2808469,
              6.3353216
            ],
            [
              -73.2810453,
              6.3352878
            ],
            [
              -73.2812423,
              6.3352435
            ],
            [
              -73.2814379,
              6.3351911
            ],
            [
              -73.2818257,
              6.3350699
            ],
            [
              -73.2824005,
              6.3348784
            ],
            [
              -73.2826822,
              6.334797
            ],
            [
              -73.2828225,
              6.3347642
            ],
            [
              -73.2830168,
              6.3347313
            ],
            [
              -73.2832097,
              6.3347164
            ],
            [
              -73.2834002,
              6.3347242
            ],
            [
              -73.2835911,
              6.3347592
            ],
            [
              -73.2837432,
              6.334804
            ],
            [
              -73.2838946,
              6.3348585
            ],
            [
              -73.2843233,
              6.3350249
            ],
            [
              -73.2844648,
              6.3350747
            ],
            [
              -73.284644,
              6.3351305
            ],
            [
              -73.2848262,
              6.3351805
            ],
            [
              -73.2850105,
              6.335226
            ],
            [
              -73.2857385,
              6.3353879
            ],
            [
              -73.2859018,
              6.3354284
            ],
            [
              -73.2860569,
              6.3354726
            ],
            [
              -73.2862093,
              6.3355238
            ],
            [
              -73.2863472,
              6.3355788
            ],
            [
              -73.2864818,
              6.3356413
            ],
            [
              -73.2866127,
              6.3357111
            ],
            [
              -73.2867403,
              6.3357876
            ],
            [
              -73.2869076,
              6.3358996
            ],
            [
              -73.2870701,
              6.3360195
            ],
            [
              -73.2872289,
              6.3361449
            ],
            [
              -73.287726,
              6.3365557
            ],
            [
              -73.2878955,
              6.3366811
            ],
            [
              -73.2880204,
              6.3367617
            ],
            [
              -73.2881495,
              6.3368338
            ],
            [
              -73.2882828,
              6.336896
            ],
            [
              -73.2884287,
              6.3369499
            ],
            [
              -73.2885786,
              6.336992
            ],
            [
              -73.2887197,
              6.3370208
            ],
            [
              -73.2888628,
              6.3370416
            ],
            [
              -73.2890072,
              6.337056
            ],
            [
              -73.2891721,
              6.3370663
            ],
            [
              -73.2896531,
              6.3370834
            ],
            [
              -73.2898031,
              6.3370933
            ],
            [
              -73.2899427,
              6.3371102
            ],
            [
              -73.2900779,
              6.3371378
            ],
            [
              -73.2902932,
              6.3372194
            ],
            [
              -73.2904662,
              6.337328
            ],
            [
              -73.2905867,
              6.3374298
            ],
            [
              -73.2907038,
              6.3375513
            ],
            [
              -73.2908147,
              6.337684
            ],
            [
              -73.2909213,
              6.3378248
            ],
            [
              -73.2910252,
              6.3379712
            ],
            [
              -73.2913378,
              6.3384293
            ],
            [
              -73.2914452,
              6.3385808
            ],
            [
              -73.2915598,
              6.3387336
            ],
            [
              -73.2916792,
              6.3388813
            ],
            [
              -73.2918044,
              6.3390223
            ],
            [
              -73.2919366,
              6.3391545
            ],
            [
              -73.292045,
              6.3392493
            ],
            [
              -73.2921588,
              6.3393366
            ],
            [
              -73.2922788,
              6.3394161
            ],
            [
              -73.2924042,
              6.3394867
            ],
            [
              -73.292529,
              6.3395457
            ],
            [
              -73.2926578,
              6.3395965
            ],
            [
              -73.2927913,
              6.3396403
            ],
            [
              -73.2929276,
              6.3396776
            ],
            [
              -73.2930468,
              6.3397054
            ],
            [
              -73.2938457,
              6.3398568
            ],
            [
              -73.2940417,
              6.3398998
            ],
            [
              -73.2942364,
              6.3399482
            ],
            [
              -73.2944295,
              6.3400025
            ],
            [
              -73.294623,
              6.3400646
            ],
            [
              -73.2948138,
              6.340134
            ],
            [
              -73.2950014,
              6.3402112
            ],
            [
              -73.2951952,
              6.3403017
            ],
            [
              -73.295385,
              6.3404006
            ],
            [
              -73.2955709,
              6.3405069
            ],
            [
              -73.295754,
              6.340621
            ],
            [
              -73.2959332,
              6.3407412
            ],
            [
              -73.2961085,
              6.340867
            ],
            [
              -73.2962289,
              6.3409581
            ],
            [
              -73.2967371,
              6.3413681
            ],
            [
              -73.296895,
              6.3414911
            ],
            [
              -73.2970563,
              6.3416078
            ],
            [
              -73.2972135,
              6.3417103
            ],
            [
              -73.2973753,
              6.3418039
            ],
            [
              -73.2975633,
              6.341899
            ],
            [
              -73.2981479,
              6.3421547
            ],
            [
              -73.2982785,
              6.3422179
            ],
            [
              -73.2984051,
              6.3422875
            ],
            [
              -73.2985724,
              6.3423976
            ],
            [
              -73.298676,
              6.3424747
            ],
            [
              -73.2988902,
              6.3426491
            ],
            [
              -73.2996965,
              6.3433496
            ],
            [
              -73.3006404,
              6.3441486
            ],
            [
              -73.3009073,
              6.3443853
            ],
            [
              -73.3010506,
              6.3445191
            ],
            [
              -73.3011896,
              6.3446561
            ],
            [
              -73.3013229,
              6.3447974
            ],
            [
              -73.3014488,
              6.3449441
            ],
            [
              -73.3015645,
              6.3450945
            ],
            [
              -73.3018605,
              6.345521
            ],
            [
              -73.301937,
              6.345628
            ],
            [
              -73.3020417,
              6.3457641
            ],
            [
              -73.3021536,
              6.3458934
            ],
            [
              -73.3022883,
              6.3460267
            ],
            [
              -73.3024536,
              6.3461626
            ],
            [
              -73.3026316,
              6.3462846
            ],
            [
              -73.3028175,
              6.3463953
            ],
            [
              -73.3030094,
              6.3464995
            ],
            [
              -73.303725,
              6.3468752
            ],
            [
              -73.3040843,
              6.3470766
            ],
            [
              -73.3042443,
              6.3471725
            ],
            [
              -73.3044126,
              6.3472798
            ],
            [
              -73.3045759,
              6.3473927
            ],
            [
              -73.3047177,
              6.3475005
            ],
            [
              -73.3048531,
              6.3476147
            ],
            [
              -73.304954,
              6.3477093
            ],
            [
              -73.3050499,
              6.3478083
            ],
            [
              -73.3051571,
              6.3479327
            ],
            [
              -73.3052448,
              6.3480702
            ],
            [
              -73.305323,
              6.348165
            ],
            [
              -73.3053852,
              6.3482698
            ],
            [
              -73.3054528,
              6.3483979
            ],
            [
              -73.3055148,
              6.3485294
            ],
            [
              -73.3056165,
              6.3487706
            ],
            [
              -73.3057176,
              6.3490107
            ],
            [
              -73.3058008,
              6.349193
            ],
            [
              -73.305887,
              6.3493645
            ],
            [
              -73.3059786,
              6.3495338
            ],
            [
              -73.3062989,
              6.3500927
            ],
            [
              -73.306446,
              6.3503695
            ],
            [
              -73.3065163,
              6.3505129
            ],
            [
              -73.3066444,
              6.3508012
            ],
            [
              -73.3067022,
              6.350946
            ],
            [
              -73.3067709,
              6.3511345
            ],
            [
              -73.3068546,
              6.3513973
            ],
            [
              -73.3069,
              6.3515626
            ],
            [
              -73.3069404,
              6.3517294
            ],
            [
              -73.3069834,
              6.3519343
            ],
            [
              -73.3070207,
              6.3521419
            ],
            [
              -73.307053,
              6.3523528
            ],
            [
              -73.3071062,
              6.3527744
            ],
            [
              -73.3071928,
              6.3535276
            ],
            [
              -73.30725,
              6.3539236
            ],
            [
              -73.3073238,
              6.3543354
            ],
            [
              -73.3073668,
              6.3545452
            ],
            [
              -73.3074457,
              6.3548872
            ],
            [
              -73.3075306,
              6.3552037
            ],
            [
              -73.3075857,
              6.3553874
            ],
            [
              -73.3076563,
              6.3556025
            ],
            [
              -73.3077255,
              6.3557958
            ],
            [
              -73.3078491,
              6.3561103
            ],
            [
              -73.3082001,
              6.3569154
            ],
            [
              -73.3083421,
              6.3572567
            ],
            [
              -73.3084257,
              6.3574682
            ],
            [
              -73.3086629,
              6.3581027
            ],
            [
              -73.3087987,
              6.3584841
            ],
            [
              -73.3089041,
              6.3587929
            ],
            [
              -73.3092051,
              6.3590647
            ],
            [
              -73.3123975,
              6.3613671
            ],
            [
              -73.3129284,
              6.3617453
            ],
            [
              -73.3134688,
              6.3621154
            ],
            [
              -73.3136521,
              6.3622343
            ],
            [
              -73.3138378,
              6.3623494
            ],
            [
              -73.3140308,
              6.3624615
            ],
            [
              -73.3142273,
              6.3625673
            ],
            [
              -73.3144276,
              6.3626655
            ],
            [
              -73.3146324,
              6.3627541
            ],
            [
              -73.3148096,
              6.3628195
            ],
            [
              -73.3149902,
              6.3628759
            ],
            [
              -73.3151551,
              6.3629186
            ],
            [
              -73.3153223,
              6.3629526
            ],
            [
              -73.315492,
              6.3629767
            ],
            [
              -73.3156684,
              6.3629894
            ],
            [
              -73.3158469,
              6.3629888
            ],
            [
              -73.3160391,
              6.3629726
            ],
            [
              -73.3162323,
              6.3629404
            ],
            [
              -73.3164242,
              6.3628931
            ],
            [
              -73.3166158,
              6.3628321
            ],
            [
              -73.3168063,
              6.3627589
            ],
            [
              -73.3169944,
              6.3626749
            ],
            [
              -73.3171741,
              6.3625837
            ],
            [
              -73.3173479,
              6.3624864
            ],
            [
              -73.3175131,
              6.3623869
            ],
            [
              -73.3176652,
              6.3622896
            ],
            [
              -73.3179751,
              6.3620817
            ],
            [
              -73.3182316,
              6.3619043
            ],
            [
              -73.3183875,
              6.3618006
            ],
            [
              -73.3185981,
              6.3616711
            ],
            [
              -73.3187393,
              6.3615917
            ],
            [
              -73.3188839,
              6.3615174
            ],
            [
              -73.319032,
              6.3614499
            ],
            [
              -73.3191812,
              6.3613917
            ],
            [
              -73.3192989,
              6.3613537
            ],
            [
              -73.3194165,
              6.3613237
            ],
            [
              -73.3195986,
              6.3612949
            ],
            [
              -73.3197784,
              6.3612889
            ],
            [
              -73.3199721,
              6.3613095
            ],
            [
              -73.3201594,
              6.3613559
            ],
            [
              -73.32028,
              6.3613998
            ],
            [
              -73.3203972,
              6.3614527
            ],
            [
              -73.3205742,
              6.3615506
            ],
            [
              -73.3207428,
              6.3616636
            ],
            [
              -73.3209025,
              6.3617891
            ],
            [
              -73.3210567,
              6.3619288
            ],
            [
              -73.321351,
              6.3622213
            ],
            [
              -73.3215021,
              6.3623615
            ],
            [
              -73.3215994,
              6.3624409
            ],
            [
              -73.3217011,
              6.3625144
            ],
            [
              -73.3218522,
              6.3626078
            ],
            [
              -73.3220106,
              6.3626906
            ],
            [
              -73.3221892,
              6.3627704
            ],
            [
              -73.3223732,
              6.3628409
            ],
            [
              -73.3225525,
              6.3629003
            ],
            [
              -73.3227348,
              6.3629537
            ],
            [
              -73.3231056,
              6.3630461
            ],
            [
              -73.3238764,
              6.3632121
            ],
            [
              -73.3240683,
              6.3632599
            ],
            [
              -73.3242581,
              6.3633138
            ],
            [
              -73.3244615,
              6.3633814
            ],
            [
              -73.3247224,
              6.3634829
            ],
            [
              -73.3249111,
              6.3635667
            ],
            [
              -73.3250962,
              6.3636582
            ],
            [
              -73.3252578,
              6.3637464
            ],
            [
              -73.3254164,
              6.3638401
            ],
            [
              -73.3255726,
              6.3639385
            ],
            [
              -73.3257263,
              6.3640409
            ],
            [
              -73.3258778,
              6.3641471
            ],
            [
              -73.3261889,
              6.3643815
            ],
            [
              -73.3263414,
              6.3645031
            ],
            [
              -73.3266411,
              6.3647533
            ],
            [
              -73.327023,
              6.365093
            ],
            [
              -73.3272495,
              6.3653038
            ],
            [
              -73.3274524,
              6.3654992
            ],
            [
              -73.3278239,
              6.3658711
            ],
            [
              -73.32811,
              6.3661672
            ],
            [
              -73.3284044,
              6.3664795
            ],
            [
              -73.3288093,
              6.3669242
            ],
            [
              -73.3291921,
              6.3673648
            ],
            [
              -73.3294425,
              6.3676696
            ],
            [
              -73.3296876,
              6.3679863
            ],
            [
              -73.3299253,
              6.3683171
            ],
            [
              -73.33004,
              6.3684891
            ],
            [
              -73.3301431,
              6.368653
            ],
            [
              -73.3305467,
              6.369339
            ],
            [
              -73.3307667,
              6.3697044
            ],
            [
              -73.331094,
              6.3702152
            ],
            [
              -73.3313976,
              6.3706476
            ],
            [
              -73.3319888,
              6.3714623
            ],
            [
              -73.3324447,
              6.3710873
            ],
            [
              -73.3328894,
              6.370756
            ],
            [
              -73.3347933,
              6.3694684
            ],
            [
              -73.3355678,
              6.3688963
            ],
            [
              -73.3359521,
              6.3685757
            ],
            [
              -73.3362836,
              6.3682694
            ],
            [
              -73.3365735,
              6.367972
            ],
            [
              -73.3370184,
              6.367444
            ],
            [
              -73.3373848,
              6.3669234
            ],
            [
              -73.3375778,
              6.3666109
            ],
            [
              -73.3379098,
              6.3660053
            ],
            [
              -73.3382686,
              6.3652599
            ],
            [
              -73.3389253,
              6.3637787
            ],
            [
              -73.3394722,
              6.3625986
            ],
            [
              -73.3400825,
              6.3614074
            ],
            [
              -73.3404998,
              6.3606702
            ],
            [
              -73.3409402,
              6.3599547
            ],
            [
              -73.3414025,
              6.3592659
            ],
            [
              -73.3418853,
              6.3586079
            ],
            [
              -73.3423862,
              6.3579844
            ],
            [
              -73.3429037,
              6.3573973
            ],
            [
              -73.3434355,
              6.3568485
            ],
            [
              -73.3439795,
              6.356339
            ],
            [
              -73.3447403,
              6.3557056
            ],
            [
              -73.3455145,
              6.3551454
            ],
            [
              -73.346298,
              6.3546543
            ],
            [
              -73.3470809,
              6.3542289
            ],
            [
              -73.3475572,
              6.3539973
            ],
            [
              -73.3486714,
              6.3535125
            ],
            [
              -73.350194,
              6.3528919
            ],
            [
              -73.3506354,
              6.3527014
            ],
            [
              -73.3513823,
              6.3523507
            ],
            [
              -73.3522766,
              6.3518655
            ],
            [
              -73.3528386,
              6.3515165
            ],
            [
              -73.3535505,
              6.3510169
            ],
            [
              -73.354225,
              6.3504734
            ],
            [
              -73.354848,
              6.3498964
            ],
            [
              -73.3554111,
              6.3492958
            ],
            [
              -73.3559071,
              6.3486842
            ],
            [
              -73.3563371,
              6.3480679
            ],
            [
              -73.3567026,
              6.347455
            ],
            [
              -73.3568625,
              6.3471516
            ],
            [
              -73.3570079,
              6.3468512
            ],
            [
              -73.3572255,
              6.3463459
            ],
            [
              -73.3574082,
              6.3458527
            ],
            [
              -73.3575613,
              6.3453722
            ],
            [
              -73.3577732,
              6.3445676
            ],
            [
              -73.3581446,
              6.3429416
            ],
            [
              -73.3583118,
              6.3423735
            ],
            [
              -73.3584886,
              6.3418919
            ],
            [
              -73.3588016,
              6.341215
            ],
            [
              -73.3590192,
              6.3408243
            ],
            [
              -73.3593222,
              6.3403404
            ],
            [
              -73.3601201,
              6.3391262
            ],
            [
              -73.3603682,
              6.3386837
            ],
            [
              -73.3605479,
              6.338306
            ],
            [
              -73.360782,
              6.337701
            ],
            [
              -73.3612096,
              6.3363744
            ],
            [
              -73.3614015,
              6.3358387
            ],
            [
              -73.3616935,
              6.3351264
            ],
            [
              -73.3623675,
              6.3336628
            ],
            [
              -73.3626486,
              6.3330096
            ],
            [
              -73.3628765,
              6.3323735
            ],
            [
              -73.3630289,
              6.3317941
            ],
            [
              -73.3631114,
              6.3312897
            ],
            [
              -73.3631468,
              6.3307071
            ],
            [
              -73.3631148,
              6.3300664
            ],
            [
              -73.3630471,
              6.3295887
            ],
            [
              -73.3629363,
              6.3290694
            ],
            [
              -73.3627699,
              6.3284753
            ],
            [
              -73.3625513,
              6.3278271
            ],
            [
              -73.3615843,
              6.3253089
            ],
            [
              -73.361402,
              6.3247786
            ],
            [
              -73.361227,
              6.3242073
            ],
            [
              -73.3610887,
              6.3236824
            ],
            [
              -73.3609967,
              6.323274
            ],
            [
              -73.3608608,
              6.3225102
            ],
            [
              -73.3607729,
              6.3217856
            ],
            [
              -73.3607246,
              6.3210826
            ],
            [
              -73.3607124,
              6.3204049
            ],
            [
              -73.3607335,
              6.3197554
            ],
            [
              -73.3607853,
              6.3191365
            ],
            [
              -73.3608653,
              6.3185492
            ],
            [
              -73.3609712,
              6.3179948
            ],
            [
              -73.3611007,
              6.3174735
            ],
            [
              -73.3612507,
              6.3169876
            ],
            [
              -73.3614194,
              6.316534
            ],
            [
              -73.3616047,
              6.3161116
            ],
            [
              -73.3618045,
              6.3157189
            ],
            [
              -73.3620144,
              6.3153584
            ],
            [
              -73.3622354,
              6.3150228
            ],
            [
              -73.3624659,
              6.3147105
            ],
            [
              -73.3627335,
              6.3143864
            ],
            [
              -73.3631314,
              6.3139634
            ],
            [
              -73.363591,
              6.3135424
            ],
            [
              -73.364113,
              6.3131311
            ],
            [
              -73.3646935,
              6.312739
            ],
            [
              -73.3653436,
              6.3123656
            ],
            [
              -73.3660324,
              6.3120333
            ],
            [
              -73.3667181,
              6.3117588
            ],
            [
              -73.3673297,
              6.3115571
            ],
            [
              -73.3679423,
              6.3113925
            ],
            [
              -73.3685878,
              6.3112564
            ],
            [
              -73.3692659,
              6.3111516
            ],
            [
              -73.3699757,
              6.3110804
            ],
            [
              -73.3707161,
              6.3110451
            ],
            [
              -73.3714837,
              6.3110474
            ],
            [
              -73.3722749,
              6.3110889
            ],
            [
              -73.373085,
              6.3111703
            ],
            [
              -73.3739155,
              6.3112931
            ],
            [
              -73.3747516,
              6.3114563
            ],
            [
              -73.3749665,
              6.3115086
            ],
            [
              -73.3756186,
              6.3116675
            ],
            [
              -73.3764519,
              6.3119115
            ],
            [
              -73.3772015,
              6.312167
            ],
            [
              -73.3771344,
              6.311867
            ],
            [
              -73.3771303,
              6.3115776
            ],
            [
              -73.377158,
              6.310956
            ],
            [
              -73.3772286,
              6.3101875
            ],
            [
              -73.377345,
              6.3093434
            ],
            [
              -73.3773919,
              6.3090932
            ],
            [
              -73.3775089,
              6.3084683
            ],
            [
              -73.3777459,
              6.307502
            ],
            [
              -73.3780437,
              6.3065542
            ],
            [
              -73.3782914,
              6.3059049
            ],
            [
              -73.3785257,
              6.3053709
            ],
            [
              -73.3787361,
              6.3049404
            ],
            [
              -73.3789773,
              6.3044899
            ],
            [
              -73.379254,
              6.3040151
            ],
            [
              -73.3798699,
              6.303064
            ],
            [
              -73.3812277,
              6.3011503
            ],
            [
              -73.3816976,
              6.300448
            ],
            [
              -73.3820172,
              6.2999186
            ],
            [
              -73.382265,
              6.2994526
            ],
            [
              -73.3824787,
              6.2989787
            ],
            [
              -73.3826351,
              6.2985481
            ],
            [
              -73.3827443,
              6.2981515
            ],
            [
              -73.382814,
              6.2977817
            ],
            [
              -73.3828399,
              6.2975653
            ],
            [
              -73.3828542,
              6.2973543
            ],
            [
              -73.3828502,
              6.2969413
            ],
            [
              -73.382807,
              6.2965517
            ],
            [
              -73.3827586,
              6.2963009
            ],
            [
              -73.3826245,
              6.2958328
            ],
            [
              -73.3823963,
              6.2952939
            ],
            [
              -73.3822362,
              6.2950009
            ],
            [
              -73.38209,
              6.2947703
            ],
            [
              -73.381755,
              6.2943301
            ],
            [
              -73.3813606,
              6.2939167
            ],
            [
              -73.3808978,
              6.2935257
            ],
            [
              -73.3806375,
              6.293338
            ],
            [
              -73.3800512,
              6.2929786
            ],
            [
              -73.3796362,
              6.2927743
            ],
            [
              -73.3793658,
              6.2926412
            ],
            [
              -73.3785608,
              6.2923254
            ],
            [
              -73.3776337,
              6.2920364
            ],
            [
              -73.3765768,
              6.2917709
            ],
            [
              -73.3733217,
              6.2910973
            ],
            [
              -73.3723995,
              6.2908785
            ],
            [
              -73.3719397,
              6.2907541
            ],
            [
              -73.3711535,
              6.2905076
            ],
            [
              -73.3707139,
              6.290346
            ],
            [
              -73.3703096,
              6.2901784
            ],
            [
              -73.3699367,
              6.2900044
            ],
            [
              -73.3695925,
              6.2898244
            ],
            [
              -73.3692738,
              6.2896381
            ],
            [
              -73.3687055,
              6.2892484
            ],
            [
              -73.3682244,
              6.2888449
            ],
            [
              -73.3680117,
              6.2886389
            ],
            [
              -73.367623,
              6.2882079
            ],
            [
              -73.3672559,
              6.2877203
            ],
            [
              -73.3668982,
              6.2871487
            ],
            [
              -73.3665964,
              6.2865753
            ],
            [
              -73.3662885,
              6.2858922
            ],
            [
              -73.3660056,
              6.2851782
            ],
            [
              -73.3652998,
              6.2832382
            ],
            [
              -73.3648748,
              6.2821894
            ],
            [
              -73.3646279,
              6.2816611
            ],
            [
              -73.3643811,
              6.2811902
            ],
            [
              -73.3641311,
              6.2807644
            ],
            [
              -73.3637161,
              6.2801513
            ],
            [
              -73.3633257,
              6.2796572
            ],
            [
              -73.3630858,
              6.2793846
            ],
            [
              -73.3625736,
              6.2788629
            ],
            [
              -73.3619829,
              6.278341
            ],
            [
              -73.3613235,
              6.2778338
            ],
            [
              -73.3609478,
              6.277573
            ],
            [
              -73.360715,
              6.2774279
            ],
            [
              -73.3601216,
              6.2770581
            ],
            [
              -73.3596706,
              6.2768062
            ],
            [
              -73.3589586,
              6.2764566
            ]
          ]
        ]
      },
      "id": "relation/1423471"
    }
  ]
}