{
  "type": "FeatureCollection",
  "features": [
    {
      "type": "Feature",
      "properties": {
        "@id": "relation/1315081",
        "DANE:area": "150.00",
        "DANE:departamento": "68",
        "admin_level": "6",
        "boundary": "administrative",
        "clcfile": "MunicipiosDepartamentos/ADM_Municipios.shp",
        "divipola": "68679",
        "entidad_te": "Cabecera Municipal",
        "is_in:country": "Colombia",
        "is_in:state": "Santander",
        "name": "San Gil",
        "objectid": "3714",
        "source": "OCHA - SIGOT",
        "type": "boundary",
        "wikidata": "Q1294128",
        "wikipedia": "es:San Gil (Colombia)"
      },
      "geometry": {
        "type": "Polygon",
        "coordinates": [
          [
            [
              -73.0766234,
              6.4818361
            ],
            [
              -73.0723207,
              6.4834998
            ],
            [
              -73.0714912,
              6.4845808
            ],
            [
              -73.0715099,
              6.4854948
            ],
            [
              -73.0716639,
              6.4863866
            ],
            [
              -73.0718136,
              6.4872783
            ],
            [
              -73.0718231,
              6.4881827
            ],
            [
              -73.0713926,
              6.4889494
            ],
            [
              -73.070612,
              6.4894092
            ],
            [
              -73.0698223,
              6.4898497
            ],
            [
              -73.0692388,
              6.4912852
            ],
            [
              -73.0689006,
              6.4921247
            ],
            [
              -73.0685585,
              6.4929621
            ],
            [
              -73.0682078,
              6.4937948
            ],
            [
              -73.0678414,
              6.4946188
            ],
            [
              -73.0673081,
              6.4953509
            ],
            [
              -73.0667954,
              6.4960961
            ],
            [
              -73.0664461,
              6.4969274
            ],
            [
              -73.0663264,
              6.4978224
            ],
            [
              -73.0663062,
              6.4987264
            ],
            [
              -73.0662402,
              6.4996292
            ],
            [
              -73.0659481,
              6.5004814
            ],
            [
              -73.0653781,
              6.5011794
            ],
            [
              -73.0647128,
              6.5017913
            ],
            [
              -73.0640209,
              6.5023732
            ],
            [
              -73.0633478,
              6.5029873
            ],
            [
              -73.0625242,
              6.5033361
            ],
            [
              -73.0616714,
              6.5036339
            ],
            [
              -73.0608113,
              6.5039188
            ],
            [
              -73.059948,
              6.5041981
            ],
            [
              -73.0590855,
              6.5044789
            ],
            [
              -73.0582277,
              6.5047683
            ],
            [
              -73.0573786,
              6.5050734
            ],
            [
              -73.0565617,
              6.5054362
            ],
            [
              -73.0558792,
              6.5060427
            ],
            [
              -73.0551329,
              6.5065531
            ],
            [
              -73.054268,
              6.5067919
            ],
            [
              -73.0533635,
              6.5068133
            ],
            [
              -73.0524742,
              6.5069324
            ],
            [
              -73.0518841,
              6.5075914
            ],
            [
              -73.0516791,
              6.508479
            ],
            [
              -73.0515707,
              6.5093801
            ],
            [
              -73.051082,
              6.5101374
            ],
            [
              -73.0504486,
              6.5107823
            ],
            [
              -73.0497842,
              6.5113954
            ],
            [
              -73.0491018,
              6.5119885
            ],
            [
              -73.0483836,
              6.5125391
            ],
            [
              -73.0475685,
              6.5129244
            ],
            [
              -73.046766,
              6.5133379
            ],
            [
              -73.0460817,
              6.5139307
            ],
            [
              -73.0456058,
              6.5146929
            ],
            [
              -73.0453646,
              6.5155641
            ],
            [
              -73.0451033,
              6.5164137
            ],
            [
              -73.0447045,
              6.5171993
            ],
            [
              -73.0444347,
              6.5180612
            ],
            [
              -73.044176,
              6.5189299
            ],
            [
              -73.0439154,
              6.5197986
            ],
            [
              -73.0436399,
              6.5206605
            ],
            [
              -73.0432764,
              6.5214834
            ],
            [
              -73.042833,
              6.5222732
            ],
            [
              -73.0423847,
              6.5230583
            ],
            [
              -73.0418477,
              6.5237849
            ],
            [
              -73.0412332,
              6.5244483
            ],
            [
              -73.0405964,
              6.5250901
            ],
            [
              -73.0399406,
              6.5257123
            ],
            [
              -73.0392715,
              6.5263202
            ],
            [
              -73.0385912,
              6.5269155
            ],
            [
              -73.0379062,
              6.5275056
            ],
            [
              -73.0371978,
              6.5280683
            ],
            [
              -73.0363747,
              6.5284398
            ],
            [
              -73.0355454,
              6.5288
            ],
            [
              -73.0347052,
              6.5291341
            ],
            [
              -73.0338225,
              6.5293227
            ],
            [
              -73.0329232,
              6.5294144
            ],
            [
              -73.0320206,
              6.5294635
            ],
            [
              -73.031117,
              6.52949
            ],
            [
              -73.0302133,
              6.5295133
            ],
            [
              -73.0302051,
              6.5295139
            ],
            [
              -73.02936,
              6.5303003
            ],
            [
              -73.0286053,
              6.5316357
            ],
            [
              -73.0287677,
              6.5338503
            ],
            [
              -73.0290965,
              6.5364412
            ],
            [
              -73.0293643,
              6.5374027
            ],
            [
              -73.0300597,
              6.5380899
            ],
            [
              -73.0310673,
              6.5387925
            ],
            [
              -73.0320645,
              6.5395879
            ],
            [
              -73.03277,
              6.5400014
            ],
            [
              -73.0334078,
              6.5400921
            ],
            [
              -73.0345637,
              6.539872
            ],
            [
              -73.0351929,
              6.5395209
            ],
            [
              -73.0360633,
              6.5393147
            ],
            [
              -73.0367783,
              6.5392535
            ],
            [
              -73.03763,
              6.5393685
            ],
            [
              -73.0384495,
              6.5396852
            ],
            [
              -73.0391508,
              6.5398889
            ],
            [
              -73.0398381,
              6.5401547
            ],
            [
              -73.0409177,
              6.5406895
            ],
            [
              -73.042764,
              6.5417069
            ],
            [
              -73.0435723,
              6.5424558
            ],
            [
              -73.0446081,
              6.5432068
            ],
            [
              -73.0454392,
              6.5437313
            ],
            [
              -73.0474169,
              6.544215
            ],
            [
              -73.0497609,
              6.544895
            ],
            [
              -73.0515116,
              6.5452852
            ],
            [
              -73.0556341,
              6.546716
            ],
            [
              -73.056168,
              6.5470357
            ],
            [
              -73.0568938,
              6.547679
            ],
            [
              -73.0577045,
              6.5484313
            ],
            [
              -73.0584633,
              6.5492337
            ],
            [
              -73.0591568,
              6.5499816
            ],
            [
              -73.059906,
              6.5510084
            ],
            [
              -73.0604322,
              6.5515557
            ],
            [
              -73.0608412,
              6.5522752
            ],
            [
              -73.0615231,
              6.5534663
            ],
            [
              -73.0619018,
              6.5537509
            ],
            [
              -73.0625684,
              6.5540889
            ],
            [
              -73.0633211,
              6.5542672
            ],
            [
              -73.0638645,
              6.5543039
            ],
            [
              -73.0645944,
              6.5544017
            ],
            [
              -73.0649333,
              6.5545937
            ],
            [
              -73.0654238,
              6.5550563
            ],
            [
              -73.0661038,
              6.5553172
            ],
            [
              -73.0665506,
              6.5553343
            ],
            [
              -73.0672759,
              6.5552632
            ],
            [
              -73.0681742,
              6.554794
            ],
            [
              -73.0693795,
              6.5540617
            ],
            [
              -73.0704435,
              6.5532095
            ],
            [
              -73.0708336,
              6.5528045
            ],
            [
              -73.0724178,
              6.5529878
            ],
            [
              -73.0744438,
              6.5533594
            ],
            [
              -73.0764703,
              6.5538575
            ],
            [
              -73.0777396,
              6.5548648
            ],
            [
              -73.0783793,
              6.5566338
            ],
            [
              -73.0801548,
              6.5576391
            ],
            [
              -73.081552,
              6.558133
            ],
            [
              -73.0822538,
              6.5586904
            ],
            [
              -73.0826808,
              6.5593184
            ],
            [
              -73.082871,
              6.5597042
            ],
            [
              -73.0830395,
              6.5602108
            ],
            [
              -73.0830851,
              6.5605963
            ],
            [
              -73.0831,
              6.5627696
            ],
            [
              -73.0832151,
              6.5633959
            ],
            [
              -73.0835051,
              6.5641921
            ],
            [
              -73.0839926,
              6.5650881
            ],
            [
              -73.0841225,
              6.5656885
            ],
            [
              -73.0841452,
              6.5662185
            ],
            [
              -73.0840995,
              6.5664829
            ],
            [
              -73.0840005,
              6.5668206
            ],
            [
              -73.0838246,
              6.5671808
            ],
            [
              -73.0838248,
              6.5676385
            ],
            [
              -73.0838939,
              6.5681449
            ],
            [
              -73.0844732,
              6.5689213
            ],
            [
              -73.0845654,
              6.5691588
            ],
            [
              -73.0849316,
              6.5691573
            ],
            [
              -73.0851903,
              6.5691861
            ],
            [
              -73.0854351,
              6.5693798
            ],
            [
              -73.0856255,
              6.5696695
            ],
            [
              -73.0862132,
              6.5702165
            ],
            [
              -73.0866254,
              6.5704027
            ],
            [
              -73.0870122,
              6.5703906
            ],
            [
              -73.0874677,
              6.5703915
            ],
            [
              -73.0878918,
              6.5703609
            ],
            [
              -73.0881691,
              6.5702768
            ],
            [
              -73.0888551,
              6.5696876
            ],
            [
              -73.0895855,
              6.5691582
            ],
            [
              -73.0903924,
              6.5687495
            ],
            [
              -73.0912202,
              6.5683861
            ],
            [
              -73.0920533,
              6.5680348
            ],
            [
              -73.0928815,
              6.5676724
            ],
            [
              -73.0937103,
              6.5673112
            ],
            [
              -73.0945384,
              6.5669483
            ],
            [
              -73.0953566,
              6.5665638
            ],
            [
              -73.0961602,
              6.5661496
            ],
            [
              -73.0969558,
              6.5657202
            ],
            [
              -73.0977457,
              6.5652804
            ],
            [
              -73.0985319,
              6.564834
            ],
            [
              -73.0993146,
              6.5643816
            ],
            [
              -73.1000957,
              6.5639261
            ],
            [
              -73.1008612,
              6.5634452
            ],
            [
              -73.1016127,
              6.5629427
            ],
            [
              -73.1023682,
              6.562446
            ],
            [
              -73.1031474,
              6.5619863
            ],
            [
              -73.1039907,
              6.5616656
            ],
            [
              -73.1048926,
              6.5617316
            ],
            [
              -73.1064187,
              6.5617482
            ],
            [
              -73.1070381,
              6.5625823
            ],
            [
              -73.1074962,
              6.56336
            ],
            [
              -73.1077886,
              6.5642149
            ],
            [
              -73.1079777,
              6.5650988
            ],
            [
              -73.1080745,
              6.5659975
            ],
            [
              -73.1081112,
              6.566901
            ],
            [
              -73.1081191,
              6.5678051
            ],
            [
              -73.1081086,
              6.5687091
            ],
            [
              -73.1080872,
              6.569613
            ],
            [
              -73.108067,
              6.5705134
            ],
            [
              -73.1080796,
              6.5714386
            ],
            [
              -73.1094425,
              6.5724946
            ],
            [
              -73.1099817,
              6.5732193
            ],
            [
              -73.1103856,
              6.5740287
            ],
            [
              -73.1106952,
              6.574878
            ],
            [
              -73.1109239,
              6.5757526
            ],
            [
              -73.1111104,
              6.5766373
            ],
            [
              -73.1112661,
              6.5775279
            ],
            [
              -73.1113993,
              6.5784221
            ],
            [
              -73.1115165,
              6.5793186
            ],
            [
              -73.1116246,
              6.5802163
            ],
            [
              -73.1117076,
              6.5811165
            ],
            [
              -73.1117545,
              6.5820194
            ],
            [
              -73.1117913,
              6.5829227
            ],
            [
              -73.111837,
              6.5838272
            ],
            [
              -73.1120858,
              6.5846939
            ],
            [
              -73.1119898,
              6.5855355
            ],
            [
              -73.111662,
              6.5863862
            ],
            [
              -73.111393,
              6.5872492
            ],
            [
              -73.1112247,
              6.5881368
            ],
            [
              -73.1111387,
              6.5890372
            ],
            [
              -73.1110167,
              6.5899329
            ],
            [
              -73.1108842,
              6.5908272
            ],
            [
              -73.1107196,
              6.5917172
            ],
            [
              -73.1103974,
              6.5925604
            ],
            [
              -73.1097598,
              6.5931966
            ],
            [
              -73.1089121,
              6.5935179
            ],
            [
              -73.1082477,
              6.5941176
            ],
            [
              -73.1080909,
              6.5949573
            ],
            [
              -73.1085488,
              6.5957514
            ],
            [
              -73.1087819,
              6.5966256
            ],
            [
              -73.1088486,
              6.5975267
            ],
            [
              -73.108693,
              6.5984165
            ],
            [
              -73.1084176,
              6.5992777
            ],
            [
              -73.1080351,
              6.6000982
            ],
            [
              -73.1074644,
              6.6007958
            ],
            [
              -73.106781,
              6.6013876
            ],
            [
              -73.1061023,
              6.6019849
            ],
            [
              -73.1054123,
              6.6025692
            ],
            [
              -73.1047014,
              6.603141
            ],
            [
              -73.1045613,
              6.6040266
            ],
            [
              -73.1047301,
              6.604918
            ],
            [
              -73.1053943,
              6.6055226
            ],
            [
              -73.1061315,
              6.606045
            ],
            [
              -73.1067256,
              6.6067252
            ],
            [
              -73.107129,
              6.6075331
            ],
            [
              -73.1073815,
              6.6084008
            ],
            [
              -73.1074965,
              6.609296
            ],
            [
              -73.1073109,
              6.6101767
            ],
            [
              -73.1069049,
              6.6109856
            ],
            [
              -73.1064274,
              6.6117533
            ],
            [
              -73.105946,
              6.6125187
            ],
            [
              -73.1055288,
              6.61332
            ],
            [
              -73.1051903,
              6.6141586
            ],
            [
              -73.1048793,
              6.6150075
            ],
            [
              -73.1048396,
              6.6151223
            ],
            [
              -73.104426,
              6.6163399
            ],
            [
              -73.1043002,
              6.6167205
            ],
            [
              -73.1040215,
              6.6175806
            ],
            [
              -73.1037409,
              6.61844
            ],
            [
              -73.1034525,
              6.6192969
            ],
            [
              -73.1031511,
              6.6201494
            ],
            [
              -73.1028262,
              6.6209931
            ],
            [
              -73.1024653,
              6.621822
            ],
            [
              -73.1020787,
              6.6226393
            ],
            [
              -73.1016833,
              6.6234524
            ],
            [
              -73.101289,
              6.624266
            ],
            [
              -73.1008938,
              6.6250792
            ],
            [
              -73.1004934,
              6.6258898
            ],
            [
              -73.1000862,
              6.6266971
            ],
            [
              -73.0996696,
              6.6274995
            ],
            [
              -73.0992413,
              6.6282957
            ],
            [
              -73.0987938,
              6.6290814
            ],
            [
              -73.0983266,
              6.6298554
            ],
            [
              -73.0981409,
              6.6301448
            ],
            [
              -73.0984516,
              6.6316143
            ],
            [
              -73.0985623,
              6.6325752
            ],
            [
              -73.0989931,
              6.6334281
            ],
            [
              -73.0991039,
              6.6343891
            ],
            [
              -73.0993215,
              6.6353496
            ],
            [
              -73.0998591,
              6.636202
            ],
            [
              -73.1003963,
              6.6369476
            ],
            [
              -73.1005075,
              6.6380154
            ],
            [
              -73.1009384,
              6.6388682
            ],
            [
              -73.1015824,
              6.6396134
            ],
            [
              -73.1019064,
              6.6404666
            ],
            [
              -73.1023377,
              6.6414263
            ],
            [
              -73.1028754,
              6.6422787
            ],
            [
              -73.1037327,
              6.6429161
            ],
            [
              -73.1044827,
              6.6434472
            ],
            [
              -73.1052332,
              6.6440851
            ],
            [
              -73.1059841,
              6.6448298
            ],
            [
              -73.1065213,
              6.6455753
            ],
            [
              -73.1075901,
              6.6456778
            ],
            [
              -73.1082337,
              6.6463161
            ],
            [
              -73.1090915,
              6.6470603
            ],
            [
              -73.1097356,
              6.6478054
            ],
            [
              -73.1104856,
              6.6483365
            ],
            [
              -73.1113416,
              6.6486534
            ],
            [
              -73.1121989,
              6.6492909
            ],
            [
              -73.1129494,
              6.6499287
            ],
            [
              -73.1129996,
              6.6499785
            ],
            [
              -73.113504,
              6.6500519
            ],
            [
              -73.1143936,
              6.65028
            ],
            [
              -73.1153209,
              6.6502762
            ],
            [
              -73.1162476,
              6.6501178
            ],
            [
              -73.1169017,
              6.6494584
            ],
            [
              -73.1172458,
              6.6485684
            ],
            [
              -73.1177061,
              6.6477552
            ],
            [
              -73.1180888,
              6.646865
            ],
            [
              -73.1182395,
              6.6459372
            ],
            [
              -73.1186224,
              6.6450857
            ],
            [
              -73.1188505,
              6.6441962
            ],
            [
              -73.1193883,
              6.6434213
            ],
            [
              -73.1202744,
              6.6427995
            ],
            [
              -73.1210837,
              6.6422939
            ],
            [
              -73.1217768,
              6.6417116
            ],
            [
              -73.1223534,
              6.6410138
            ],
            [
              -73.1223443,
              6.6388118
            ],
            [
              -73.1221141,
              6.6383331
            ],
            [
              -73.1214923,
              6.6381016
            ],
            [
              -73.1206069,
              6.6376138
            ],
            [
              -73.1194366,
              6.6367335
            ],
            [
              -73.1187023,
              6.6360475
            ],
            [
              -73.1182887,
              6.6355094
            ],
            [
              -73.1178857,
              6.6344785
            ],
            [
              -73.1178536,
              6.6335764
            ],
            [
              -73.1179582,
              6.6332196
            ],
            [
              -73.1183541,
              6.6324876
            ],
            [
              -73.1189121,
              6.6316739
            ],
            [
              -73.1196014,
              6.6310206
            ],
            [
              -73.1198279,
              6.6305251
            ],
            [
              -73.1199837,
              6.6300554
            ],
            [
              -73.1200208,
              6.6289691
            ],
            [
              -73.1199618,
              6.6282897
            ],
            [
              -73.1195767,
              6.6262928
            ],
            [
              -73.1192571,
              6.6253823
            ],
            [
              -73.1189483,
              6.623979
            ],
            [
              -73.1187779,
              6.6226754
            ],
            [
              -73.1187312,
              6.6208498
            ],
            [
              -73.1188164,
              6.6197043
            ],
            [
              -73.1188197,
              6.6196317
            ],
            [
              -73.1201181,
              6.6196744
            ],
            [
              -73.120545,
              6.6198029
            ],
            [
              -73.1213231,
              6.6201344
            ],
            [
              -73.1217273,
              6.6203386
            ],
            [
              -73.1223842,
              6.6207965
            ],
            [
              -73.1230928,
              6.6214318
            ],
            [
              -73.1237416,
              6.6219654
            ],
            [
              -73.1243752,
              6.6221949
            ],
            [
              -73.1253897,
              6.6224263
            ],
            [
              -73.1264507,
              6.6226069
            ],
            [
              -73.1278082,
              6.623118
            ],
            [
              -73.1283425,
              6.6232468
            ],
            [
              -73.1304627,
              6.6233051
            ],
            [
              -73.1309443,
              6.6232563
            ],
            [
              -73.131478,
              6.6231318
            ],
            [
              -73.1321567,
              6.6228562
            ],
            [
              -73.1331183,
              6.622354
            ],
            [
              -73.1342856,
              6.6212713
            ],
            [
              -73.1352546,
              6.6204651
            ],
            [
              -73.1359104,
              6.61976
            ],
            [
              -73.1364221,
              6.6193067
            ],
            [
              -73.1371005,
              6.6185756
            ],
            [
              -73.1372537,
              6.618247
            ],
            [
              -73.1375586,
              6.6177673
            ],
            [
              -73.138955,
              6.6162318
            ],
            [
              -73.1394128,
              6.6156247
            ],
            [
              -73.1404271,
              6.6147439
            ],
            [
              -73.1409379,
              6.6142149
            ],
            [
              -73.1413429,
              6.6139885
            ],
            [
              -73.1423801,
              6.6135881
            ],
            [
              -73.1427848,
              6.6135391
            ],
            [
              -73.1437917,
              6.613593
            ],
            [
              -73.1445775,
              6.6134182
            ],
            [
              -73.1450118,
              6.6132687
            ],
            [
              -73.1454925,
              6.6130684
            ],
            [
              -73.1460731,
              6.6126401
            ],
            [
              -73.1469119,
              6.6119104
            ],
            [
              -73.1476439,
              6.6109014
            ],
            [
              -73.1480027,
              6.6100432
            ],
            [
              -73.1484833,
              6.6092609
            ],
            [
              -73.148537,
              6.608957
            ],
            [
              -73.1485449,
              6.6077681
            ],
            [
              -73.148697,
              6.6068077
            ],
            [
              -73.148652,
              6.606125
            ],
            [
              -73.1490554,
              6.604912
            ],
            [
              -73.1495438,
              6.6042563
            ],
            [
              -73.1500017,
              6.6035248
            ],
            [
              -73.1503296,
              6.6028688
            ],
            [
              -73.1504832,
              6.6023088
            ],
            [
              -73.1513709,
              6.6024436
            ],
            [
              -73.1519604,
              6.6017339
            ],
            [
              -73.1525272,
              6.6009802
            ],
            [
              -73.1531058,
              6.6002494
            ],
            [
              -73.1537305,
              6.5996085
            ],
            [
              -73.1541022,
              6.5993534
            ],
            [
              -73.1544359,
              6.5991244
            ],
            [
              -73.1552922,
              6.5989034
            ],
            [
              -73.1562712,
              6.5988936
            ],
            [
              -73.1572681,
              6.5989358
            ],
            [
              -73.1581783,
              6.5988712
            ],
            [
              -73.1588977,
              6.5985413
            ],
            [
              -73.1594139,
              6.5979086
            ],
            [
              -73.1597933,
              6.597079
            ],
            [
              -73.1600789,
              6.5961432
            ],
            [
              -73.160241,
              6.5954869
            ],
            [
              -73.1603012,
              6.595495
            ],
            [
              -73.1605837,
              6.5955305
            ],
            [
              -73.1607587,
              6.5956529
            ],
            [
              -73.1615598,
              6.5963562
            ],
            [
              -73.1620328,
              6.5966532
            ],
            [
              -73.1624066,
              6.5967782
            ],
            [
              -73.1629941,
              6.5968731
            ],
            [
              -73.1637285,
              6.5968765
            ],
            [
              -73.1637875,
              6.5968768
            ],
            [
              -73.1641008,
              6.5967632
            ],
            [
              -73.1644057,
              6.5968791
            ],
            [
              -73.1649024,
              6.596585
            ],
            [
              -73.165497,
              6.596542
            ],
            [
              -73.1665494,
              6.5963902
            ],
            [
              -73.1677383,
              6.5963686
            ],
            [
              -73.1679611,
              6.5963646
            ],
            [
              -73.1689985,
              6.5964151
            ],
            [
              -73.1698763,
              6.5965568
            ],
            [
              -73.1708027,
              6.5968313
            ],
            [
              -73.1722151,
              6.5967545
            ],
            [
              -73.174967,
              6.5965197
            ],
            [
              -73.1780151,
              6.5959116
            ],
            [
              -73.1797235,
              6.5952348
            ],
            [
              -73.18128,
              6.5938146
            ],
            [
              -73.1820921,
              6.5923231
            ],
            [
              -73.1829746,
              6.5898641
            ],
            [
              -73.1836335,
              6.5873316
            ],
            [
              -73.1847398,
              6.5850204
            ],
            [
              -73.1854003,
              6.582845
            ],
            [
              -73.1862565,
              6.5808722
            ],
            [
              -73.1867266,
              6.5797889
            ],
            [
              -73.1885069,
              6.5785166
            ],
            [
              -73.1905857,
              6.5774661
            ],
            [
              -73.1931071,
              6.575521
            ],
            [
              -73.194219,
              6.5745491
            ],
            [
              -73.1957006,
              6.5730547
            ],
            [
              -73.1974074,
              6.5720059
            ],
            [
              -73.1996343,
              6.570806
            ],
            [
              -73.2008956,
              6.5699822
            ],
            [
              -73.2017836,
              6.5688624
            ],
            [
              -73.2028183,
              6.5672212
            ],
            [
              -73.2045959,
              6.5653536
            ],
            [
              -73.2068158,
              6.5625168
            ],
            [
              -73.2089651,
              6.5605733
            ],
            [
              -73.2110441,
              6.5595972
            ],
            [
              -73.2112469,
              6.559571
            ],
            [
              -73.2104337,
              6.5588246
            ],
            [
              -73.2093773,
              6.5578936
            ],
            [
              -73.2091385,
              6.5567252
            ],
            [
              -73.2091271,
              6.5540355
            ],
            [
              -73.2079483,
              6.5518185
            ],
            [
              -73.2064128,
              6.5481997
            ],
            [
              -73.2054684,
              6.5460987
            ],
            [
              -73.2044026,
              6.5429457
            ],
            [
              -73.2041032,
              6.5420452
            ],
            [
              -73.203263,
              6.5422929
            ],
            [
              -73.2023773,
              6.542483
            ],
            [
              -73.2014948,
              6.5422392
            ],
            [
              -73.200756,
              6.5416728
            ],
            [
              -73.2000951,
              6.541125
            ],
            [
              -73.1990604,
              6.5410235
            ],
            [
              -73.1981288,
              6.5409625
            ],
            [
              -73.1972456,
              6.5408166
            ],
            [
              -73.1963508,
              6.5406869
            ],
            [
              -73.1955299,
              6.5409518
            ],
            [
              -73.1946696,
              6.5407634
            ],
            [
              -73.1938006,
              6.5397494
            ],
            [
              -73.1930166,
              6.5396606
            ],
            [
              -73.1919946,
              6.5408405
            ],
            [
              -73.191013,
              6.5414677
            ],
            [
              -73.1903794,
              6.5421196
            ],
            [
              -73.1897712,
              6.5427846
            ],
            [
              -73.1892015,
              6.5434694
            ],
            [
              -73.1889406,
              6.5443646
            ],
            [
              -73.1886555,
              6.5450984
            ],
            [
              -73.1878502,
              6.5453201
            ],
            [
              -73.1869398,
              6.5454304
            ],
            [
              -73.1859854,
              6.5454939
            ],
            [
              -73.185048,
              6.5455753
            ],
            [
              -73.184133,
              6.5456644
            ],
            [
              -73.1832345,
              6.5457841
            ],
            [
              -73.1825329,
              6.5462807
            ],
            [
              -73.1819188,
              6.5469625
            ],
            [
              -73.1812137,
              6.5475273
            ],
            [
              -73.1804668,
              6.5480362
            ],
            [
              -73.179623,
              6.5483476
            ],
            [
              -73.1787195,
              6.5483443
            ],
            [
              -73.1778271,
              6.5481981
            ],
            [
              -73.1769324,
              6.5480701
            ],
            [
              -73.1760311,
              6.5481054
            ],
            [
              -73.1751563,
              6.5483344
            ],
            [
              -73.1743051,
              6.5486396
            ],
            [
              -73.1734516,
              6.5489374
            ],
            [
              -73.1725982,
              6.5492575
            ],
            [
              -73.1717357,
              6.5495666
            ],
            [
              -73.17089,
              6.5499016
            ],
            [
              -73.1700868,
              6.5502996
            ],
            [
              -73.1693492,
              6.5507947
            ],
            [
              -73.1686702,
              6.5513811
            ],
            [
              -73.1680326,
              6.5520294
            ],
            [
              -73.1674202,
              6.5527103
            ],
            [
              -73.1668167,
              6.5533945
            ],
            [
              -73.1662212,
              6.5540738
            ],
            [
              -73.1656551,
              6.5547788
            ],
            [
              -73.1651018,
              6.5554952
            ],
            [
              -73.1645424,
              6.5562062
            ],
            [
              -73.1638227,
              6.5566297
            ],
            [
              -73.1629086,
              6.5565898
            ],
            [
              -73.1620046,
              6.5565751
            ],
            [
              -73.1614265,
              6.5565792
            ],
            [
              -73.1610917,
              6.5565821
            ],
            [
              -73.1601987,
              6.5566403
            ],
            [
              -73.1593161,
              6.556834
            ],
            [
              -73.1584729,
              6.5571625
            ],
            [
              -73.1577966,
              6.5577543
            ],
            [
              -73.1572902,
              6.5585071
            ],
            [
              -73.1565544,
              6.5590094
            ],
            [
              -73.1556877,
              6.5592726
            ],
            [
              -73.1548071,
              6.5594774
            ],
            [
              -73.1539259,
              6.5596738
            ],
            [
              -73.153419,
              6.5589674
            ],
            [
              -73.1534852,
              6.5583696
            ],
            [
              -73.1528648,
              6.5581908
            ],
            [
              -73.1531103,
              6.5577139
            ],
            [
              -73.1532815,
              6.55717
            ],
            [
              -73.1532697,
              6.5568288
            ],
            [
              -73.1531472,
              6.5560539
            ],
            [
              -73.1530398,
              6.5551815
            ],
            [
              -73.1531261,
              6.55416
            ],
            [
              -73.1534846,
              6.553742
            ],
            [
              -73.1526122,
              6.5527265
            ],
            [
              -73.153219,
              6.5515358
            ],
            [
              -73.1533489,
              6.5500721
            ],
            [
              -73.1536047,
              6.5466045
            ],
            [
              -73.1532808,
              6.5461029
            ],
            [
              -73.1519623,
              6.5456234
            ],
            [
              -73.1508574,
              6.545334
            ],
            [
              -73.1496975,
              6.5459866
            ],
            [
              -73.1495435,
              6.545877
            ],
            [
              -73.1496312,
              6.5457294
            ],
            [
              -73.1496547,
              6.5456191
            ],
            [
              -73.1496072,
              6.545555
            ],
            [
              -73.1494585,
              6.5455664
            ],
            [
              -73.1493778,
              6.5455491
            ],
            [
              -73.1493804,
              6.5454518
            ],
            [
              -73.1494479,
              6.5453522
            ],
            [
              -73.149377,
              6.5452438
            ],
            [
              -73.1489252,
              6.5452921
            ],
            [
              -73.1488431,
              6.5456863
            ],
            [
              -73.1487094,
              6.546177
            ],
            [
              -73.1484685,
              6.5465133
            ],
            [
              -73.1482385,
              6.5457557
            ],
            [
              -73.1483833,
              6.5450889
            ],
            [
              -73.1480768,
              6.5447451
            ],
            [
              -73.1476054,
              6.5443589
            ],
            [
              -73.147835,
              6.5438347
            ],
            [
              -73.1473499,
              6.5438528
            ],
            [
              -73.1468915,
              6.5436248
            ],
            [
              -73.146192,
              6.5433367
            ],
            [
              -73.1455335,
              6.5430673
            ],
            [
              -73.1455026,
              6.5429127
            ],
            [
              -73.1461635,
              6.5428753
            ],
            [
              -73.1465979,
              6.5424824
            ],
            [
              -73.1473876,
              6.5417257
            ],
            [
              -73.1469142,
              6.5416643
            ],
            [
              -73.1463506,
              6.5412454
            ],
            [
              -73.145647,
              6.5414143
            ],
            [
              -73.1448503,
              6.5409293
            ],
            [
              -73.1448291,
              6.5400676
            ],
            [
              -73.1451212,
              6.5400399
            ],
            [
              -73.1453206,
              6.5400579
            ],
            [
              -73.1458001,
              6.540078
            ],
            [
              -73.1460714,
              6.5400576
            ],
            [
              -73.1462984,
              6.5401371
            ],
            [
              -73.1466436,
              6.5402302
            ],
            [
              -73.1471313,
              6.5402304
            ],
            [
              -73.1471545,
              6.5401775
            ],
            [
              -73.1471383,
              6.5401029
            ],
            [
              -73.1469382,
              6.5400935
            ],
            [
              -73.1466525,
              6.5400916
            ],
            [
              -73.1465546,
              6.5400572
            ],
            [
              -73.1465206,
              6.5399749
            ],
            [
              -73.1465328,
              6.539953
            ],
            [
              -73.1465219,
              6.5399516
            ],
            [
              -73.1461058,
              6.539891
            ],
            [
              -73.1457635,
              6.5397156
            ],
            [
              -73.1454395,
              6.5393989
            ],
            [
              -73.1444139,
              6.5387315
            ],
            [
              -73.143441,
              6.5380639
            ],
            [
              -73.1428412,
              6.5373573
            ],
            [
              -73.1422757,
              6.5359417
            ],
            [
              -73.1417498,
              6.5350856
            ],
            [
              -73.1414458,
              6.5337435
            ],
            [
              -73.1413284,
              6.5324006
            ],
            [
              -73.1415455,
              6.5307579
            ],
            [
              -73.1413165,
              6.5294901
            ],
            [
              -73.1409027,
              6.5286708
            ],
            [
              -73.1399643,
              6.527294
            ],
            [
              -73.1397739,
              6.5263619
            ],
            [
              -73.1398823,
              6.5255032
            ],
            [
              -73.1403661,
              6.5252027
            ],
            [
              -73.1412249,
              6.5253485
            ],
            [
              -73.1419711,
              6.5253454
            ],
            [
              -73.1425671,
              6.5251191
            ],
            [
              -73.1434977,
              6.5245928
            ],
            [
              -73.1441688,
              6.5244781
            ],
            [
              -73.1445663,
              6.5245586
            ],
            [
              -73.1447437,
              6.5241564
            ],
            [
              -73.1448645,
              6.5237951
            ],
            [
              -73.1449067,
              6.5232129
            ],
            [
              -73.1448039,
              6.5223906
            ],
            [
              -73.1444138,
              6.5210674
            ],
            [
              -73.1438938,
              6.5197266
            ],
            [
              -73.1433894,
              6.5187584
            ],
            [
              -73.1430258,
              6.5177415
            ],
            [
              -73.142655,
              6.516616
            ],
            [
              -73.1425126,
              6.515844
            ],
            [
              -73.1424737,
              6.5144644
            ],
            [
              -73.1426363,
              6.512634
            ],
            [
              -73.1428519,
              6.511773
            ],
            [
              -73.143346,
              6.5098003
            ],
            [
              -73.1437114,
              6.5090784
            ],
            [
              -73.1444094,
              6.5080237
            ],
            [
              -73.1447357,
              6.5072521
            ],
            [
              -73.1449328,
              6.505043
            ],
            [
              -73.1452873,
              6.503509
            ],
            [
              -73.1455041,
              6.5027191
            ],
            [
              -73.1459562,
              6.5021578
            ],
            [
              -73.1463735,
              6.5012854
            ],
            [
              -73.1473419,
              6.4999206
            ],
            [
              -73.1479494,
              6.4985599
            ],
            [
              -73.1483355,
              6.4958265
            ],
            [
              -73.148475,
              6.4950259
            ],
            [
              -73.1485434,
              6.4948042
            ],
            [
              -73.1487889,
              6.494279
            ],
            [
              -73.1488729,
              6.4941417
            ],
            [
              -73.148099,
              6.4940345
            ],
            [
              -73.1471888,
              6.4940382
            ],
            [
              -73.1462784,
              6.4939913
            ],
            [
              -73.1443569,
              6.4939992
            ],
            [
              -73.143396,
              6.4939525
            ],
            [
              -73.1424352,
              6.4939565
            ],
            [
              -73.1414753,
              6.4941627
            ],
            [
              -73.1405148,
              6.4942172
            ],
            [
              -73.139554,
              6.4942211
            ],
            [
              -73.1385939,
              6.4943767
            ],
            [
              -73.1376849,
              6.4946839
            ],
            [
              -73.1368267,
              6.4950414
            ],
            [
              -73.1357157,
              6.4954
            ],
            [
              -73.1348573,
              6.4957069
            ],
            [
              -73.1339482,
              6.4959635
            ],
            [
              -73.1329374,
              6.4961193
            ],
            [
              -73.1319775,
              6.4963255
            ],
            [
              -73.1310677,
              6.4964304
            ],
            [
              -73.1303113,
              6.4969392
            ],
            [
              -73.1294531,
              6.4972967
            ],
            [
              -73.1284931,
              6.4975029
            ],
            [
              -73.1276349,
              6.4978605
            ],
            [
              -73.1268275,
              6.4982684
            ],
            [
              -73.1259185,
              6.4985755
            ],
            [
              -73.1250601,
              6.4988824
            ],
            [
              -73.1241509,
              6.499139
            ],
            [
              -73.1237936,
              6.4993557
            ],
            [
              -73.1237168,
              6.4992848
            ],
            [
              -73.1233502,
              6.4984629
            ],
            [
              -73.1227301,
              6.4978033
            ],
            [
              -73.1221111,
              6.4971444
            ],
            [
              -73.1214988,
              6.4964792
            ],
            [
              -73.1209018,
              6.4958002
            ],
            [
              -73.1203475,
              6.4950861
            ],
            [
              -73.1199016,
              6.4943003
            ],
            [
              -73.1195422,
              6.4934704
            ],
            [
              -73.1191965,
              6.4926351
            ],
            [
              -73.1188579,
              6.4917967
            ],
            [
              -73.1185243,
              6.4909564
            ],
            [
              -73.1181957,
              6.4901142
            ],
            [
              -73.1178686,
              6.4892713
            ],
            [
              -73.1175428,
              6.4884279
            ],
            [
              -73.1172164,
              6.4875848
            ],
            [
              -73.1169099,
              6.4867345
            ],
            [
              -73.1165887,
              6.4858903
            ],
            [
              -73.1162185,
              6.4850642
            ],
            [
              -73.115893,
              6.4842223
            ],
            [
              -73.1156426,
              6.4833538
            ],
            [
              -73.115408,
              6.4824844
            ],
            [
              -73.1143699,
              6.481264
            ],
            [
              -73.1135403,
              6.4809038
            ],
            [
              -73.1126943,
              6.4805855
            ],
            [
              -73.1118371,
              6.4802985
            ],
            [
              -73.1109738,
              6.4800305
            ],
            [
              -73.1101061,
              6.4797732
            ],
            [
              -73.1092165,
              6.4796807
            ],
            [
              -73.1083137,
              6.4797554
            ],
            [
              -73.1074123,
              6.4798235
            ],
            [
              -73.1065122,
              6.4799101
            ],
            [
              -73.1056195,
              6.4800655
            ],
            [
              -73.1048526,
              6.4805233
            ],
            [
              -73.1042033,
              6.4811535
            ],
            [
              -73.1034618,
              6.4816648
            ],
            [
              -73.1026091,
              6.4819696
            ],
            [
              -73.1017347,
              6.4821984
            ],
            [
              -73.1008461,
              6.482364
            ],
            [
              -73.0999501,
              6.482483
            ],
            [
              -73.0990515,
              6.4825818
            ],
            [
              -73.0981521,
              6.4826723
            ],
            [
              -73.097252,
              6.4827546
            ],
            [
              -73.0963512,
              6.4828297
            ],
            [
              -73.0954499,
              6.4828988
            ],
            [
              -73.0945483,
              6.4829635
            ],
            [
              -73.0936464,
              6.4830242
            ],
            [
              -73.0927444,
              6.4830829
            ],
            [
              -73.0909402,
              6.4831978
            ],
            [
              -73.0900382,
              6.4832566
            ],
            [
              -73.0891352,
              6.4832976
            ],
            [
              -73.0882321,
              6.4832693
            ],
            [
              -73.087336,
              6.4831506
            ],
            [
              -73.0864477,
              6.4829831
            ],
            [
              -73.0855627,
              6.4827951
            ],
            [
              -73.0846706,
              6.4827138
            ],
            [
              -73.0837689,
              6.482798
            ],
            [
              -73.0829035,
              6.4825875
            ],
            [
              -73.0822399,
              6.4819693
            ],
            [
              -73.0816175,
              6.4813085
            ],
            [
              -73.0808034,
              6.4809365
            ],
            [
              -73.079899,
              6.4809294
            ],
            [
              -73.0789932,
              6.4809855
            ],
            [
              -73.078131,
              6.4812197
            ],
            [
              -73.0772961,
              6.481576
            ],
            [
              -73.0766234,
              6.4818361
            ]
          ]
        ]
      },
      "id": "relation/1315081"
    }
  ]
}