{
  "type": "FeatureCollection",
  "features": [
    {
      "type": "Feature",
      "properties": {
        "@id": "relation/1315078",
        "DANE:area": "82.00",
        "DANE:departamento": "68",
        "admin_level": "6",
        "boundary": "administrative",
        "clcfile": "MunicipiosDepartamentos/ADM_Municipios.shp",
        "divipola": "68855",
        "entidad_te": "Cabecera Municipal",
        "is_in:country": "Colombia",
        "is_in:state": "Santander",
        "name": "Valle de San José",
        "objectid": "3713",
        "source": "OCHA - SIGOT",
        "type": "boundary",
        "wikidata": "Q1657211",
        "wikipedia": "es:Valle de San José"
      },
      "geometry": {
        "type": "Polygon",
        "coordinates": [
          [
            [
              -73.0766234,
              6.4818361
            ],
            [
              -73.0772961,
              6.481576
            ],
            [
              -73.078131,
              6.4812197
            ],
            [
              -73.0789932,
              6.4809855
            ],
            [
              -73.079899,
              6.4809294
            ],
            [
              -73.0808034,
              6.4809365
            ],
            [
              -73.0816175,
              6.4813085
            ],
            [
              -73.0822399,
              6.4819693
            ],
            [
              -73.0829035,
              6.4825875
            ],
            [
              -73.0837689,
              6.482798
            ],
            [
              -73.0846706,
              6.4827138
            ],
            [
              -73.0855627,
              6.4827951
            ],
            [
              -73.0864477,
              6.4829831
            ],
            [
              -73.087336,
              6.4831506
            ],
            [
              -73.0882321,
              6.4832693
            ],
            [
              -73.0891352,
              6.4832976
            ],
            [
              -73.0900382,
              6.4832566
            ],
            [
              -73.0909402,
              6.4831978
            ],
            [
              -73.0927444,
              6.4830829
            ],
            [
              -73.0936464,
              6.4830242
            ],
            [
              -73.0945483,
              6.4829635
            ],
            [
              -73.0954499,
              6.4828988
            ],
            [
              -73.0963512,
              6.4828297
            ],
            [
              -73.097252,
              6.4827546
            ],
            [
              -73.0981521,
              6.4826723
            ],
            [
              -73.0990515,
              6.4825818
            ],
            [
              -73.0999501,
              6.482483
            ],
            [
              -73.1008461,
              6.482364
            ],
            [
              -73.1017347,
              6.4821984
            ],
            [
              -73.1026091,
              6.4819696
            ],
            [
              -73.1034618,
              6.4816648
            ],
            [
              -73.1042033,
              6.4811535
            ],
            [
              -73.1048526,
              6.4805233
            ],
            [
              -73.1056195,
              6.4800655
            ],
            [
              -73.1065122,
              6.4799101
            ],
            [
              -73.1074123,
              6.4798235
            ],
            [
              -73.1083137,
              6.4797554
            ],
            [
              -73.1092165,
              6.4796807
            ],
            [
              -73.1101061,
              6.4797732
            ],
            [
              -73.1109738,
              6.4800305
            ],
            [
              -73.1118371,
              6.4802985
            ],
            [
              -73.1126943,
              6.4805855
            ],
            [
              -73.1135403,
              6.4809038
            ],
            [
              -73.1143699,
              6.481264
            ],
            [
              -73.115408,
              6.4824844
            ],
            [
              -73.1159313,
              6.4808372
            ],
            [
              -73.1162009,
              6.4799701
            ],
            [
              -73.1164806,
              6.4791086
            ],
            [
              -73.1167809,
              6.4782585
            ],
            [
              -73.1171149,
              6.4774269
            ],
            [
              -73.1176877,
              6.476727
            ],
            [
              -73.1182697,
              6.4760303
            ],
            [
              -73.1188637,
              6.4753489
            ],
            [
              -73.1195635,
              6.4747819
            ],
            [
              -73.1204438,
              6.4747016
            ],
            [
              -73.1213478,
              6.4747122
            ],
            [
              -73.1221558,
              6.474319
            ],
            [
              -73.1228321,
              6.4737336
            ],
            [
              -73.123182,
              6.4728952
            ],
            [
              -73.1234482,
              6.4720307
            ],
            [
              -73.1237164,
              6.4711672
            ],
            [
              -73.124943,
              6.4700898
            ],
            [
              -73.1257497,
              6.4696822
            ],
            [
              -73.1266121,
              6.4694159
            ],
            [
              -73.1275086,
              6.4692956
            ],
            [
              -73.1284031,
              6.4691603
            ],
            [
              -73.1292404,
              6.4688261
            ],
            [
              -73.1299804,
              6.4683072
            ],
            [
              -73.1306634,
              6.4677146
            ],
            [
              -73.1313448,
              6.4671137
            ],
            [
              -73.1322005,
              6.4668671
            ],
            [
              -73.1330753,
              6.4666419
            ],
            [
              -73.1338764,
              6.4663452
            ],
            [
              -73.1345703,
              6.465755
            ],
            [
              -73.1352612,
              6.4651728
            ],
            [
              -73.1359225,
              6.4645564
            ],
            [
              -73.1365868,
              6.4639434
            ],
            [
              -73.1372529,
              6.4633322
            ],
            [
              -73.1379197,
              6.4627218
            ],
            [
              -73.1385845,
              6.4621092
            ],
            [
              -73.1392461,
              6.4614931
            ],
            [
              -73.1399019,
              6.4608709
            ],
            [
              -73.1405503,
              6.460241
            ],
            [
              -73.1411878,
              6.4596
            ],
            [
              -73.1418137,
              6.4589477
            ],
            [
              -73.1424241,
              6.4582809
            ],
            [
              -73.1430154,
              6.4575971
            ],
            [
              -73.1435775,
              6.4568891
            ],
            [
              -73.1438757,
              6.4560518
            ],
            [
              -73.1438301,
              6.4551434
            ],
            [
              -73.1438552,
              6.4542333
            ],
            [
              -73.144446,
              6.4535716
            ],
            [
              -73.1452052,
              6.4530866
            ],
            [
              -73.1458713,
              6.4524697
            ],
            [
              -73.1464637,
              6.4517881
            ],
            [
              -73.146993,
              6.4510579
            ],
            [
              -73.1474985,
              6.4503079
            ],
            [
              -73.1479893,
              6.4495463
            ],
            [
              -73.1484744,
              6.4487816
            ],
            [
              -73.1489386,
              6.4480015
            ],
            [
              -73.1493583,
              6.447186
            ],
            [
              -73.1498086,
              6.4463988
            ],
            [
              -73.1503683,
              6.445707
            ],
            [
              -73.1510261,
              6.4450986
            ],
            [
              -73.1517322,
              6.4445313
            ],
            [
              -73.1524652,
              6.4439879
            ],
            [
              -73.1532037,
              6.4434513
            ],
            [
              -73.1539261,
              6.4429046
            ],
            [
              -73.154465,
              6.4422485
            ],
            [
              -73.1545751,
              6.4413485
            ],
            [
              -73.1546882,
              6.4404514
            ],
            [
              -73.1549116,
              6.4386567
            ],
            [
              -73.1550242,
              6.4377595
            ],
            [
              -73.1551392,
              6.4368626
            ],
            [
              -73.1552576,
              6.4359663
            ],
            [
              -73.1553806,
              6.4350707
            ],
            [
              -73.1555096,
              6.434176
            ],
            [
              -73.1556469,
              6.4332826
            ],
            [
              -73.1557945,
              6.4323907
            ],
            [
              -73.1559502,
              6.4315001
            ],
            [
              -73.1561111,
              6.4306104
            ],
            [
              -73.156438,
              6.4288315
            ],
            [
              -73.1565986,
              6.4279416
            ],
            [
              -73.156752,
              6.4270506
            ],
            [
              -73.1568346,
              6.4260953
            ],
            [
              -73.156841,
              6.4250675
            ],
            [
              -73.1571432,
              6.4243198
            ],
            [
              -73.1578593,
              6.4239701
            ],
            [
              -73.1582798,
              6.4238565
            ],
            [
              -73.1582468,
              6.4235963
            ],
            [
              -73.1582442,
              6.4233489
            ],
            [
              -73.1582719,
              6.4231145
            ],
            [
              -73.15833,
              6.422893
            ],
            [
              -73.158392,
              6.4227387
            ],
            [
              -73.1584665,
              6.4225994
            ],
            [
              -73.1587954,
              6.4221958
            ],
            [
              -73.1589071,
              6.4220235
            ],
            [
              -73.159005,
              6.4218407
            ],
            [
              -73.1590928,
              6.421638
            ],
            [
              -73.1591662,
              6.4214224
            ],
            [
              -73.1592255,
              6.4211929
            ],
            [
              -73.1592713,
              6.4209479
            ],
            [
              -73.1593142,
              6.4205611
            ],
            [
              -73.1593309,
              6.4201238
            ],
            [
              -73.1593231,
              6.4196249
            ],
            [
              -73.1592606,
              6.4181103
            ],
            [
              -73.1592685,
              6.4176372
            ],
            [
              -73.1593029,
              6.4172222
            ],
            [
              -73.1593583,
              6.4168798
            ],
            [
              -73.1594532,
              6.4164887
            ],
            [
              -73.1595842,
              6.4160566
            ],
            [
              -73.1600085,
              6.4147838
            ],
            [
              -73.160117,
              6.4143769
            ],
            [
              -73.1601888,
              6.4140085
            ],
            [
              -73.1602205,
              6.4137477
            ],
            [
              -73.1602356,
              6.4134757
            ],
            [
              -73.1602239,
              6.4123485
            ],
            [
              -73.1602679,
              6.4111252
            ],
            [
              -73.1603467,
              6.4099688
            ],
            [
              -73.1604615,
              6.4088149
            ],
            [
              -73.1606223,
              6.4075955
            ],
            [
              -73.1608235,
              6.4063788
            ],
            [
              -73.1610651,
              6.4051649
            ],
            [
              -73.1611612,
              6.4033828
            ],
            [
              -73.1611093,
              6.4034262
            ],
            [
              -73.1610289,
              6.4034354
            ],
            [
              -73.1608197,
              6.4034104
            ],
            [
              -73.1605982,
              6.4033434
            ],
            [
              -73.1603585,
              6.4032336
            ],
            [
              -73.160079,
              6.4030591
            ],
            [
              -73.1599341,
              6.4029504
            ],
            [
              -73.1590343,
              6.4021645
            ],
            [
              -73.1588287,
              6.4020045
            ],
            [
              -73.1585035,
              6.4017802
            ],
            [
              -73.1579812,
              6.4014718
            ],
            [
              -73.1574504,
              6.4011934
            ],
            [
              -73.1569138,
              6.4009426
            ],
            [
              -73.1565755,
              6.4008112
            ],
            [
              -73.1562474,
              6.4007159
            ],
            [
              -73.1559519,
              6.4006676
            ],
            [
              -73.1548909,
              6.4006373
            ],
            [
              -73.1544641,
              6.4005978
            ],
            [
              -73.1540064,
              6.4005175
            ],
            [
              -73.1530824,
              6.4002971
            ],
            [
              -73.1526845,
              6.4002166
            ],
            [
              -73.1522837,
              6.4001623
            ],
            [
              -73.1518595,
              6.4001407
            ],
            [
              -73.1516493,
              6.4001447
            ],
            [
              -73.1512346,
              6.4001816
            ],
            [
              -73.150828,
              6.400255
            ],
            [
              -73.1506189,
              6.400307
            ],
            [
              -73.150173,
              6.4004512
            ],
            [
              -73.1499693,
              6.4005326
            ],
            [
              -73.1496235,
              6.4006944
            ],
            [
              -73.1493735,
              6.4008314
            ],
            [
              -73.1489547,
              6.4011015
            ],
            [
              -73.148651,
              6.4013305
            ],
            [
              -73.1482913,
              6.4016344
            ],
            [
              -73.1474426,
              6.4023945
            ],
            [
              -73.1468685,
              6.4028593
            ],
            [
              -73.146289,
              6.4032739
            ],
            [
              -73.1459613,
              6.4034789
            ],
            [
              -73.1451461,
              6.4039245
            ],
            [
              -73.1449177,
              6.404059
            ],
            [
              -73.1446851,
              6.4041753
            ],
            [
              -73.1444481,
              6.4042735
            ],
            [
              -73.1442069,
              6.4043534
            ],
            [
              -73.1439684,
              6.4044133
            ],
            [
              -73.143719,
              6.4044565
            ],
            [
              -73.1434615,
              6.4044826
            ],
            [
              -73.1432006,
              6.404491
            ],
            [
              -73.1429418,
              6.4044817
            ],
            [
              -73.1426888,
              6.4044549
            ],
            [
              -73.1424427,
              6.4044106
            ],
            [
              -73.1421987,
              6.4043484
            ],
            [
              -73.141956,
              6.4042677
            ],
            [
              -73.1417163,
              6.404169
            ],
            [
              -73.1414796,
              6.4040522
            ],
            [
              -73.1412458,
              6.4039174
            ],
            [
              -73.1391641,
              6.4037805
            ],
            [
              -73.1380318,
              6.4035972
            ],
            [
              -73.1367715,
              6.4031879
            ],
            [
              -73.136737,
              6.4031711
            ],
            [
              -73.1364016,
              6.4029561
            ],
            [
              -73.1361134,
              6.4027148
            ],
            [
              -73.1357686,
              6.4023387
            ],
            [
              -73.1349421,
              6.4012285
            ],
            [
              -73.134482,
              6.4006715
            ],
            [
              -73.1341819,
              6.40035
            ],
            [
              -73.1339314,
              6.4001054
            ],
            [
              -73.1333231,
              6.3995804
            ],
            [
              -73.1328526,
              6.3984337
            ],
            [
              -73.132208,
              6.3974747
            ],
            [
              -73.131665,
              6.3965155
            ],
            [
              -73.1309625,
              6.395879
            ],
            [
              -73.1303511,
              6.3952116
            ],
            [
              -73.1297396,
              6.3944834
            ],
            [
              -73.1291889,
              6.3937549
            ],
            [
              -73.1284865,
              6.3931488
            ],
            [
              -73.1278752,
              6.3924815
            ],
            [
              -73.127203,
              6.3918143
            ],
            [
              -73.126622,
              6.3911164
            ],
            [
              -73.1260106,
              6.3904186
            ],
            [
              -73.1253082,
              6.3898125
            ],
            [
              -73.1249419,
              6.38954
            ],
            [
              -73.124515,
              6.3893286
            ],
            [
              -73.1237238,
              6.3893317
            ],
            [
              -73.1231444,
              6.3890296
            ],
            [
              -73.1225949,
              6.3886055
            ],
            [
              -73.1222587,
              6.3882415
            ],
            [
              -73.1217093,
              6.3878479
            ],
            [
              -73.1210688,
              6.3874851
            ],
            [
              -73.1206349,
              6.3874001
            ],
            [
              -73.1201551,
              6.3873061
            ],
            [
              -73.1184484,
              6.3866735
            ],
            [
              -73.1181126,
              6.3863402
            ],
            [
              -73.1179595,
              6.3861883
            ],
            [
              -73.117732,
              6.3860756
            ],
            [
              -73.1168618,
              6.3856447
            ],
            [
              -73.1157966,
              6.3856184
            ],
            [
              -73.1150534,
              6.3858764
            ],
            [
              -73.1145876,
              6.3862881
            ],
            [
              -73.1142866,
              6.3863922
            ],
            [
              -73.1133908,
              6.3867163
            ],
            [
              -73.1124296,
              6.3867201
            ],
            [
              -73.1115987,
              6.3872362
            ],
            [
              -73.1110248,
              6.3879436
            ],
            [
              -73.1103222,
              6.3885233
            ],
            [
              -73.1096199,
              6.3891671
            ],
            [
              -73.1087892,
              6.3897473
            ],
            [
              -73.1080867,
              6.390327
            ],
            [
              -73.1073198,
              6.3908429
            ],
            [
              -73.105787,
              6.392131
            ],
            [
              -73.1050203,
              6.3927109
            ],
            [
              -73.1042534,
              6.3932268
            ],
            [
              -73.1034868,
              6.3938067
            ],
            [
              -73.1025267,
              6.3940669
            ],
            [
              -73.1016308,
              6.3943909
            ],
            [
              -73.1009924,
              6.3949704
            ],
            [
              -73.1000965,
              6.3952944
            ],
            [
              -73.099265,
              6.3956823
            ],
            [
              -73.0984981,
              6.3961982
            ],
            [
              -73.0977955,
              6.3967779
            ],
            [
              -73.0969641,
              6.3971657
            ],
            [
              -73.0961328,
              6.3976177
            ],
            [
              -73.0951093,
              6.3980705
            ],
            [
              -73.094214,
              6.3985227
            ],
            [
              -73.0933825,
              6.3989106
            ],
            [
              -73.0912679,
              6.3989189
            ],
            [
              -73.0903696,
              6.3986019
            ],
            [
              -73.0897261,
              6.3978993
            ],
            [
              -73.0890189,
              6.3973251
            ],
            [
              -73.0886312,
              6.3964933
            ],
            [
              -73.0882433,
              6.3955974
            ],
            [
              -73.0874082,
              6.3950878
            ],
            [
              -73.0862493,
              6.393682
            ],
            [
              -73.0859895,
              6.3927856
            ],
            [
              -73.0856013,
              6.3918256
            ],
            [
              -73.0850219,
              6.3911227
            ],
            [
              -73.0845701,
              6.3902911
            ],
            [
              -73.0840545,
              6.3895239
            ],
            [
              -73.083475,
              6.388821
            ],
            [
              -73.0827039,
              6.3882471
            ],
            [
              -73.0819968,
              6.3876729
            ],
            [
              -73.0803273,
              6.3867819
            ],
            [
              -73.0792996,
              6.3861449
            ],
            [
              -73.078401,
              6.3857638
            ],
            [
              -73.0775027,
              6.3854467
            ],
            [
              -73.0746192,
              6.3854579
            ],
            [
              -73.0736583,
              6.3855258
            ],
            [
              -73.0718666,
              6.3861737
            ],
            [
              -73.0714628,
              6.3867169
            ],
            [
              -73.0712929,
              6.3869452
            ],
            [
              -73.0713004,
              6.3888683
            ],
            [
              -73.0716881,
              6.3897002
            ],
            [
              -73.0723313,
              6.3903387
            ],
            [
              -73.0731658,
              6.3907201
            ],
            [
              -73.0736814,
              6.3914873
            ],
            [
              -73.0740672,
              6.3922011
            ],
            [
              -73.0741798,
              6.3923441
            ],
            [
              -73.0744121,
              6.3926589
            ],
            [
              -73.0745888,
              6.3929076
            ],
            [
              -73.0748156,
              6.3932398
            ],
            [
              -73.0751825,
              6.3938033
            ],
            [
              -73.0759271,
              6.3949826
            ],
            [
              -73.0760501,
              6.39517
            ],
            [
              -73.0762415,
              6.3954488
            ],
            [
              -73.0764409,
              6.3957161
            ],
            [
              -73.0765503,
              6.3958518
            ],
            [
              -73.0767536,
              6.3960836
            ],
            [
              -73.0768464,
              6.3961808
            ],
            [
              -73.0769607,
              6.3962932
            ],
            [
              -73.0770785,
              6.3964008
            ],
            [
              -73.0772337,
              6.3965292
            ],
            [
              -73.0773319,
              6.3966025
            ],
            [
              -73.0774328,
              6.3966716
            ],
            [
              -73.0775348,
              6.3967351
            ],
            [
              -73.0776395,
              6.396794
            ],
            [
              -73.0777422,
              6.3968459
            ],
            [
              -73.0778471,
              6.3968935
            ],
            [
              -73.0780652,
              6.3969775
            ],
            [
              -73.0782527,
              6.3970372
            ],
            [
              -73.0788766,
              6.3972135
            ],
            [
              -73.0790338,
              6.3972647
            ],
            [
              -73.079156,
              6.3973088
            ],
            [
              -73.0792762,
              6.3973568
            ],
            [
              -73.0794075,
              6.3974154
            ],
            [
              -73.0795355,
              6.3974797
            ],
            [
              -73.0796359,
              6.3975362
            ],
            [
              -73.0797336,
              6.3975967
            ],
            [
              -73.0798589,
              6.3976835
            ],
            [
              -73.0799793,
              6.3977769
            ],
            [
              -73.0801282,
              6.3979073
            ],
            [
              -73.0802674,
              6.3980472
            ],
            [
              -73.0802588,
              6.3982735
            ],
            [
              -73.0802588,
              6.4032203
            ],
            [
              -73.0803752,
              6.4038605
            ],
            [
              -73.0804334,
              6.4046753
            ],
            [
              -73.080026,
              6.4055482
            ],
            [
              -73.079444,
              6.4060429
            ],
            [
              -73.078542,
              6.4068577
            ],
            [
              -73.0776108,
              6.4077306
            ],
            [
              -73.0768251,
              6.4088073
            ],
            [
              -73.0762432,
              6.4097094
            ],
            [
              -73.0760686,
              6.4106114
            ],
            [
              -73.0760686,
              6.4113098
            ],
            [
              -73.0760513,
              6.4116806
            ],
            [
              -73.0760644,
              6.4125856
            ],
            [
              -73.076085,
              6.4134912
            ],
            [
              -73.0760795,
              6.4143951
            ],
            [
              -73.0760205,
              6.4152962
            ],
            [
              -73.0759577,
              6.4162057
            ],
            [
              -73.0759,
              6.4171219
            ],
            [
              -73.075834,
              6.4180382
            ],
            [
              -73.0757463,
              6.4189483
            ],
            [
              -73.0756235,
              6.4198457
            ],
            [
              -73.0754523,
              6.4207239
            ],
            [
              -73.0752192,
              6.4215765
            ],
            [
              -73.0748719,
              6.4223883
            ],
            [
              -73.0743895,
              6.4231533
            ],
            [
              -73.0738237,
              6.4238837
            ],
            [
              -73.0732264,
              6.4245915
            ],
            [
              -73.072642,
              6.4252803
            ],
            [
              -73.0718226,
              6.4256825
            ],
            [
              -73.0711284,
              6.4262528
            ],
            [
              -73.0706398,
              6.4270144
            ],
            [
              -73.0704313,
              6.4278901
            ],
            [
              -73.0704651,
              6.4287946
            ],
            [
              -73.0704993,
              6.4296978
            ],
            [
              -73.0705049,
              6.430602
            ],
            [
              -73.0704807,
              6.4315057
            ],
            [
              -73.0704422,
              6.432409
            ],
            [
              -73.0704001,
              6.4333122
            ],
            [
              -73.0703402,
              6.4342143
            ],
            [
              -73.0702479,
              6.4351136
            ],
            [
              -73.0700804,
              6.4360012
            ],
            [
              -73.0697621,
              6.4368469
            ],
            [
              -73.0693566,
              6.4376551
            ],
            [
              -73.068928,
              6.4384512
            ],
            [
              -73.0684875,
              6.4392406
            ],
            [
              -73.0675921,
              6.4408114
            ],
            [
              -73.0671499,
              6.4416
            ],
            [
              -73.0667159,
              6.4423932
            ],
            [
              -73.06611,
              6.4437119
            ],
            [
              -73.0657685,
              6.444811
            ],
            [
              -73.0655555,
              6.4456896
            ],
            [
              -73.0653449,
              6.4465689
            ],
            [
              -73.065187,
              6.4474594
            ],
            [
              -73.0651597,
              6.4483623
            ],
            [
              -73.065341,
              6.4492479
            ],
            [
              -73.0655635,
              6.4501242
            ],
            [
              -73.0657983,
              6.4509973
            ],
            [
              -73.0660416,
              6.451868
            ],
            [
              -73.0662903,
              6.4527373
            ],
            [
              -73.0665379,
              6.4536068
            ],
            [
              -73.0667804,
              6.4544778
            ],
            [
              -73.0670138,
              6.4553512
            ],
            [
              -73.0672329,
              6.4562284
            ],
            [
              -73.0674265,
              6.4571117
            ],
            [
              -73.0675265,
              6.4580094
            ],
            [
              -73.0675612,
              6.4589129
            ],
            [
              -73.0676393,
              6.4598132
            ],
            [
              -73.0678002,
              6.4607031
            ],
            [
              -73.0679658,
              6.4615919
            ],
            [
              -73.0681418,
              6.4624787
            ],
            [
              -73.0683406,
              6.4633607
            ],
            [
              -73.0685763,
              6.4642335
            ],
            [
              -73.0688622,
              6.4650913
            ],
            [
              -73.0692308,
              6.4659166
            ],
            [
              -73.0697513,
              6.4666548
            ],
            [
              -73.0703825,
              6.4673039
            ],
            [
              -73.071139,
              6.4678083
            ],
            [
              -73.0721028,
              6.4677321
            ],
            [
              -73.0722471,
              6.4683063
            ],
            [
              -73.0720344,
              6.4692033
            ],
            [
              -73.0718585,
              6.4700903
            ],
            [
              -73.0717487,
              6.4709878
            ],
            [
              -73.071794,
              6.4718892
            ],
            [
              -73.0719361,
              6.4727821
            ],
            [
              -73.0720847,
              6.4736739
            ],
            [
              -73.0722462,
              6.4745635
            ],
            [
              -73.0724301,
              6.4754487
            ],
            [
              -73.0726451,
              6.4763269
            ],
            [
              -73.0728991,
              6.4771945
            ],
            [
              -73.073177,
              6.4780549
            ],
            [
              -73.0733637,
              6.4785954
            ],
            [
              -73.0734722,
              6.4789094
            ],
            [
              -73.0738131,
              6.4797468
            ],
            [
              -73.0742339,
              6.4805466
            ],
            [
              -73.0747882,
              6.4812666
            ],
            [
              -73.0756127,
              6.4815726
            ],
            [
              -73.0766234,
              6.4818361
            ]
          ]
        ]
      },
      "id": "relation/1315078"
    }
  ]
}