{
  "type": "FeatureCollection",
  "features": [
    {
      "type": "Feature",
      "properties": {
        "@id": "relation/1344032",
        "DANE:area": "85.00",
        "DANE:departamento": "68",
        "admin_level": "6",
        "boundary": "administrative",
        "clcfile": "MunicipiosDepartamentos/ADM_Municipios.shp",
        "divipola": "68179",
        "entidad_te": "Cabecera Municipal",
        "is_in:country": "Colombia",
        "is_in:state": "Santander",
        "name": "Chipatá",
        "objectid": "4461",
        "source": "OCHA - SIGOT",
        "type": "boundary",
        "wikidata": "Q2430935",
        "wikipedia": "es:Chipatá"
      },
      "geometry": {
        "type": "Polygon",
        "coordinates": [
          [
            [
              -73.6313313,
              6.0190673
            ],
            [
              -73.6311654,
              6.0190447
            ],
            [
              -73.6305701,
              6.0193686
            ],
            [
              -73.6301431,
              6.0196384
            ],
            [
              -73.6296472,
              6.0199455
            ],
            [
              -73.6291287,
              6.0202423
            ],
            [
              -73.6287008,
              6.0203505
            ],
            [
              -73.6281825,
              6.0204201
            ],
            [
              -73.6279229,
              6.020265
            ],
            [
              -73.627747,
              6.0200671
            ],
            [
              -73.6274197,
              6.019886
            ],
            [
              -73.6270765,
              6.0199027
            ],
            [
              -73.6266721,
              6.0200911
            ],
            [
              -73.6262134,
              6.0204253
            ],
            [
              -73.625878,
              6.0205595
            ],
            [
              -73.6256567,
              6.0206136
            ],
            [
              -73.6254591,
              6.0206575
            ],
            [
              -73.6251079,
              6.0206391
            ],
            [
              -73.6248709,
              6.0205937
            ],
            [
              -73.6246429,
              6.0205381
            ],
            [
              -73.6242613,
              6.0204835
            ],
            [
              -73.6240399,
              6.0205636
            ],
            [
              -73.6238411,
              6.0207262
            ],
            [
              -73.6237495,
              6.020925
            ],
            [
              -73.6239333,
              6.0211253
            ],
            [
              -73.6240935,
              6.0212882
            ],
            [
              -73.6242153,
              6.021451
            ],
            [
              -73.6243755,
              6.0215958
            ],
            [
              -73.6247188,
              6.0215792
            ],
            [
              -73.6249401,
              6.0215703
            ],
            [
              -73.6252222,
              6.0217333
            ],
            [
              -73.6253823,
              6.0219425
            ],
            [
              -73.6254205,
              6.0221686
            ],
            [
              -73.6252375,
              6.0223041
            ],
            [
              -73.6249394,
              6.0223932
            ],
            [
              -73.6245588,
              6.0225375
            ],
            [
              -73.6241849,
              6.0226808
            ],
            [
              -73.6239173,
              6.0227608
            ],
            [
              -73.623696,
              6.0227256
            ],
            [
              -73.6234521,
              6.0227966
            ],
            [
              -73.6232386,
              6.0229772
            ],
            [
              -73.6230249,
              6.0233116
            ],
            [
              -73.6229254,
              6.0235093
            ],
            [
              -73.6228338,
              6.0236946
            ],
            [
              -73.6225829,
              6.0239702
            ],
            [
              -73.6222462,
              6.0242039
            ],
            [
              -73.6220023,
              6.0242489
            ],
            [
              -73.6216512,
              6.0242667
            ],
            [
              -73.6213385,
              6.024193
            ],
            [
              -73.6211637,
              6.0239668
            ],
            [
              -73.6207819,
              6.0241789
            ],
            [
              -73.6205526,
              6.0242997
            ],
            [
              -73.6199653,
              6.0245964
            ],
            [
              -73.6193403,
              6.0248637
            ],
            [
              -73.6189205,
              6.0250997
            ],
            [
              -73.6182867,
              6.025497
            ],
            [
              -73.6178064,
              6.026038
            ],
            [
              -73.6175397,
              6.0263633
            ],
            [
              -73.617334,
              6.0266254
            ],
            [
              -73.6171961,
              6.0267914
            ],
            [
              -73.6169678,
              6.027076
            ],
            [
              -73.6166626,
              6.0274635
            ],
            [
              -73.6164185,
              6.0277978
            ],
            [
              -73.6161743,
              6.0281412
            ],
            [
              -73.6157391,
              6.0287546
            ],
            [
              -73.6153573,
              6.0289973
            ],
            [
              -73.6148999,
              6.0291235
            ],
            [
              -73.6143737,
              6.0292847
            ],
            [
              -73.6140223,
              6.0294833
            ],
            [
              -73.6136868,
              6.0296989
            ],
            [
              -73.6134429,
              6.0298162
            ],
            [
              -73.6128622,
              6.0302486
            ],
            [
              -73.6126181,
              6.0304202
            ],
            [
              -73.6119393,
              6.0307169
            ],
            [
              -73.611413,
              6.0309414
            ],
            [
              -73.611161,
              6.0311672
            ],
            [
              -73.6108866,
              6.0312292
            ],
            [
              -73.6106201,
              6.0313397
            ],
            [
              -73.6104291,
              6.0314639
            ],
            [
              -73.6100395,
              6.0316432
            ],
            [
              -73.609643,
              6.0318226
            ],
            [
              -73.6090331,
              6.0320662
            ],
            [
              -73.608873,
              6.0318118
            ],
            [
              -73.6086282,
              6.0315584
            ],
            [
              -73.6084678,
              6.0317029
            ],
            [
              -73.6083614,
              6.0320193
            ],
            [
              -73.6083847,
              6.0324172
            ],
            [
              -73.6084228,
              6.0328264
            ],
            [
              -73.6083842,
              6.0330863
            ],
            [
              -73.608087,
              6.0333381
            ],
            [
              -73.607843,
              6.0335007
            ],
            [
              -73.6077201,
              6.0333107
            ],
            [
              -73.6079113,
              6.0328768
            ],
            [
              -73.6076675,
              6.032741
            ],
            [
              -73.6070334,
              6.0322702
            ],
            [
              -73.6068426,
              6.0321864
            ],
            [
              -73.6062552,
              6.0325374
            ],
            [
              -73.6060271,
              6.0325734
            ],
            [
              -73.6052186,
              6.032671
            ],
            [
              -73.6051413,
              6.0332858
            ],
            [
              -73.6050124,
              6.0335841
            ],
            [
              -73.6047989,
              6.0336099
            ],
            [
              -73.6044242,
              6.0334649
            ],
            [
              -73.5955483,
              6.0194681
            ],
            [
              -73.5950023,
              6.0191526
            ],
            [
              -73.5944772,
              6.0198553
            ],
            [
              -73.5941156,
              6.0202781
            ],
            [
              -73.5937223,
              6.0206964
            ],
            [
              -73.5925707,
              6.0218216
            ],
            [
              -73.5920211,
              6.0223905
            ],
            [
              -73.5917218,
              6.0227344
            ],
            [
              -73.5913147,
              6.0232648
            ],
            [
              -73.5910861,
              6.0236064
            ],
            [
              -73.590866,
              6.0239759
            ],
            [
              -73.5906573,
              6.0243751
            ],
            [
              -73.5904628,
              6.0248057
            ],
            [
              -73.5902863,
              6.0252672
            ],
            [
              -73.590131,
              6.0257588
            ],
            [
              -73.5900003,
              6.0262781
            ],
            [
              -73.5899201,
              6.0266828
            ],
            [
              -73.5898562,
              6.0270988
            ],
            [
              -73.5897797,
              6.0279543
            ],
            [
              -73.5897672,
              6.028421
            ],
            [
              -73.5897935,
              6.0292588
            ],
            [
              -73.5898632,
              6.0299786
            ],
            [
              -73.5899345,
              6.0304885
            ],
            [
              -73.5903254,
              6.0327937
            ],
            [
              -73.59042,
              6.0336008
            ],
            [
              -73.5904686,
              6.0344317
            ],
            [
              -73.5904784,
              6.0361134
            ],
            [
              -73.5904941,
              6.0366554
            ],
            [
              -73.5905661,
              6.0375066
            ],
            [
              -73.5906288,
              6.037932
            ],
            [
              -73.590711,
              6.0383567
            ],
            [
              -73.5908447,
              6.0388944
            ],
            [
              -73.5910137,
              6.0394389
            ],
            [
              -73.5912194,
              6.0399942
            ],
            [
              -73.5914614,
              6.0405647
            ],
            [
              -73.591737,
              6.0411551
            ],
            [
              -73.5923546,
              6.0424227
            ],
            [
              -73.5926125,
              6.0430011
            ],
            [
              -73.5928383,
              6.0435875
            ],
            [
              -73.5930298,
              6.0441772
            ],
            [
              -73.593189,
              6.0447685
            ],
            [
              -73.5933175,
              6.0453599
            ],
            [
              -73.5934169,
              6.0459505
            ],
            [
              -73.5934884,
              6.0465393
            ],
            [
              -73.5935331,
              6.0471256
            ],
            [
              -73.5935519,
              6.0477089
            ],
            [
              -73.5935453,
              6.0482905
            ],
            [
              -73.5935139,
              6.0488684
            ],
            [
              -73.593458,
              6.0494424
            ],
            [
              -73.5933781,
              6.0500123
            ],
            [
              -73.5932731,
              6.0505847
            ],
            [
              -73.5931437,
              6.0511528
            ],
            [
              -73.5929685,
              6.0517891
            ],
            [
              -73.5926458,
              6.0527385
            ],
            [
              -73.592438,
              6.0532564
            ],
            [
              -73.5922066,
              6.0537749
            ],
            [
              -73.5919525,
              6.0542913
            ],
            [
              -73.5916725,
              6.0548103
            ],
            [
              -73.5913719,
              6.0553209
            ],
            [
              -73.5910338,
              6.0558492
            ],
            [
              -73.5907576,
              6.0562506
            ],
            [
              -73.590358,
              6.0567928
            ],
            [
              -73.5898886,
              6.0573861
            ],
            [
              -73.5881124,
              6.0594978
            ],
            [
              -73.5874483,
              6.0603632
            ],
            [
              -73.5871297,
              6.060825
            ],
            [
              -73.5868444,
              6.0612774
            ],
            [
              -73.5865669,
              6.0617639
            ],
            [
              -73.5863047,
              6.0622793
            ],
            [
              -73.5860419,
              6.0628676
            ],
            [
              -73.5857965,
              6.0635039
            ],
            [
              -73.5855684,
              6.0641977
            ],
            [
              -73.5853552,
              6.064965
            ],
            [
              -73.5851922,
              6.0656504
            ],
            [
              -73.5850302,
              6.0664293
            ],
            [
              -73.58456,
              6.069029
            ],
            [
              -73.5842777,
              6.0704129
            ],
            [
              -73.5841717,
              6.0708571
            ],
            [
              -73.5839584,
              6.0716401
            ],
            [
              -73.5837107,
              6.0724007
            ],
            [
              -73.5834428,
              6.0730905
            ],
            [
              -73.5831537,
              6.0737231
            ],
            [
              -73.5828437,
              6.0743082
            ],
            [
              -73.5825809,
              6.0747475
            ],
            [
              -73.582343,
              6.0751102
            ],
            [
              -73.5820692,
              6.0754959
            ],
            [
              -73.5814512,
              6.0762793
            ],
            [
              -73.5799584,
              6.0780027
            ],
            [
              -73.5795938,
              6.0784514
            ],
            [
              -73.5792816,
              6.0788683
            ],
            [
              -73.5790285,
              6.079242
            ],
            [
              -73.5788226,
              6.0795822
            ],
            [
              -73.5786526,
              6.0798997
            ],
            [
              -73.5783965,
              6.0804857
            ],
            [
              -73.5782959,
              6.0807783
            ],
            [
              -73.5781538,
              6.0813228
            ],
            [
              -73.5780448,
              6.0820004
            ],
            [
              -73.577923,
              6.0834385
            ],
            [
              -73.5778498,
              6.083941
            ],
            [
              -73.5777904,
              6.0841839
            ],
            [
              -73.5777266,
              6.0843709
            ],
            [
              -73.5776422,
              6.0845537
            ],
            [
              -73.5775226,
              6.0847395
            ],
            [
              -73.577406,
              6.0848711
            ],
            [
              -73.5772601,
              6.0849932
            ],
            [
              -73.5770037,
              6.085139
            ],
            [
              -73.5768248,
              6.0852084
            ],
            [
              -73.5765896,
              6.0852733
            ],
            [
              -73.5761506,
              6.0853439
            ],
            [
              -73.5756716,
              6.0853778
            ],
            [
              -73.5771826,
              6.0857619
            ],
            [
              -73.5796015,
              6.0860642
            ],
            [
              -73.5828268,
              6.0876768
            ],
            [
              -73.586052,
              6.0902974
            ],
            [
              -73.5884709,
              6.0936234
            ],
            [
              -73.5902852,
              6.0972518
            ],
            [
              -73.591797,
              6.100981
            ],
            [
              -73.5944175,
              6.1030976
            ],
            [
              -73.597542,
              6.1042063
            ],
            [
              -73.6001625,
              6.1047102
            ],
            [
              -73.6026822,
              6.1068268
            ],
            [
              -73.6041941,
              6.1095481
            ],
            [
              -73.606613,
              6.113882
            ],
            [
              -73.6087862,
              6.116936
            ],
            [
              -73.6088016,
              6.1169511
            ],
            [
              -73.6088903,
              6.1170481
            ],
            [
              -73.608951,
              6.117111
            ],
            [
              -73.6090178,
              6.1171759
            ],
            [
              -73.6090886,
              6.1172392
            ],
            [
              -73.6091626,
              6.117298
            ],
            [
              -73.6092394,
              6.1173499
            ],
            [
              -73.6093194,
              6.1173925
            ],
            [
              -73.6094048,
              6.1174246
            ],
            [
              -73.6094929,
              6.1174472
            ],
            [
              -73.6095826,
              6.1174628
            ],
            [
              -73.6096732,
              6.1174733
            ],
            [
              -73.6097642,
              6.1174802
            ],
            [
              -73.6099465,
              6.1174873
            ],
            [
              -73.6101281,
              6.1174894
            ],
            [
              -73.6103089,
              6.1174892
            ],
            [
              -73.6111154,
              6.1174818
            ],
            [
              -73.6112926,
              6.1174832
            ],
            [
              -73.6113803,
              6.1174858
            ],
            [
              -73.6114672,
              6.1174905
            ],
            [
              -73.6115527,
              6.1174983
            ],
            [
              -73.6116365,
              6.1175104
            ],
            [
              -73.6117177,
              6.1175286
            ],
            [
              -73.6117955,
              6.1175551
            ],
            [
              -73.6118699,
              6.117592
            ],
            [
              -73.6119407,
              6.1176373
            ],
            [
              -73.612009,
              6.1176888
            ],
            [
              -73.6120755,
              6.1177446
            ],
            [
              -73.6121407,
              6.1178034
            ],
            [
              -73.6122688,
              6.1179267
            ],
            [
              -73.6123954,
              6.1180538
            ],
            [
              -73.6128362,
              6.1185035
            ],
            [
              -73.6131518,
              6.1188229
            ],
            [
              -73.6151753,
              6.1208571
            ],
            [
              -73.6154299,
              6.1211093
            ],
            [
              -73.61556,
              6.1212322
            ],
            [
              -73.6156264,
              6.1212919
            ],
            [
              -73.6156944,
              6.1213498
            ],
            [
              -73.6157617,
              6.1214036
            ],
            [
              -73.6159002,
              6.1215068
            ],
            [
              -73.6161131,
              6.1216557
            ],
            [
              -73.616544,
              6.1219482
            ],
            [
              -73.6168321,
              6.1221411
            ],
            [
              -73.6169772,
              6.1222334
            ],
            [
              -73.6170504,
              6.1222771
            ],
            [
              -73.6171243,
              6.1223181
            ],
            [
              -73.6171991,
              6.1223554
            ],
            [
              -73.6172753,
              6.1223875
            ],
            [
              -73.6173534,
              6.1224125
            ],
            [
              -73.6174369,
              6.1224295
            ],
            [
              -73.6175224,
              6.1224389
            ],
            [
              -73.6176093,
              6.1224429
            ],
            [
              -73.6176972,
              6.1224429
            ],
            [
              -73.6177859,
              6.1224402
            ],
            [
              -73.6178751,
              6.1224356
            ],
            [
              -73.6180543,
              6.1224231
            ],
            [
              -73.6191371,
              6.1223339
            ],
            [
              -73.6209274,
              6.1221961
            ],
            [
              -73.6228606,
              6.1210925
            ],
            [
              -73.6228803,
              6.1210932
            ],
            [
              -73.6230837,
              6.1210864
            ],
            [
              -73.6231722,
              6.1210861
            ],
            [
              -73.6232636,
              6.1210883
            ],
            [
              -73.6233554,
              6.1210939
            ],
            [
              -73.623446,
              6.1211037
            ],
            [
              -73.6235342,
              6.121119
            ],
            [
              -73.6236192,
              6.1211413
            ],
            [
              -73.6237063,
              6.1211743
            ],
            [
              -73.6237895,
              6.1212148
            ],
            [
              -73.6238696,
              6.1212606
            ],
            [
              -73.6239474,
              6.1213099
            ],
            [
              -73.6240234,
              6.1213617
            ],
            [
              -73.6240979,
              6.1214151
            ],
            [
              -73.624244,
              6.1215244
            ],
            [
              -73.6243877,
              6.1216352
            ],
            [
              -73.6254458,
              6.1224632
            ],
            [
              -73.6274128,
              6.1239975
            ],
            [
              -73.6283119,
              6.1246899
            ],
            [
              -73.6295217,
              6.1262316
            ],
            [
              -73.6310735,
              6.1274279
            ],
            [
              -73.6324486,
              6.1275933
            ],
            [
              -73.6346851,
              6.1282704
            ],
            [
              -73.6355473,
              6.1289541
            ],
            [
              -73.6364109,
              6.1307009
            ],
            [
              -73.6371841,
              6.1291344
            ],
            [
              -73.6373241,
              6.1281189
            ],
            [
              -73.6377545,
              6.1272469
            ],
            [
              -73.6378918,
              6.1256514
            ],
            [
              -73.6381753,
              6.1243451
            ],
            [
              -73.6387464,
              6.1226026
            ],
            [
              -73.6396085,
              6.1211486
            ],
            [
              -73.6406163,
              6.1198389
            ],
            [
              -73.6417521,
              6.1180521
            ],
            [
              -73.6429496,
              6.116686
            ],
            [
              -73.6435632,
              6.1166896
            ],
            [
              -73.6456258,
              6.1156688
            ],
            [
              -73.6464137,
              6.1134493
            ],
            [
              -73.6469581,
              6.1128519
            ],
            [
              -73.6476239,
              6.1127496
            ],
            [
              -73.6490581,
              6.1126819
            ],
            [
              -73.6497889,
              6.1123966
            ],
            [
              -73.6504285,
              6.1119627
            ],
            [
              -73.6507978,
              6.1108179
            ],
            [
              -73.6513623,
              6.1099039
            ],
            [
              -73.6517183,
              6.1090569
            ],
            [
              -73.6517127,
              6.107897
            ],
            [
              -73.6519983,
              6.1070257
            ],
            [
              -73.6527197,
              6.1064423
            ],
            [
              -73.6532942,
              6.1054247
            ],
            [
              -73.6532894,
              6.1044098
            ],
            [
              -73.654586,
              6.1029537
            ],
            [
              -73.6555923,
              6.1013541
            ],
            [
              -73.6563082,
              6.0996108
            ],
            [
              -73.6567365,
              6.0983039
            ],
            [
              -73.6570179,
              6.0965628
            ],
            [
              -73.6571578,
              6.0955472
            ],
            [
              -73.6579341,
              6.0944481
            ],
            [
              -73.659387,
              6.0928297
            ],
            [
              -73.6601782,
              6.0917548
            ],
            [
              -73.661947,
              6.0910553
            ],
            [
              -73.6624402,
              6.0906541
            ],
            [
              -73.6634746,
              6.088929
            ],
            [
              -73.6635979,
              6.0886292
            ],
            [
              -73.664208,
              6.0882803
            ],
            [
              -73.6662812,
              6.0866301
            ],
            [
              -73.667248,
              6.0855753
            ],
            [
              -73.6679412,
              6.0842986
            ],
            [
              -73.6685465,
              6.0839512
            ],
            [
              -73.6696152,
              6.0827585
            ],
            [
              -73.6704546,
              6.0818551
            ],
            [
              -73.6716473,
              6.0804518
            ],
            [
              -73.6718584,
              6.0802534
            ],
            [
              -73.6735937,
              6.0796651
            ],
            [
              -73.6746847,
              6.078499
            ],
            [
              -73.6751577,
              6.0779217
            ],
            [
              -73.6754472,
              6.077263
            ],
            [
              -73.6756718,
              6.0766725
            ],
            [
              -73.6760934,
              6.0766157
            ],
            [
              -73.676372,
              6.0764264
            ],
            [
              -73.6767664,
              6.0755258
            ],
            [
              -73.6770156,
              6.0750982
            ],
            [
              -73.6773038,
              6.074818
            ],
            [
              -73.6775547,
              6.0745462
            ],
            [
              -73.6778186,
              6.0740632
            ],
            [
              -73.6780798,
              6.0736959
            ],
            [
              -73.6782273,
              6.0735023
            ],
            [
              -73.678381,
              6.0732646
            ],
            [
              -73.6785184,
              6.0730335
            ],
            [
              -73.6787028,
              6.0727961
            ],
            [
              -73.6789567,
              6.0725085
            ],
            [
              -73.6791817,
              6.0720802
            ],
            [
              -73.6792961,
              6.0716161
            ],
            [
              -73.679521,
              6.0710938
            ],
            [
              -73.6798096,
              6.0704931
            ],
            [
              -73.6800863,
              6.070038
            ],
            [
              -73.680105,
              6.0698218
            ],
            [
              -73.6806236,
              6.0688251
            ],
            [
              -73.6808641,
              6.0682553
            ],
            [
              -73.6810336,
              6.0677488
            ],
            [
              -73.6813163,
              6.0674569
            ],
            [
              -73.681816,
              6.0667976
            ],
            [
              -73.6818592,
              6.0666346
            ],
            [
              -73.6818876,
              6.0660587
            ],
            [
              -73.6820303,
              6.0657163
            ],
            [
              -73.6824083,
              6.065251
            ],
            [
              -73.682768,
              6.0650221
            ],
            [
              -73.6834239,
              6.0644169
            ],
            [
              -73.6837669,
              6.0642539
            ],
            [
              -73.6839946,
              6.0638583
            ],
            [
              -73.6840966,
              6.0635255
            ],
            [
              -73.6842187,
              6.0630223
            ],
            [
              -73.6843224,
              6.0619706
            ],
            [
              -73.6844925,
              6.0614057
            ],
            [
              -73.684765,
              6.0610257
            ],
            [
              -73.6848671,
              6.0604998
            ],
            [
              -73.6849629,
              6.060199
            ],
            [
              -73.6851705,
              6.0598385
            ],
            [
              -73.6854108,
              6.0595839
            ],
            [
              -73.6857552,
              6.0592239
            ],
            [
              -73.6859207,
              6.0589218
            ],
            [
              -73.6861202,
              6.0585394
            ],
            [
              -73.6862945,
              6.0582022
            ],
            [
              -73.6865853,
              6.0576673
            ],
            [
              -73.6867753,
              6.0572749
            ],
            [
              -73.6869953,
              6.0568712
            ],
            [
              -73.6872911,
              6.0565524
            ],
            [
              -73.6874843,
              6.0562617
            ],
            [
              -73.687687,
              6.0559162
            ],
            [
              -73.6879119,
              6.0554418
            ],
            [
              -73.6880367,
              6.0552026
            ],
            [
              -73.6884054,
              6.0545019
            ],
            [
              -73.6886229,
              6.0541965
            ],
            [
              -73.6888896,
              6.0539589
            ],
            [
              -73.6892247,
              6.0536975
            ],
            [
              -73.6896779,
              6.0532996
            ],
            [
              -73.6898417,
              6.0530544
            ],
            [
              -73.6899587,
              6.0525018
            ],
            [
              -73.6902413,
              6.0519907
            ],
            [
              -73.6905281,
              6.0512968
            ],
            [
              -73.6906557,
              6.0511578
            ],
            [
              -73.6906805,
              6.0510266
            ],
            [
              -73.690715,
              6.0507109
            ],
            [
              -73.6907748,
              6.0506026
            ],
            [
              -73.6907518,
              6.0503584
            ],
            [
              -73.6906831,
              6.0500588
            ],
            [
              -73.6906218,
              6.0497513
            ],
            [
              -73.6905914,
              6.0489262
            ],
            [
              -73.6906374,
              6.0484673
            ],
            [
              -73.690767,
              6.0480424
            ],
            [
              -73.6909118,
              6.0476096
            ],
            [
              -73.6909884,
              6.0471395
            ],
            [
              -73.6910339,
              6.0466693
            ],
            [
              -73.6910109,
              6.0463698
            ],
            [
              -73.6909497,
              6.0458814
            ],
            [
              -73.6910646,
              6.045565
            ],
            [
              -73.6912703,
              6.045277
            ],
            [
              -73.6915448,
              6.0450511
            ],
            [
              -73.6915907,
              6.0448522
            ],
            [
              -73.6916365,
              6.0446442
            ],
            [
              -73.6918275,
              6.0444183
            ],
            [
              -73.6921781,
              6.0444016
            ],
            [
              -73.6926969,
              6.0444562
            ],
            [
              -73.6929261,
              6.0443942
            ],
            [
              -73.6930555,
              6.0442316
            ],
            [
              -73.6930557,
              6.0440055
            ],
            [
              -73.6930096,
              6.0437885
            ],
            [
              -73.6929031,
              6.0433905
            ],
            [
              -73.6927888,
              6.0429298
            ],
            [
              -73.6924944,
              6.0424024
            ],
            [
              -73.6927847,
              6.0415912
            ],
            [
              -73.6938822,
              6.0404079
            ],
            [
              -73.6950618,
              6.0395807
            ],
            [
              -73.6936881,
              6.0394853
            ],
            [
              -73.6922011,
              6.0393444
            ],
            [
              -73.6915321,
              6.0388948
            ],
            [
              -73.6907766,
              6.0382618
            ],
            [
              -73.6905949,
              6.0371589
            ],
            [
              -73.6895725,
              6.0368732
            ],
            [
              -73.6887079,
              6.0361765
            ],
            [
              -73.6873837,
              6.0362327
            ],
            [
              -73.6846665,
              6.0356667
            ],
            [
              -73.6836034,
              6.0354497
            ],
            [
              -73.6830179,
              6.0359084
            ],
            [
              -73.6763841,
              6.0356007
            ],
            [
              -73.6759378,
              6.035252
            ],
            [
              -73.6766134,
              6.0334482
            ],
            [
              -73.676557,
              6.0333529
            ],
            [
              -73.6762033,
              6.0335005
            ],
            [
              -73.6756836,
              6.0332458
            ],
            [
              -73.6748661,
              6.033095
            ],
            [
              -73.6743247,
              6.0326989
            ],
            [
              -73.6741432,
              6.0324189
            ],
            [
              -73.6736261,
              6.0320305
            ],
            [
              -73.6732648,
              6.0320468
            ],
            [
              -73.6730898,
              6.0319592
            ],
            [
              -73.6715312,
              6.032189
            ],
            [
              -73.6715654,
              6.0310341
            ],
            [
              -73.6711276,
              6.0309375
            ],
            [
              -73.6708947,
              6.0308353
            ],
            [
              -73.6708805,
              6.0306912
            ],
            [
              -73.6710919,
              6.0301137
            ],
            [
              -73.6708718,
              6.0298428
            ],
            [
              -73.6707692,
              6.0295832
            ],
            [
              -73.6698108,
              6.0286187
            ],
            [
              -73.6697298,
              6.028417
            ],
            [
              -73.6686138,
              6.028988
            ],
            [
              -73.6669041,
              6.0297773
            ],
            [
              -73.6666523,
              6.0295906
            ],
            [
              -73.666479,
              6.0288187
            ],
            [
              -73.6664708,
              6.0286951
            ],
            [
              -73.66614,
              6.0288258
            ],
            [
              -73.664949,
              6.0288248
            ],
            [
              -73.6642126,
              6.0289216
            ],
            [
              -73.6640379,
              6.0290164
            ],
            [
              -73.6637254,
              6.0293512
            ],
            [
              -73.662966,
              6.030396
            ],
            [
              -73.6621097,
              6.0296929
            ],
            [
              -73.6619116,
              6.0295481
            ],
            [
              -73.6616673,
              6.0294575
            ],
            [
              -73.6614387,
              6.029403
            ],
            [
              -73.6611485,
              6.0293565
            ],
            [
              -73.660645,
              6.0292928
            ],
            [
              -73.6602713,
              6.0292462
            ],
            [
              -73.6599739,
              6.0292086
            ],
            [
              -73.6593862,
              6.0291438
            ],
            [
              -73.6590808,
              6.0291254
            ],
            [
              -73.6588065,
              6.029115
            ],
            [
              -73.6585468,
              6.0291239
            ],
            [
              -73.6581578,
              6.0291417
            ],
            [
              -73.6579213,
              6.0291675
            ],
            [
              -73.6577231,
              6.0292487
            ],
            [
              -73.6575096,
              6.0293921
            ],
            [
              -73.6573265,
              6.0295366
            ],
            [
              -73.6572017,
              6.0296172
            ],
            [
              -73.6570928,
              6.0295288
            ],
            [
              -73.6570393,
              6.02943
            ],
            [
              -73.656988,
              6.0293901
            ],
            [
              -73.6569237,
              6.0293117
            ],
            [
              -73.6568736,
              6.0291908
            ],
            [
              -73.656838,
              6.0290838
            ],
            [
              -73.6567872,
              6.0290173
            ],
            [
              -73.6567768,
              6.0289117
            ],
            [
              -73.6567573,
              6.0287844
            ],
            [
              -73.6569231,
              6.0285238
            ],
            [
              -73.656963,
              6.0283286
            ],
            [
              -73.656879,
              6.0278211
            ],
            [
              -73.6567954,
              6.027817
            ],
            [
              -73.6565445,
              6.0278907
            ],
            [
              -73.6564807,
              6.0278672
            ],
            [
              -73.6563568,
              6.027866
            ],
            [
              -73.656237,
              6.0278985
            ],
            [
              -73.6561409,
              6.0278897
            ],
            [
              -73.6560083,
              6.027843
            ],
            [
              -73.6559231,
              6.0277789
            ],
            [
              -73.6558163,
              6.0277056
            ],
            [
              -73.6556195,
              6.0276691
            ],
            [
              -73.6553884,
              6.0276372
            ],
            [
              -73.6552463,
              6.0275534
            ],
            [
              -73.6550951,
              6.0274632
            ],
            [
              -73.6548721,
              6.0273073
            ],
            [
              -73.6547324,
              6.027226
            ],
            [
              -73.6546016,
              6.0271249
            ],
            [
              -73.6544957,
              6.0270794
            ],
            [
              -73.6537557,
              6.0269421
            ],
            [
              -73.6534048,
              6.0266525
            ],
            [
              -73.6528711,
              6.0262067
            ],
            [
              -73.6524892,
              6.0258504
            ],
            [
              -73.6522912,
              6.0255722
            ],
            [
              -73.6524666,
              6.0251473
            ],
            [
              -73.6526876,
              6.024814
            ],
            [
              -73.653443,
              6.0247163
            ],
            [
              -73.6536034,
              6.0245717
            ],
            [
              -73.6537178,
              6.0240655
            ],
            [
              -73.6542215,
              6.0239766
            ],
            [
              -73.6545113,
              6.0236965
            ],
            [
              -73.6544731,
              6.0233709
            ],
            [
              -73.6542747,
              6.0230362
            ],
            [
              -73.6539925,
              6.0229535
            ],
            [
              -73.6536564,
              6.0231702
            ],
            [
              -73.6529625,
              6.0233132
            ],
            [
              -73.6527565,
              6.0232758
            ],
            [
              -73.6524817,
              6.0231128
            ],
            [
              -73.6522301,
              6.0229137
            ],
            [
              -73.6519704,
              6.0229033
            ],
            [
              -73.6514899,
              6.0230476
            ],
            [
              -73.6512003,
              6.0230654
            ],
            [
              -73.6507572,
              6.0229103
            ],
            [
              -73.6505665,
              6.0227891
            ],
            [
              -73.650193,
              6.022547
            ],
            [
              -73.6498268,
              6.0223828
            ],
            [
              -73.6495598,
              6.0223374
            ],
            [
              -73.6490941,
              6.0223449
            ],
            [
              -73.6485068,
              6.0225875
            ],
            [
              -73.6481089,
              6.0226727
            ],
            [
              -73.6479117,
              6.0226384
            ],
            [
              -73.6477546,
              6.0225737
            ],
            [
              -73.6475108,
              6.0229999
            ],
            [
              -73.6471078,
              6.0227146
            ],
            [
              -73.6465302,
              6.023062
            ],
            [
              -73.6462504,
              6.0226513
            ],
            [
              -73.6460166,
              6.022486
            ],
            [
              -73.6457346,
              6.0223794
            ],
            [
              -73.6457874,
              6.0221074
            ],
            [
              -73.6452609,
              6.0218194
            ],
            [
              -73.644766,
              6.0217113
            ],
            [
              -73.6443055,
              6.0215983
            ],
            [
              -73.643806,
              6.0214243
            ],
            [
              -73.6435095,
              6.02134
            ],
            [
              -73.6428296,
              6.0210973
            ],
            [
              -73.6425367,
              6.0210446
            ],
            [
              -73.6421784,
              6.0210589
            ],
            [
              -73.6416532,
              6.0211904
            ],
            [
              -73.6412641,
              6.0213721
            ],
            [
              -73.6408911,
              6.0215086
            ],
            [
              -73.6404597,
              6.0215852
            ],
            [
              -73.639821,
              6.0215783
            ],
            [
              -73.6392666,
              6.0215924
            ],
            [
              -73.6382751,
              6.0217708
            ],
            [
              -73.6379749,
              6.0215947
            ],
            [
              -73.6385598,
              6.0209384
            ],
            [
              -73.6389304,
              6.0209008
            ],
            [
              -73.6384815,
              6.0204466
            ],
            [
              -73.6379398,
              6.0201557
            ],
            [
              -73.6377879,
              6.0194774
            ],
            [
              -73.6377263,
              6.0189156
            ],
            [
              -73.6376351,
              6.0186262
            ],
            [
              -73.6374219,
              6.0183999
            ],
            [
              -73.6367876,
              6.0180275
            ],
            [
              -73.636201,
              6.0174924
            ],
            [
              -73.635964,
              6.0173679
            ],
            [
              -73.6357504,
              6.0175723
            ],
            [
              -73.6359489,
              6.017863
            ],
            [
              -73.6362545,
              6.0183334
            ],
            [
              -73.6364145,
              6.0187416
            ],
            [
              -73.6364751,
              6.0191757
            ],
            [
              -73.6363835,
              6.0193926
            ],
            [
              -73.6359409,
              6.0193911
            ],
            [
              -73.6352465,
              6.0193894
            ],
            [
              -73.634576,
              6.0192973
            ],
            [
              -73.6342779,
              6.0192609
            ],
            [
              -73.6341561,
              6.0190788
            ],
            [
              -73.6343167,
              6.0188088
            ],
            [
              -73.6344388,
              6.018619
            ],
            [
              -73.6344378,
              6.018402
            ],
            [
              -73.6343081,
              6.018238
            ],
            [
              -73.6340722,
              6.0181836
            ],
            [
              -73.6338587,
              6.0183552
            ],
            [
              -73.6337138,
              6.0187258
            ],
            [
              -73.6334156,
              6.0189505
            ],
            [
              -73.6330351,
              6.0189864
            ],
            [
              -73.6325925,
              6.019012
            ],
            [
              -73.632142,
              6.0190286
            ],
            [
              -73.6319128,
              6.0190329
            ],
            [
              -73.6316531,
              6.0190372
            ],
            [
              -73.6313313,
              6.0190673
            ]
          ]
        ]
      },
      "id": "relation/1344032"
    }
  ]
}