{
  "type": "FeatureCollection",
  "features": [
    {
      "type": "Feature",
      "properties": {
        "@id": "relation/1315459",
        "DANE:area": "285.00",
        "DANE:departamento": "68",
        "admin_level": "6",
        "boundary": "administrative",
        "clcfile": "MunicipiosDepartamentos/ADM_Municipios.shp",
        "divipola": "68500",
        "entidad_te": "Cabecera Municipal",
        "is_in:country": "Colombia",
        "is_in:state": "Santander",
        "name": "Oiba",
        "objectid": "3740",
        "source": "OCHA - SIGOT",
        "type": "boundary",
        "wikidata": "Q1577577",
        "wikipedia": "es:Oiba"
      },
      "geometry": {
        "type": "Polygon",
        "coordinates": [
          [
            [
              -73.2779205,
              6.3353937
            ],
            [
              -73.277812,
              6.3350877
            ],
            [
              -73.2777829,
              6.3349327
            ],
            [
              -73.2777678,
              6.3348116
            ],
            [
              -73.2777578,
              6.3346831
            ],
            [
              -73.2777541,
              6.3344627
            ],
            [
              -73.277767,
              6.3342438
            ],
            [
              -73.2777864,
              6.3340822
            ],
            [
              -73.2778131,
              6.3339212
            ],
            [
              -73.2778529,
              6.3337322
            ],
            [
              -73.2778999,
              6.3335458
            ],
            [
              -73.2779967,
              6.3332225
            ],
            [
              -73.2781058,
              6.3329073
            ],
            [
              -73.2781875,
              6.3326911
            ],
            [
              -73.2782727,
              6.3324786
            ],
            [
              -73.27843,
              6.3321146
            ],
            [
              -73.2785732,
              6.3318093
            ],
            [
              -73.2786476,
              6.3316587
            ],
            [
              -73.2788159,
              6.3313354
            ],
            [
              -73.2789602,
              6.3310703
            ],
            [
              -73.279346,
              6.3303802
            ],
            [
              -73.2794989,
              6.3300979
            ],
            [
              -73.2796509,
              6.3298025
            ],
            [
              -73.2798011,
              6.3294808
            ],
            [
              -73.2799043,
              6.3292239
            ],
            [
              -73.2799638,
              6.3290517
            ],
            [
              -73.2800157,
              6.3288768
            ],
            [
              -73.280051,
              6.3287364
            ],
            [
              -73.2801005,
              6.3284818
            ],
            [
              -73.2801169,
              6.3283683
            ],
            [
              -73.2801373,
              6.3281853
            ],
            [
              -73.2801516,
              6.3280004
            ],
            [
              -73.2801608,
              6.3278136
            ],
            [
              -73.2801652,
              6.3276252
            ],
            [
              -73.2801652,
              6.3274449
            ],
            [
              -73.280154,
              6.3271418
            ],
            [
              -73.2801313,
              6.3268937
            ],
            [
              -73.280114,
              6.3267669
            ],
            [
              -73.2800697,
              6.3265284
            ],
            [
              -73.2800208,
              6.3263272
            ],
            [
              -73.2799632,
              6.3261261
            ],
            [
              -73.279899,
              6.3259259
            ],
            [
              -73.2797587,
              6.3255358
            ],
            [
              -73.2796853,
              6.3253475
            ],
            [
              -73.279501,
              6.3248875
            ],
            [
              -73.2787349,
              6.3238873
            ],
            [
              -73.2768948,
              6.323171
            ],
            [
              -73.2754996,
              6.3223415
            ],
            [
              -73.2743255,
              6.3211211
            ],
            [
              -73.2741535,
              6.3199522
            ],
            [
              -73.2742601,
              6.3188378
            ],
            [
              -73.2755884,
              6.3169942
            ],
            [
              -73.2766394,
              6.3154302
            ],
            [
              -73.2783594,
              6.3140862
            ],
            [
              -73.280248,
              6.3131314
            ],
            [
              -73.2821369,
              6.3122322
            ],
            [
              -73.2833587,
              6.3115587
            ],
            [
              -73.2846359,
              6.3108292
            ],
            [
              -73.2860782,
              6.3096534
            ],
            [
              -73.2871852,
              6.3081449
            ],
            [
              -73.2877366,
              6.3069173
            ],
            [
              -73.2884563,
              6.3059674
            ],
            [
              -73.2891176,
              6.3044051
            ],
            [
              -73.2899448,
              6.3025636
            ],
            [
              -73.2913852,
              6.3009422
            ],
            [
              -73.2930506,
              6.2998769
            ],
            [
              -73.2939921,
              6.298759
            ],
            [
              -73.2952118,
              6.2975842
            ],
            [
              -73.2960415,
              6.2963553
            ],
            [
              -73.2972066,
              6.2954592
            ],
            [
              -73.2973499,
              6.2953474
            ],
            [
              -73.2982714,
              6.2947337
            ],
            [
              -73.3003008,
              6.2947337
            ],
            [
              -73.3019612,
              6.2945031
            ],
            [
              -73.3039907,
              6.2941341
            ],
            [
              -73.3057894,
              6.2934884
            ],
            [
              -73.307496,
              6.2927965
            ],
            [
              -73.3087413,
              6.2922892
            ],
            [
              -73.3103095,
              6.2917357
            ],
            [
              -73.3115548,
              6.2917357
            ],
            [
              -73.3128924,
              6.2919663
            ],
            [
              -73.3143683,
              6.2924276
            ],
            [
              -73.3157981,
              6.2931655
            ],
            [
              -73.3172279,
              6.2941341
            ],
            [
              -73.3188422,
              6.2947798
            ],
            [
              -73.3199031,
              6.2953333
            ],
            [
              -73.3215173,
              6.2962558
            ],
            [
              -73.3233623,
              6.2969937
            ],
            [
              -73.3251149,
              6.2979623
            ],
            [
              -73.3259552,
              6.2982194
            ],
            [
              -73.3263155,
              6.2986274
            ],
            [
              -73.3264433,
              6.298754
            ],
            [
              -73.3267188,
              6.2989551
            ],
            [
              -73.3266782,
              6.2988282
            ],
            [
              -73.3265973,
              6.2985223
            ],
            [
              -73.3265518,
              6.2983266
            ],
            [
              -73.3265092,
              6.29812
            ],
            [
              -73.3264722,
              6.2979079
            ],
            [
              -73.3264467,
              6.297727
            ],
            [
              -73.3264258,
              6.2975461
            ],
            [
              -73.3263612,
              6.2968869
            ],
            [
              -73.3263254,
              6.2966335
            ],
            [
              -73.3262584,
              6.2962843
            ],
            [
              -73.3261402,
              6.2957535
            ],
            [
              -73.3261041,
              6.2955745
            ],
            [
              -73.3260494,
              6.295238
            ],
            [
              -73.3260193,
              6.2949503
            ],
            [
              -73.3260045,
              6.294655
            ],
            [
              -73.3260051,
              6.2942978
            ],
            [
              -73.3260315,
              6.29352
            ],
            [
              -73.3260321,
              6.2933717
            ],
            [
              -73.3260276,
              6.2932241
            ],
            [
              -73.3260169,
              6.2930834
            ],
            [
              -73.325999,
              6.2929436
            ],
            [
              -73.3259765,
              6.2928208
            ],
            [
              -73.3259486,
              6.2926989
            ],
            [
              -73.3258135,
              6.2922044
            ],
            [
              -73.3257803,
              6.2920668
            ],
            [
              -73.3257523,
              6.2919308
            ],
            [
              -73.3257292,
              6.2917931
            ],
            [
              -73.3257115,
              6.2916537
            ],
            [
              -73.3256984,
              6.2914915
            ],
            [
              -73.3256933,
              6.2913273
            ],
            [
              -73.3256993,
              6.291098
            ],
            [
              -73.3257142,
              6.2909082
            ],
            [
              -73.3257363,
              6.2907161
            ],
            [
              -73.3257643,
              6.2905217
            ],
            [
              -73.3257969,
              6.2903248
            ],
            [
              -73.325872,
              6.2899278
            ],
            [
              -73.3259484,
              6.2895601
            ],
            [
              -73.3261267,
              6.2887407
            ],
            [
              -73.3261841,
              6.2885926
            ],
            [
              -73.3262399,
              6.2884668
            ],
            [
              -73.3263048,
              6.2883329
            ],
            [
              -73.3264311,
              6.288094
            ],
            [
              -73.3267363,
              6.2875611
            ],
            [
              -73.3269222,
              6.2872269
            ],
            [
              -73.3271105,
              6.2868555
            ],
            [
              -73.3272116,
              6.2866405
            ],
            [
              -73.3273076,
              6.2864262
            ],
            [
              -73.3274876,
              6.2859965
            ],
            [
              -73.3275705,
              6.2857831
            ],
            [
              -73.3276495,
              6.2855654
            ],
            [
              -73.3277201,
              6.2853483
            ],
            [
              -73.3277731,
              6.2851564
            ],
            [
              -73.3278146,
              6.2849648
            ],
            [
              -73.3278414,
              6.2847736
            ],
            [
              -73.3278489,
              6.2846561
            ],
            [
              -73.3278489,
              6.2845391
            ],
            [
              -73.3278378,
              6.2843913
            ],
            [
              -73.3278147,
              6.2842454
            ],
            [
              -73.3277763,
              6.2840891
            ],
            [
              -73.3277247,
              6.2839367
            ],
            [
              -73.3276763,
              6.2838229
            ],
            [
              -73.3276207,
              6.283712
            ],
            [
              -73.3275408,
              6.2835774
            ],
            [
              -73.3274166,
              6.2834051
            ],
            [
              -73.3273096,
              6.2832784
            ],
            [
              -73.3271847,
              6.2831509
            ],
            [
              -73.3270507,
              6.2830313
            ],
            [
              -73.3269529,
              6.282953
            ],
            [
              -73.3268516,
              6.2828786
            ],
            [
              -73.3266838,
              6.2827674
            ],
            [
              -73.3264831,
              6.2826496
            ],
            [
              -73.3262847,
              6.2825446
            ],
            [
              -73.3257068,
              6.2822603
            ],
            [
              -73.3254515,
              6.2821236
            ],
            [
              -73.3252864,
              6.2820245
            ],
            [
              -73.3251268,
              6.2819179
            ],
            [
              -73.3250014,
              6.2818246
            ],
            [
              -73.3248808,
              6.2817254
            ],
            [
              -73.3247879,
              6.2816416
            ],
            [
              -73.3246981,
              6.281554
            ],
            [
              -73.3245949,
              6.281445
            ],
            [
              -73.3244953,
              6.2813319
            ],
            [
              -73.3243884,
              6.2812026
            ],
            [
              -73.3240745,
              6.2808087
            ],
            [
              -73.3239682,
              6.2806814
            ],
            [
              -73.3237863,
              6.2804794
            ],
            [
              -73.3236429,
              6.2803338
            ],
            [
              -73.3234931,
              6.280191
            ],
            [
              -73.323338,
              6.2800495
            ],
            [
              -73.3228243,
              6.2795904
            ],
            [
              -73.3224921,
              6.2792845
            ],
            [
              -73.3220301,
              6.2788455
            ],
            [
              -73.3217828,
              6.2786019
            ],
            [
              -73.3208431,
              6.2778812
            ],
            [
              -73.3197482,
              6.2777035
            ],
            [
              -73.3194128,
              6.277649
            ],
            [
              -73.3181425,
              6.2776544
            ],
            [
              -73.3166332,
              6.277502
            ],
            [
              -73.3140922,
              6.2768682
            ],
            [
              -73.3142115,
              6.2768639
            ],
            [
              -73.314333,
              6.276849
            ],
            [
              -73.3145349,
              6.2768176
            ],
            [
              -73.3147615,
              6.276774
            ],
            [
              -73.3149996,
              6.276718
            ],
            [
              -73.3151504,
              6.2766764
            ],
            [
              -73.315301,
              6.27663
            ],
            [
              -73.3156229,
              6.276517
            ],
            [
              -73.3161494,
              6.2763109
            ],
            [
              -73.3164043,
              6.2762171
            ],
            [
              -73.316533,
              6.2761753
            ],
            [
              -73.3167349,
              6.2761193
            ],
            [
              -73.3169413,
              6.2760752
            ],
            [
              -73.3170966,
              6.2760512
            ],
            [
              -73.3172519,
              6.2760349
            ],
            [
              -73.3174401,
              6.2760251
            ],
            [
              -73.3176275,
              6.2760251
            ],
            [
              -73.317789,
              6.2760321
            ],
            [
              -73.3179494,
              6.2760441
            ],
            [
              -73.3184092,
              6.2760917
            ],
            [
              -73.3186029,
              6.2761081
            ],
            [
              -73.3187932,
              6.276115
            ],
            [
              -73.3190339,
              6.2760996
            ],
            [
              -73.3192448,
              6.2760541
            ],
            [
              -73.3193906,
              6.2760007
            ],
            [
              -73.3195078,
              6.2759424
            ],
            [
              -73.3196211,
              6.2758745
            ],
            [
              -73.3198062,
              6.275745
            ],
            [
              -73.3200538,
              6.2755581
            ],
            [
              -73.3202001,
              6.275454
            ],
            [
              -73.3203521,
              6.2753571
            ],
            [
              -73.3205227,
              6.275265
            ],
            [
              -73.3206428,
              6.2752098
            ],
            [
              -73.3207659,
              6.2751601
            ],
            [
              -73.3208967,
              6.2751134
            ],
            [
              -73.3210297,
              6.2750711
            ],
            [
              -73.321213,
              6.275019
            ],
            [
              -73.3219501,
              6.2748343
            ],
            [
              -73.3221667,
              6.2747757
            ],
            [
              -73.3224014,
              6.2747054
            ],
            [
              -73.3225675,
              6.2746515
            ],
            [
              -73.3231812,
              6.2744452
            ],
            [
              -73.3234321,
              6.2743727
            ],
            [
              -73.3235722,
              6.2743376
            ],
            [
              -73.3237592,
              6.2742963
            ],
            [
              -73.3241327,
              6.2742287
            ],
            [
              -73.3252737,
              6.2740646
            ],
            [
              -73.3256685,
              6.274002
            ],
            [
              -73.3258651,
              6.2739671
            ],
            [
              -73.3262556,
              6.2738874
            ],
            [
              -73.3264525,
              6.2738405
            ],
            [
              -73.3270428,
              6.2736844
            ],
            [
              -73.3271903,
              6.2736485
            ],
            [
              -73.3273383,
              6.2736165
            ],
            [
              -73.3274869,
              6.2735897
            ],
            [
              -73.3277122,
              6.2735617
            ],
            [
              -73.3278272,
              6.2735537
            ],
            [
              -73.3279425,
              6.2735497
            ],
            [
              -73.3281315,
              6.2735512
            ],
            [
              -73.3283209,
              6.2735606
            ],
            [
              -73.3285095,
              6.2735756
            ],
            [
              -73.3291166,
              6.2736369
            ],
            [
              -73.3295124,
              6.2736683
            ],
            [
              -73.3298926,
              6.273687
            ],
            [
              -73.3302733,
              6.2736951
            ],
            [
              -73.3305934,
              6.2736924
            ],
            [
              -73.3308064,
              6.2736851
            ],
            [
              -73.3310192,
              6.2736731
            ],
            [
              -73.3313921,
              6.2736399
            ],
            [
              -73.3317643,
              6.273591
            ],
            [
              -73.3321766,
              6.2735179
            ],
            [
              -73.3324944,
              6.2734503
            ],
            [
              -73.3335003,
              6.273213
            ],
            [
              -73.3338335,
              6.2731409
            ],
            [
              -73.3342292,
              6.2730672
            ],
            [
              -73.3346579,
              6.273001
            ],
            [
              -73.3352995,
              6.2729188
            ],
            [
              -73.3376524,
              6.2726563
            ],
            [
              -73.339776,
              6.2724055
            ],
            [
              -73.3402051,
              6.2723521
            ],
            [
              -73.3406338,
              6.2722932
            ],
            [
              -73.3409307,
              6.2722449
            ],
            [
              -73.3410968,
              6.2722126
            ],
            [
              -73.3412613,
              6.2721744
            ],
            [
              -73.3414235,
              6.272128
            ],
            [
              -73.3415384,
              6.2720881
            ],
            [
              -73.3416514,
              6.272042
            ],
            [
              -73.3417818,
              6.271979
            ],
            [
              -73.3419088,
              6.2719067
            ],
            [
              -73.342098,
              6.2717777
            ],
            [
              -73.3422485,
              6.2716583
            ],
            [
              -73.3423959,
              6.2715291
            ],
            [
              -73.3425411,
              6.2713919
            ],
            [
              -73.3428264,
              6.2711003
            ],
            [
              -73.3429763,
              6.2709359
            ],
            [
              -73.3434616,
              6.2704458
            ],
            [
              -73.3434889,
              6.2704568
            ],
            [
              -73.3438835,
              6.2706425
            ],
            [
              -73.3442377,
              6.2708092
            ],
            [
              -73.3446421,
              6.2710182
            ],
            [
              -73.3456797,
              6.2715988
            ],
            [
              -73.3468588,
              6.2722853
            ],
            [
              -73.3480304,
              6.2729222
            ],
            [
              -73.3488238,
              6.2733004
            ],
            [
              -73.3497213,
              6.2736697
            ],
            [
              -73.3507514,
              6.2740241
            ],
            [
              -73.3513325,
              6.2741971
            ],
            [
              -73.3524267,
              6.2744851
            ],
            [
              -73.3550704,
              6.2751099
            ],
            [
              -73.356367,
              6.2754603
            ],
            [
              -73.3569807,
              6.2756529
            ],
            [
              -73.3575471,
              6.2758508
            ],
            [
              -73.3580768,
              6.2760559
            ],
            [
              -73.3585765,
              6.2762689
            ],
            [
              -73.3589586,
              6.2764566
            ],
            [
              -73.35884,
              6.2748959
            ],
            [
              -73.3589054,
              6.273
            ],
            [
              -73.3591669,
              6.2712348
            ],
            [
              -73.3601476,
              6.2691427
            ],
            [
              -73.3611936,
              6.2673121
            ],
            [
              -73.3629588,
              6.2644355
            ],
            [
              -73.3640702,
              6.2629972
            ],
            [
              -73.3650509,
              6.2611666
            ],
            [
              -73.3658354,
              6.2589438
            ],
            [
              -73.3659662,
              6.2573747
            ],
            [
              -73.3659662,
              6.2551518
            ],
            [
              -73.36577,
              6.2524714
            ],
            [
              -73.3656503,
              6.2508588
            ],
            [
              -73.3655622,
              6.2505285
            ],
            [
              -73.3655189,
              6.2503818
            ],
            [
              -73.3654616,
              6.2502093
            ],
            [
              -73.3653939,
              6.250034
            ],
            [
              -73.3653044,
              6.2498404
            ],
            [
              -73.3651996,
              6.249656
            ],
            [
              -73.3650967,
              6.249509
            ],
            [
              -73.3649821,
              6.2493737
            ],
            [
              -73.3648711,
              6.2492645
            ],
            [
              -73.3647523,
              6.2491656
            ],
            [
              -73.3646046,
              6.2490623
            ],
            [
              -73.3644499,
              6.2489699
            ],
            [
              -73.3642923,
              6.2488864
            ],
            [
              -73.3641317,
              6.248808
            ],
            [
              -73.3637126,
              6.2486176
            ],
            [
              -73.3628251,
              6.2482302
            ],
            [
              -73.3624547,
              6.2480608
            ],
            [
              -73.3620792,
              6.2478751
            ],
            [
              -73.3618893,
              6.2477729
            ],
            [
              -73.3617048,
              6.2476666
            ],
            [
              -73.3615236,
              6.2475549
            ],
            [
              -73.3613716,
              6.2474555
            ],
            [
              -73.3610741,
              6.2472475
            ],
            [
              -73.3607806,
              6.2470276
            ],
            [
              -73.3601867,
              6.2465603
            ],
            [
              -73.3598788,
              6.24633
            ],
            [
              -73.3597193,
              6.2462198
            ],
            [
              -73.3595567,
              6.2461154
            ],
            [
              -73.35939,
              6.2460184
            ],
            [
              -73.3592344,
              6.2459377
            ],
            [
              -73.3590754,
              6.2458637
            ],
            [
              -73.3589135,
              6.2457957
            ],
            [
              -73.3585859,
              6.2456752
            ],
            [
              -73.358036,
              6.2454936
            ],
            [
              -73.3578454,
              6.2454284
            ],
            [
              -73.3576572,
              6.2453586
            ],
            [
              -73.3574728,
              6.2452818
            ],
            [
              -73.3572703,
              6.2451826
            ],
            [
              -73.357092,
              6.2450782
            ],
            [
              -73.3569194,
              6.2449632
            ],
            [
              -73.3567509,
              6.2448404
            ],
            [
              -73.3564215,
              6.2445803
            ],
            [
              -73.3558409,
              6.2441017
            ],
            [
              -73.3556939,
              6.2439843
            ],
            [
              -73.3554354,
              6.2437885
            ],
            [
              -73.3553243,
              6.2437098
            ],
            [
              -73.3551048,
              6.2435655
            ],
            [
              -73.3549989,
              6.243501
            ],
            [
              -73.3547922,
              6.2433842
            ],
            [
              -73.3544966,
              6.2432352
            ],
            [
              -73.3542985,
              6.2431448
            ],
            [
              -73.3541195,
              6.2430686
            ],
            [
              -73.3537282,
              6.2429144
            ],
            [
              -73.353149,
              6.2426946
            ],
            [
              -73.3528381,
              6.2425697
            ],
            [
              -73.3526643,
              6.2424948
            ],
            [
              -73.3524927,
              6.2424162
            ],
            [
              -73.352244,
              6.242291
            ],
            [
              -73.3520654,
              6.2421899
            ],
            [
              -73.3519338,
              6.2421081
            ],
            [
              -73.3518058,
              6.2420215
            ],
            [
              -73.3516836,
              6.2419311
            ],
            [
              -73.3515655,
              6.2418356
            ],
            [
              -73.3514116,
              6.2416974
            ],
            [
              -73.3512877,
              6.2415741
            ],
            [
              -73.3510782,
              6.2413437
            ],
            [
              -73.3507753,
              6.2409885
            ],
            [
              -73.3506,
              6.2407926
            ],
            [
              -73.3504578,
              6.2406466
            ],
            [
              -73.350343,
              6.2405377
            ],
            [
              -73.3502244,
              6.2404329
            ],
            [
              -73.3500854,
              6.2403184
            ],
            [
              -73.3499424,
              6.2402085
            ],
            [
              -73.3496803,
              6.2400224
            ],
            [
              -73.3493673,
              6.2398163
            ],
            [
              -73.348722,
              6.2394029
            ],
            [
              -73.3484826,
              6.2392412
            ],
            [
              -73.3483059,
              6.2391151
            ],
            [
              -73.3481799,
              6.2390202
            ],
            [
              -73.3479326,
              6.2388202
            ],
            [
              -73.3478117,
              6.2387148
            ],
            [
              -73.347644,
              6.2385597
            ],
            [
              -73.347491,
              6.2384093
            ],
            [
              -73.3472098,
              6.2381129
            ],
            [
              -73.3469695,
              6.2378409
            ],
            [
              -73.3463328,
              6.2370864
            ],
            [
              -73.3461086,
              6.2368268
            ],
            [
              -73.3458847,
              6.2365784
            ],
            [
              -73.3457395,
              6.2364239
            ],
            [
              -73.3454911,
              6.2361724
            ],
            [
              -73.3452246,
              6.2359216
            ],
            [
              -73.345096,
              6.235807
            ],
            [
              -73.3448331,
              6.2355832
            ],
            [
              -73.3444473,
              6.2352753
            ],
            [
              -73.3438493,
              6.2348824
            ],
            [
              -73.3435921,
              6.2347567
            ],
            [
              -73.3435055,
              6.2346582
            ],
            [
              -73.3431528,
              6.2342812
            ],
            [
              -73.3429932,
              6.2341067
            ],
            [
              -73.3428353,
              6.2339261
            ],
            [
              -73.3426548,
              6.2337042
            ],
            [
              -73.3425006,
              6.2334946
            ],
            [
              -73.3423757,
              6.2333047
            ],
            [
              -73.3422841,
              6.2331488
            ],
            [
              -73.342201,
              6.2329907
            ],
            [
              -73.3421454,
              6.2328723
            ],
            [
              -73.3420947,
              6.2327529
            ],
            [
              -73.3420201,
              6.2325474
            ],
            [
              -73.341981,
              6.2324181
            ],
            [
              -73.3419473,
              6.232288
            ],
            [
              -73.3419107,
              6.232114
            ],
            [
              -73.3418829,
              6.2319392
            ],
            [
              -73.341863,
              6.2317617
            ],
            [
              -73.3418507,
              6.2315838
            ],
            [
              -73.3418446,
              6.2313833
            ],
            [
              -73.3418459,
              6.2311829
            ],
            [
              -73.3418519,
              6.2310217
            ],
            [
              -73.3418741,
              6.2307001
            ],
            [
              -73.3419022,
              6.2304184
            ],
            [
              -73.3419672,
              6.2298466
            ],
            [
              -73.3419842,
              6.2296281
            ],
            [
              -73.3419919,
              6.2293589
            ],
            [
              -73.3419826,
              6.2290712
            ],
            [
              -73.3419694,
              6.2289042
            ],
            [
              -73.341951,
              6.2287376
            ],
            [
              -73.3419225,
              6.2285376
            ],
            [
              -73.3418883,
              6.2283382
            ],
            [
              -73.3418053,
              6.2279347
            ],
            [
              -73.3416864,
              6.2274392
            ],
            [
              -73.3415543,
              6.2269502
            ],
            [
              -73.3414443,
              6.2265813
            ],
            [
              -73.3413812,
              6.2263855
            ],
            [
              -73.3412187,
              6.2259249
            ],
            [
              -73.3410574,
              6.2255145
            ],
            [
              -73.3408995,
              6.225143
            ],
            [
              -73.3407342,
              6.2247707
            ],
            [
              -73.3395095,
              6.2220869
            ],
            [
              -73.3392451,
              6.2214998
            ],
            [
              -73.3383595,
              6.2203191
            ],
            [
              -73.3374562,
              6.2190253
            ],
            [
              -73.3359498,
              6.216636
            ],
            [
              -73.3348453,
              6.2149437
            ],
            [
              -73.3348334,
              6.2121486
            ],
            [
              -73.3349276,
              6.2108505
            ],
            [
              -73.3356199,
              6.20945
            ],
            [
              -73.3364132,
              6.2083486
            ],
            [
              -73.3369085,
              6.2075479
            ],
            [
              -73.3378011,
              6.2063462
            ],
            [
              -73.3385957,
              6.2055442
            ],
            [
              -73.3392913,
              6.2049423
            ],
            [
              -73.3402854,
              6.2041395
            ],
            [
              -73.3406801,
              6.2031395
            ],
            [
              -73.3411754,
              6.2023388
            ],
            [
              -73.3425629,
              6.2002366
            ],
            [
              -73.3428583,
              6.1993369
            ],
            [
              -73.3429521,
              6.197939
            ],
            [
              -73.3438442,
              6.1966375
            ],
            [
              -73.3450378,
              6.1958338
            ],
            [
              -73.3458336,
              6.1953313
            ],
            [
              -73.34673,
              6.195028
            ],
            [
              -73.3476255,
              6.194525
            ],
            [
              -73.348221,
              6.1938237
            ],
            [
              -73.3490134,
              6.1925226
            ],
            [
              -73.3496089,
              6.1918213
            ],
            [
              -73.3501037,
              6.1909208
            ],
            [
              -73.3508948,
              6.1893202
            ],
            [
              -73.3517874,
              6.1881185
            ],
            [
              -73.3531812,
              6.1875136
            ],
            [
              -73.354078,
              6.1873101
            ],
            [
              -73.3560724,
              6.1872018
            ],
            [
              -73.3572646,
              6.1860986
            ],
            [
              -73.3584572,
              6.1850953
            ],
            [
              -73.3590488,
              6.1834955
            ],
            [
              -73.3592423,
              6.1820972
            ],
            [
              -73.3597371,
              6.1811967
            ],
            [
              -73.3600325,
              6.180297
            ],
            [
              -73.3601271,
              6.1790987
            ],
            [
              -73.3603228,
              6.1781995
            ],
            [
              -73.360799,
              6.1774578
            ],
            [
              -73.3612169,
              6.1754766
            ],
            [
              -73.3616249,
              6.1740015
            ],
            [
              -73.3623814,
              6.1724885
            ],
            [
              -73.3632768,
              6.1708895
            ],
            [
              -73.3639896,
              6.1693343
            ],
            [
              -73.3645043,
              6.1671789
            ],
            [
              -73.3649494,
              6.1653987
            ],
            [
              -73.3650949,
              6.1649622
            ],
            [
              -73.3653342,
              6.1646964
            ],
            [
              -73.365845,
              6.1644409
            ],
            [
              -73.3661804,
              6.1640682
            ],
            [
              -73.3664179,
              6.1633559
            ],
            [
              -73.3668036,
              6.161845
            ],
            [
              -73.3669926,
              6.1609314
            ],
            [
              -73.3676219,
              6.1593898
            ],
            [
              -73.3687062,
              6.1572848
            ],
            [
              -73.3694138,
              6.1556767
            ],
            [
              -73.3700212,
              6.1539186
            ],
            [
              -73.3707534,
              6.1521357
            ],
            [
              -73.3717421,
              6.1497436
            ],
            [
              -73.3721162,
              6.1489019
            ],
            [
              -73.3723169,
              6.1486304
            ],
            [
              -73.3715074,
              6.148207
            ],
            [
              -73.3710989,
              6.1479444
            ],
            [
              -73.3710087,
              6.147809
            ],
            [
              -73.3708864,
              6.1473504
            ],
            [
              -73.3707499,
              6.1469864
            ],
            [
              -73.3703704,
              6.1469322
            ],
            [
              -73.3701278,
              6.1470361
            ],
            [
              -73.3697495,
              6.1470652
            ],
            [
              -73.369172,
              6.1470652
            ],
            [
              -73.3680517,
              6.1467852
            ],
            [
              -73.3669286,
              6.1464001
            ],
            [
              -73.3653073,
              6.1461083
            ],
            [
              -73.3640014,
              6.146043
            ],
            [
              -73.3626107,
              6.1462416
            ],
            [
              -73.3619577,
              6.1466008
            ],
            [
              -73.3615999,
              6.1467201
            ],
            [
              -73.3610162,
              6.1468429
            ],
            [
              -73.3605204,
              6.1468739
            ],
            [
              -73.3597443,
              6.1469063
            ],
            [
              -73.3588037,
              6.1470684
            ],
            [
              -73.3582345,
              6.1471883
            ],
            [
              -73.3573234,
              6.1477458
            ],
            [
              -73.3561742,
              6.1479568
            ],
            [
              -73.3560027,
              6.1479484
            ],
            [
              -73.3544815,
              6.1478372
            ],
            [
              -73.3537964,
              6.1477926
            ],
            [
              -73.3533859,
              6.1477742
            ],
            [
              -73.3531845,
              6.147771
            ],
            [
              -73.3529856,
              6.1477741
            ],
            [
              -73.3528643,
              6.1477801
            ],
            [
              -73.3527441,
              6.1477896
            ],
            [
              -73.3525207,
              6.1478179
            ],
            [
              -73.3523891,
              6.1478418
            ],
            [
              -73.352259,
              6.1478709
            ],
            [
              -73.3521134,
              6.14791
            ],
            [
              -73.3519696,
              6.1479551
            ],
            [
              -73.3517642,
              6.1480296
            ],
            [
              -73.3515598,
              6.1481139
            ],
            [
              -73.3513582,
              6.1482049
            ],
            [
              -73.351003,
              6.1483798
            ],
            [
              -73.3506485,
              6.1485718
            ],
            [
              -73.3504055,
              6.1487172
            ],
            [
              -73.3502099,
              6.1488458
            ],
            [
              -73.3501149,
              6.1489131
            ],
            [
              -73.349903,
              6.1490761
            ],
            [
              -73.3497871,
              6.149173
            ],
            [
              -73.3496419,
              6.1493016
            ],
            [
              -73.3493612,
              6.1495701
            ],
            [
              -73.3492251,
              6.1497088
            ],
            [
              -73.3489147,
              6.1500384
            ],
            [
              -73.3487858,
              6.1501719
            ],
            [
              -73.3486859,
              6.1502693
            ],
            [
              -73.3485827,
              6.150363
            ],
            [
              -73.3484115,
              6.1505007
            ],
            [
              -73.3482314,
              6.1506232
            ],
            [
              -73.3481174,
              6.1506922
            ],
            [
              -73.347606,
              6.1509767
            ],
            [
              -73.3474282,
              6.1510797
            ],
            [
              -73.3472748,
              6.1511754
            ],
            [
              -73.347125,
              6.1512781
            ],
            [
              -73.3469957,
              6.1513771
            ],
            [
              -73.3468723,
              6.1514836
            ],
            [
              -73.3467837,
              6.1515699
            ],
            [
              -73.3467001,
              6.151661
            ],
            [
              -73.3466215,
              6.1517576
            ],
            [
              -73.3465492,
              6.1518585
            ],
            [
              -73.3464845,
              6.1519617
            ],
            [
              -73.3464269,
              6.1520673
            ],
            [
              -73.3463699,
              6.1521901
            ],
            [
              -73.3463232,
              6.1523113
            ],
            [
              -73.3462707,
              6.1524886
            ],
            [
              -73.3462465,
              6.1526057
            ],
            [
              -73.3462313,
              6.1529862
            ],
            [
              -73.3461659,
              6.1530405
            ],
            [
              -73.3459267,
              6.153252
            ],
            [
              -73.3458205,
              6.1533358
            ],
            [
              -73.3456578,
              6.1534378
            ],
            [
              -73.3454973,
              6.1535036
            ],
            [
              -73.3453252,
              6.1535359
            ],
            [
              -73.3450768,
              6.1535202
            ],
            [
              -73.3449157,
              6.1534803
            ],
            [
              -73.3447269,
              6.1534037
            ],
            [
              -73.3446032,
              6.1533376
            ],
            [
              -73.3444821,
              6.153261
            ],
            [
              -73.3442973,
              6.1531212
            ],
            [
              -73.3441283,
              6.1529672
            ],
            [
              -73.3439836,
              6.1528096
            ],
            [
              -73.3438852,
              6.152681
            ],
            [
              -73.3438073,
              6.1525388
            ],
            [
              -73.3436685,
              6.1525899
            ],
            [
              -73.3434141,
              6.1527238
            ],
            [
              -73.3433026,
              6.1527919
            ],
            [
              -73.3428619,
              6.1530942
            ],
            [
              -73.3427254,
              6.1531801
            ],
            [
              -73.3425878,
              6.1532559
            ],
            [
              -73.3424562,
              6.1533151
            ],
            [
              -73.3423231,
              6.1533606
            ],
            [
              -73.3421889,
              6.1533901
            ],
            [
              -73.3420341,
              6.1534024
            ],
            [
              -73.3416444,
              6.1533887
            ],
            [
              -73.341528,
              6.1533879
            ],
            [
              -73.3413655,
              6.1534039
            ],
            [
              -73.3411562,
              6.1534581
            ],
            [
              -73.3409597,
              6.1535516
            ],
            [
              -73.34082,
              6.1536415
            ],
            [
              -73.3407034,
              6.1537331
            ],
            [
              -73.3405915,
              6.1538333
            ],
            [
              -73.3404837,
              6.1539401
            ],
            [
              -73.3403835,
              6.1540478
            ],
            [
              -73.3402861,
              6.1541594
            ],
            [
              -73.3401403,
              6.1543373
            ],
            [
              -73.3399809,
              6.1545416
            ],
            [
              -73.3392365,
              6.1555229
            ],
            [
              -73.3390495,
              6.1557571
            ],
            [
              -73.3388517,
              6.1559898
            ],
            [
              -73.3387398,
              6.1561119
            ],
            [
              -73.3386235,
              6.1562303
            ],
            [
              -73.3385025,
              6.1563445
            ],
            [
              -73.3381158,
              6.1566985
            ],
            [
              -73.3380173,
              6.1568166
            ],
            [
              -73.3379547,
              6.1569698
            ],
            [
              -73.3378679,
              6.1572675
            ],
            [
              -73.3378371,
              6.1574024
            ],
            [
              -73.3378105,
              6.1575408
            ],
            [
              -73.3377895,
              6.1576807
            ],
            [
              -73.3377749,
              6.1578216
            ],
            [
              -73.3377671,
              6.1579615
            ],
            [
              -73.3377659,
              6.1580996
            ],
            [
              -73.3377716,
              6.1582353
            ],
            [
              -73.3377847,
              6.1583679
            ],
            [
              -73.3378033,
              6.158486
            ],
            [
              -73.3378262,
              6.1586011
            ],
            [
              -73.3378797,
              6.1588387
            ],
            [
              -73.3379028,
              6.1589603
            ],
            [
              -73.3379151,
              6.1590783
            ],
            [
              -73.337905,
              6.1592229
            ],
            [
              -73.3378458,
              6.1593948
            ],
            [
              -73.3377341,
              6.1595382
            ],
            [
              -73.337609,
              6.1596356
            ],
            [
              -73.3375075,
              6.1596923
            ],
            [
              -73.3373983,
              6.1597426
            ],
            [
              -73.3372835,
              6.1597876
            ],
            [
              -73.3371645,
              6.1598286
            ],
            [
              -73.33692,
              6.1599007
            ],
            [
              -73.3366708,
              6.1599642
            ],
            [
              -73.3360278,
              6.1601186
            ],
            [
              -73.3357822,
              6.1601868
            ],
            [
              -73.3356471,
              6.1602311
            ],
            [
              -73.3355142,
              6.1602812
            ],
            [
              -73.3353843,
              6.1603385
            ],
            [
              -73.3352585,
              6.1604049
            ],
            [
              -73.3351275,
              6.16049
            ],
            [
              -73.3350033,
              6.1605882
            ],
            [
              -73.3349055,
              6.1606796
            ],
            [
              -73.3348116,
              6.1607785
            ],
            [
              -73.3347208,
              6.1608836
            ],
            [
              -73.3345794,
              6.1610626
            ],
            [
              -73.3344264,
              6.1612751
            ],
            [
              -73.3342854,
              6.1614873
            ],
            [
              -73.3340726,
              6.1618327
            ],
            [
              -73.3340132,
              6.1619577
            ],
            [
              -73.3339576,
              6.1620997
            ],
            [
              -73.3339037,
              6.1622809
            ],
            [
              -73.3338662,
              6.1624742
            ],
            [
              -73.3338542,
              6.1625965
            ],
            [
              -73.3338485,
              6.1627965
            ],
            [
              -73.3338626,
              6.1629904
            ],
            [
              -73.333911,
              6.163218
            ],
            [
              -73.3340311,
              6.1635585
            ],
            [
              -73.3340641,
              6.1636708
            ],
            [
              -73.3340881,
              6.1638663
            ],
            [
              -73.3340655,
              6.1641825
            ],
            [
              -73.3340619,
              6.1643636
            ],
            [
              -73.3340933,
              6.1645582
            ],
            [
              -73.3341466,
              6.164701
            ],
            [
              -73.3342507,
              6.1648869
            ],
            [
              -73.3343396,
              6.165001
            ],
            [
              -73.3344486,
              6.1651014
            ],
            [
              -73.3345424,
              6.165165
            ],
            [
              -73.3346456,
              6.1652131
            ],
            [
              -73.334792,
              6.165252
            ],
            [
              -73.3349056,
              6.1652685
            ],
            [
              -73.3350187,
              6.165262
            ],
            [
              -73.3349999,
              6.1653871
            ],
            [
              -73.3349095,
              6.1655864
            ],
            [
              -73.3347225,
              6.1659086
            ],
            [
              -73.3346261,
              6.1660854
            ],
            [
              -73.334468,
              6.1664306
            ],
            [
              -73.334406,
              6.1665442
            ],
            [
              -73.3343322,
              6.1666428
            ],
            [
              -73.3342472,
              6.1667182
            ],
            [
              -73.3340985,
              6.1667935
            ],
            [
              -73.333942,
              6.1668327
            ],
            [
              -73.3338016,
              6.1668408
            ],
            [
              -73.3336567,
              6.1668347
            ],
            [
              -73.3333181,
              6.1668049
            ],
            [
              -73.3331956,
              6.1668008
            ],
            [
              -73.3330759,
              6.1668069
            ],
            [
              -73.332941,
              6.166834
            ],
            [
              -73.3327714,
              6.1669077
            ],
            [
              -73.3326498,
              6.1669997
            ],
            [
              -73.3325462,
              6.1671201
            ],
            [
              -73.3324608,
              6.1672489
            ],
            [
              -73.3323973,
              6.1673654
            ],
            [
              -73.3322753,
              6.1676086
            ],
            [
              -73.3322102,
              6.1677293
            ],
            [
              -73.3321383,
              6.1678459
            ],
            [
              -73.332057,
              6.1679558
            ],
            [
              -73.3319373,
              6.1680815
            ],
            [
              -73.3318002,
              6.168191
            ],
            [
              -73.3316281,
              6.168294
            ],
            [
              -73.3314411,
              6.168379
            ],
            [
              -73.3312471,
              6.1684479
            ],
            [
              -73.3310455,
              6.1685057
            ],
            [
              -73.3308808,
              6.1685458
            ],
            [
              -73.3303791,
              6.1686581
            ],
            [
              -73.330213,
              6.1687009
            ],
            [
              -73.3300492,
              6.16875
            ],
            [
              -73.329889,
              6.1688074
            ],
            [
              -73.3297337,
              6.1688758
            ],
            [
              -73.3295742,
              6.168964
            ],
            [
              -73.3294226,
              6.1690673
            ],
            [
              -73.3292721,
              6.1691912
            ],
            [
              -73.3291291,
              6.1693285
            ],
            [
              -73.3290174,
              6.1694483
            ],
            [
              -73.3289086,
              6.1695741
            ],
            [
              -73.3288018,
              6.1697049
            ],
            [
              -73.3285945,
              6.1699731
            ],
            [
              -73.3283794,
              6.170263
            ],
            [
              -73.3281609,
              6.1705727
            ],
            [
              -73.3280586,
              6.1707295
            ],
            [
              -73.3279638,
              6.1708874
            ],
            [
              -73.3278799,
              6.1710452
            ],
            [
              -73.3278135,
              6.1711918
            ],
            [
              -73.3277614,
              6.1713314
            ],
            [
              -73.3277191,
              6.1714882
            ],
            [
              -73.3276961,
              6.1718976
            ],
            [
              -73.3275975,
              6.1717849
            ],
            [
              -73.3274595,
              6.1716715
            ],
            [
              -73.3273023,
              6.1715704
            ],
            [
              -73.3271317,
              6.1714773
            ],
            [
              -73.3270228,
              6.1714252
            ],
            [
              -73.3262127,
              6.1708639
            ],
            [
              -73.3262058,
              6.1708545
            ],
            [
              -73.3257794,
              6.1703535
            ],
            [
              -73.3255084,
              6.1700727
            ],
            [
              -73.3249098,
              6.1695061
            ],
            [
              -73.3237474,
              6.1684539
            ],
            [
              -73.3232276,
              6.1679452
            ],
            [
              -73.3228114,
              6.1674958
            ],
            [
              -73.3225934,
              6.1672399
            ],
            [
              -73.3222326,
              6.1667781
            ],
            [
              -73.321913,
              6.166322
            ],
            [
              -73.321607,
              6.1658345
            ],
            [
              -73.3213256,
              6.1653325
            ],
            [
              -73.3210601,
              6.1648003
            ],
            [
              -73.3208122,
              6.1642379
            ],
            [
              -73.3205834,
              6.1636458
            ],
            [
              -73.3203046,
              6.1627902
            ],
            [
              -73.3200688,
              6.1618843
            ],
            [
              -73.3199679,
              6.1614101
            ],
            [
              -73.3198067,
              6.1604395
            ],
            [
              -73.3197476,
              6.159944
            ],
            [
              -73.3196922,
              6.1592644
            ],
            [
              -73.3196672,
              6.1585843
            ],
            [
              -73.3196884,
              6.1576309
            ],
            [
              -73.3197603,
              6.1568552
            ],
            [
              -73.3198101,
              6.1565084
            ],
            [
              -73.3199386,
              6.1558432
            ],
            [
              -73.3201163,
              6.1551592
            ],
            [
              -73.3203501,
              6.1544318
            ],
            [
              -73.3211137,
              6.1523309
            ],
            [
              -73.3213521,
              6.1515228
            ],
            [
              -73.3214362,
              6.1511583
            ],
            [
              -73.3215449,
              6.1504916
            ],
            [
              -73.3215819,
              6.1500738
            ],
            [
              -73.3215938,
              6.1495158
            ],
            [
              -73.3215605,
              6.1489286
            ],
            [
              -73.3214765,
              6.1483182
            ],
            [
              -73.3213383,
              6.1476931
            ],
            [
              -73.3211443,
              6.1470619
            ],
            [
              -73.3208971,
              6.1464384
            ],
            [
              -73.3206019,
              6.1458349
            ],
            [
              -73.3202667,
              6.1452632
            ],
            [
              -73.3199078,
              6.1447412
            ],
            [
              -73.3195474,
              6.1442849
            ],
            [
              -73.3191553,
              6.1438474
            ],
            [
              -73.3186907,
              6.1433901
            ],
            [
              -73.3183429,
              6.1430821
            ],
            [
              -73.3179395,
              6.1427553
            ],
            [
              -73.3173416,
              6.1423211
            ],
            [
              -73.316717,
              6.1419221
            ],
            [
              -73.3162034,
              6.1416317
            ],
            [
              -73.3156587,
              6.1413579
            ],
            [
              -73.3150917,
              6.1411067
            ],
            [
              -73.3144825,
              6.1408707
            ],
            [
              -73.3138237,
              6.1406494
            ],
            [
              -73.3131032,
              6.140441
            ],
            [
              -73.3123818,
              6.1402603
            ],
            [
              -73.3115668,
              6.1400813
            ],
            [
              -73.3092106,
              6.139629
            ],
            [
              -73.3077822,
              6.1393337
            ],
            [
              -73.3071415,
              6.1391803
            ],
            [
              -73.3064639,
              6.1389969
            ],
            [
              -73.305847,
              6.1388064
            ],
            [
              -73.3052773,
              6.138607
            ],
            [
              -73.3047473,
              6.1383986
            ],
            [
              -73.3041502,
              6.1381347
            ],
            [
              -73.3035925,
              6.1378591
            ],
            [
              -73.3030662,
              6.137573
            ],
            [
              -73.3025636,
              6.1372785
            ],
            [
              -73.3008226,
              6.1362053
            ],
            [
              -73.30044,
              6.135996
            ],
            [
              -73.3000851,
              6.1358225
            ],
            [
              -73.2997734,
              6.1356893
            ],
            [
              -73.2994496,
              6.1355717
            ],
            [
              -73.2988709,
              6.1354153
            ],
            [
              -73.2982223,
              6.1353194
            ],
            [
              -73.2978071,
              6.1352993
            ],
            [
              -73.297364,
              6.135311
            ],
            [
              -73.2968958,
              6.1353586
            ],
            [
              -73.2964073,
              6.1354444
            ],
            [
              -73.2959027,
              6.1355697
            ],
            [
              -73.2953932,
              6.135732
            ],
            [
              -73.2948886,
              6.1359261
            ],
            [
              -73.2944007,
              6.1361433
            ],
            [
              -73.293895,
              6.1363965
            ],
            [
              -73.2921489,
              6.1373866
            ],
            [
              -73.2915148,
              6.1377098
            ],
            [
              -73.2911278,
              6.1378783
            ],
            [
              -73.2905639,
              6.1380806
            ],
            [
              -73.2900939,
              6.1382151
            ],
            [
              -73.2885959,
              6.1385521
            ],
            [
              -73.2878606,
              6.1387499
            ],
            [
              -73.2874105,
              6.1389121
            ],
            [
              -73.2871132,
              6.1390441
            ],
            [
              -73.2867694,
              6.1392267
            ],
            [
              -73.2864085,
              6.1394583
            ],
            [
              -73.2862239,
              6.1395946
            ],
            [
              -73.2858781,
              6.139887
            ],
            [
              -73.2855317,
              6.140235
            ],
            [
              -73.285192,
              6.1406403
            ],
            [
              -73.2848679,
              6.1410993
            ],
            [
              -73.2845657,
              6.1416079
            ],
            [
              -73.284296,
              6.1421478
            ],
            [
              -73.2840642,
              6.1426991
            ],
            [
              -73.2838733,
              6.1432372
            ],
            [
              -73.2836407,
              6.1440402
            ],
            [
              -73.2832774,
              6.1454837
            ],
            [
              -73.2830989,
              6.1459453
            ],
            [
              -73.2830173,
              6.1460862
            ],
            [
              -73.282868,
              6.1462613
            ],
            [
              -73.2827476,
              6.1463451
            ],
            [
              -73.2826676,
              6.1463794
            ],
            [
              -73.2825401,
              6.1464068
            ],
            [
              -73.2824047,
              6.1464076
            ],
            [
              -73.2822112,
              6.1463713
            ],
            [
              -73.2820878,
              6.1463305
            ],
            [
              -73.2817689,
              6.146179
            ],
            [
              -73.2813901,
              6.1459408
            ],
            [
              -73.2809896,
              6.1456492
            ],
            [
              -73.279965,
              6.1448489
            ],
            [
              -73.2793546,
              6.144397
            ],
            [
              -73.2788051,
              6.1440329
            ],
            [
              -73.278328,
              6.1437596
            ],
            [
              -73.2778998,
              6.1435532
            ],
            [
              -73.2775179,
              6.1434027
            ],
            [
              -73.2769783,
              6.1432464
            ],
            [
              -73.2763364,
              6.1431464
            ],
            [
              -73.2758936,
              6.1431327
            ],
            [
              -73.2755167,
              6.1431603
            ],
            [
              -73.2752227,
              6.1432112
            ],
            [
              -73.2749838,
              6.1432753
            ],
            [
              -73.2747944,
              6.1433437
            ],
            [
              -73.2744492,
              6.1435212
            ],
            [
              -73.2742112,
              6.1436957
            ],
            [
              -73.2737002,
              6.1441674
            ],
            [
              -73.2735557,
              6.1442816
            ],
            [
              -73.2734303,
              6.1443614
            ],
            [
              -73.2732866,
              6.14443
            ],
            [
              -73.2730947,
              6.1444881
            ],
            [
              -73.272946,
              6.1445116
            ],
            [
              -73.2727103,
              6.1445172
            ],
            [
              -73.2722671,
              6.1444376
            ],
            [
              -73.2721176,
              6.1443856
            ],
            [
              -73.2718069,
              6.1442355
            ],
            [
              -73.2716425,
              6.144132
            ],
            [
              -73.2713042,
              6.143862
            ],
            [
              -73.2709465,
              6.1434846
            ],
            [
              -73.2707591,
              6.143245
            ],
            [
              -73.2705658,
              6.1429649
            ],
            [
              -73.2702378,
              6.1424085
            ],
            [
              -73.2698859,
              6.1416949
            ],
            [
              -73.2695578,
              6.1409329
            ],
            [
              -73.2687535,
              6.1389355
            ],
            [
              -73.2682966,
              6.1379382
            ],
            [
              -73.268047,
              6.1374686
            ],
            [
              -73.2678052,
              6.1370637
            ],
            [
              -73.2675693,
              6.1367129
            ],
            [
              -73.2673396,
              6.1364087
            ],
            [
              -73.2671806,
              6.1362178
            ],
            [
              -73.2668709,
              6.1358862
            ],
            [
              -73.2665688,
              6.135607
            ],
            [
              -73.266267,
              6.1353639
            ],
            [
              -73.2658829,
              6.1350944
            ],
            [
              -73.2656216,
              6.1349295
            ],
            [
              -73.2646627,
              6.1343639
            ],
            [
              -73.2643639,
              6.1341704
            ],
            [
              -73.2640244,
              6.1339173
            ],
            [
              -73.2637507,
              6.1336743
            ],
            [
              -73.2635103,
              6.133427
            ],
            [
              -73.2629561,
              6.1327754
            ],
            [
              -73.2624973,
              6.1322696
            ],
            [
              -73.2621437,
              6.1319662
            ],
            [
              -73.2619507,
              6.131835
            ],
            [
              -73.2616734,
              6.1316826
            ],
            [
              -73.2612813,
              6.1315225
            ],
            [
              -73.261063,
              6.1314542
            ],
            [
              -73.2607963,
              6.1313857
            ],
            [
              -73.2603043,
              6.1312903
            ],
            [
              -73.2579426,
              6.1309771
            ],
            [
              -73.2571172,
              6.1308331
            ],
            [
              -73.2552133,
              6.1304705
            ],
            [
              -73.2545507,
              6.1303734
            ],
            [
              -73.2539374,
              6.1303128
            ],
            [
              -73.253119,
              6.1302837
            ],
            [
              -73.252216,
              6.1303178
            ],
            [
              -73.2515835,
              6.1303737
            ],
            [
              -73.2499161,
              6.1305712
            ],
            [
              -73.2490131,
              6.1306609
            ],
            [
              -73.2484232,
              6.1306988
            ],
            [
              -73.2477213,
              6.130718
            ],
            [
              -73.2470271,
              6.1307071
            ],
            [
              -73.246316,
              6.1306639
            ],
            [
              -73.2454458,
              6.1305662
            ],
            [
              -73.2445524,
              6.1304149
            ],
            [
              -73.2436369,
              6.1302069
            ],
            [
              -73.2427014,
              6.1299408
            ],
            [
              -73.2417477,
              6.1296153
            ],
            [
              -73.2407795,
              6.1292307
            ],
            [
              -73.2398006,
              6.1287878
            ],
            [
              -73.2388153,
              6.1282884
            ],
            [
              -73.2380431,
              6.1278594
            ],
            [
              -73.2373551,
              6.1277589
            ],
            [
              -73.2363315,
              6.1276387
            ],
            [
              -73.2354915,
              6.1274673
            ],
            [
              -73.2341522,
              6.1274334
            ],
            [
              -73.2332677,
              6.127817
            ],
            [
              -73.2323842,
              6.128454
            ],
            [
              -73.2323893,
              6.1297209
            ],
            [
              -73.2327777,
              6.1318732
            ],
            [
              -73.2329109,
              6.1335196
            ],
            [
              -73.2327904,
              6.1350404
            ],
            [
              -73.2324143,
              6.1359288
            ],
            [
              -73.2315328,
              6.1370726
            ],
            [
              -73.2312847,
              6.1383405
            ],
            [
              -73.2305309,
              6.1397372
            ],
            [
              -73.2291441,
              6.1411364
            ],
            [
              -73.2291482,
              6.1421499
            ],
            [
              -73.2299107,
              6.142907
            ],
            [
              -73.2310555,
              6.1442961
            ],
            [
              -73.2324568,
              6.1465075
            ],
            [
              -73.2341141,
              6.1494148
            ],
            [
              -73.235261,
              6.1513106
            ],
            [
              -73.2361573,
              6.1538408
            ],
            [
              -73.2366708,
              6.1556124
            ],
            [
              -73.23744,
              6.1580165
            ],
            [
              -73.2374472,
              6.1597902
            ],
            [
              -73.2368184,
              6.1608062
            ],
            [
              -73.2354285,
              6.1614453
            ],
            [
              -73.2296056,
              6.1614689
            ],
            [
              -73.2274563,
              6.162111
            ],
            [
              -73.2256917,
              6.1640185
            ],
            [
              -73.224435,
              6.1663041
            ],
            [
              -73.2229298,
              6.1697309
            ],
            [
              -73.2215495,
              6.1727771
            ],
            [
              -73.2206716,
              6.1748078
            ],
            [
              -73.2204265,
              6.1768359
            ],
            [
              -73.2208134,
              6.178608
            ],
            [
              -73.2213305,
              6.1812665
            ],
            [
              -73.2198221,
              6.1839332
            ],
            [
              -73.218814,
              6.1850775
            ],
            [
              -73.2179345,
              6.1867281
            ],
            [
              -73.2174363,
              6.1887572
            ],
            [
              -73.2155497,
              6.1918054
            ],
            [
              -73.2136599,
              6.1940936
            ],
            [
              -73.2117656,
              6.1952415
            ],
            [
              -73.2105032,
              6.1961334
            ],
            [
              -73.2088606,
              6.1969002
            ],
            [
              -73.2077273,
              6.1984251
            ],
            [
              -73.2065946,
              6.2000767
            ],
            [
              -73.2066017,
              6.2018504
            ],
            [
              -73.2078722,
              6.2029855
            ],
            [
              -73.208767,
              6.2051357
            ],
            [
              -73.2087711,
              6.2061493
            ],
            [
              -73.2083954,
              6.2071644
            ],
            [
              -73.2073892,
              6.2088154
            ],
            [
              -73.2075224,
              6.2104619
            ],
            [
              -73.2075377,
              6.2142627
            ],
            [
              -73.2066623,
              6.2169269
            ],
            [
              -73.2057867,
              6.2195783
            ],
            [
              -73.2050375,
              6.2221532
            ],
            [
              -73.2059339,
              6.2246835
            ],
            [
              -73.2073357,
              6.2269584
            ],
            [
              -73.2068354,
              6.2284808
            ],
            [
              -73.2062121,
              6.2308905
            ],
            [
              -73.2062392,
              6.2376052
            ],
            [
              -73.2061243,
              6.2405197
            ],
            [
              -73.206132,
              6.2424201
            ],
            [
              -73.2053831,
              6.2450837
            ],
            [
              -73.2048844,
              6.2469861
            ],
            [
              -73.2036301,
              6.2499052
            ],
            [
              -73.2032543,
              6.2509203
            ],
            [
              -73.203261,
              6.2525673
            ],
            [
              -73.202386,
              6.2553581
            ],
            [
              -73.2006196,
              6.2568856
            ],
            [
              -73.2005006,
              6.2587865
            ],
            [
              -73.201776,
              6.2610619
            ],
            [
              -73.2017836,
              6.2629623
            ],
            [
              -73.2010317,
              6.2648658
            ],
            [
              -73.2030032,
              6.2827218
            ],
            [
              -73.2047867,
              6.2853752
            ],
            [
              -73.2064404,
              6.2872689
            ],
            [
              -73.2079696,
              6.2896698
            ],
            [
              -73.2078497,
              6.2913174
            ],
            [
              -73.2078657,
              6.2952448
            ],
            [
              -73.2090218,
              6.2992943
            ],
            [
              -73.2115671,
              6.3024513
            ],
            [
              -73.2125848,
              6.3035874
            ],
            [
              -73.2148717,
              6.3054784
            ],
            [
              -73.2165235,
              6.3068653
            ],
            [
              -73.219689,
              6.3068523
            ],
            [
              -73.2214606,
              6.3065916
            ],
            [
              -73.2251321,
              6.3064498
            ],
            [
              -73.2279177,
              6.3064383
            ],
            [
              -73.2279836,
              6.3064644
            ],
            [
              -73.2304543,
              6.3074414
            ],
            [
              -73.2315975,
              6.3083235
            ],
            [
              -73.2330682,
              6.3090755
            ],
            [
              -73.233616,
              6.3087435
            ],
            [
              -73.2368468,
              6.3087301
            ],
            [
              -73.2384189,
              6.310095
            ],
            [
              -73.2395019,
              6.3115599
            ],
            [
              -73.2409733,
              6.3122395
            ],
            [
              -73.2443031,
              6.3125195
            ],
            [
              -73.2464549,
              6.3120208
            ],
            [
              -73.2479243,
              6.3122106
            ],
            [
              -73.2492015,
              6.3132828
            ],
            [
              -73.2500875,
              6.3144546
            ],
            [
              -73.2516568,
              6.3151337
            ],
            [
              -73.2543021,
              6.3156124
            ],
            [
              -73.2561647,
              6.3161924
            ],
            [
              -73.2582244,
              6.3170654
            ],
            [
              -73.2600894,
              6.318233
            ],
            [
              -73.2619553,
              6.3195966
            ],
            [
              -73.2629397,
              6.3208659
            ],
            [
              -73.2639228,
              6.3218413
            ],
            [
              -73.2651042,
              6.3234036
            ],
            [
              -73.2668747,
              6.3253553
            ],
            [
              -73.2683478,
              6.3264266
            ],
            [
              -73.269625,
              6.3274987
            ],
            [
              -73.2710965,
              6.3281782
            ],
            [
              -73.2726675,
              6.3292491
            ],
            [
              -73.2736515,
              6.3304204
            ],
            [
              -73.2747354,
              6.332081
            ],
            [
              -73.2757199,
              6.3333503
            ],
            [
              -73.2779205,
              6.3353937
            ]
          ]
        ]
      },
      "id": "relation/1315459"
    }
  ]
}