{
  "type": "FeatureCollection",
  "features": [
    {
      "type": "Feature",
      "properties": {
        "@id": "relation/1315454",
        "DANE:area": "41.00",
        "DANE:departamento": "68",
        "admin_level": "6",
        "boundary": "administrative",
        "clcfile": "MunicipiosDepartamentos/ADM_Municipios.shp",
        "divipola": "68013",
        "entidad_te": "Cabecera Municipal",
        "is_in:country": "Colombia",
        "is_in:state": "Santander",
        "name": "Aguada",
        "objectid": "3731",
        "source": "OCHA - SIGOT",
        "type": "boundary",
        "wikidata": "Q1656766",
        "wikipedia": "es:Aguada (Santander)"
      },
      "geometry": {
        "type": "Polygon",
        "coordinates": [
          [
            [
              -73.5295596,
              6.2163701
            ],
            [
              -73.5305939,
              6.2178122
            ],
            [
              -73.5313128,
              6.2189691
            ],
            [
              -73.5317628,
              6.2198595
            ],
            [
              -73.5329301,
              6.2215498
            ],
            [
              -73.5337356,
              6.2221708
            ],
            [
              -73.5346316,
              6.2230591
            ],
            [
              -73.5359743,
              6.2241239
            ],
            [
              -73.537497,
              6.2255448
            ],
            [
              -73.5383909,
              6.2259868
            ],
            [
              -73.5408063,
              6.2275821
            ],
            [
              -73.5416994,
              6.2278456
            ],
            [
              -73.5426833,
              6.2284658
            ],
            [
              -73.5439327,
              6.2286384
            ],
            [
              -73.5495512,
              6.2286121
            ],
            [
              -73.5505326,
              6.2286968
            ],
            [
              -73.5514266,
              6.2291388
            ],
            [
              -73.5527697,
              6.2302927
            ],
            [
              -73.5530427,
              6.2314517
            ],
            [
              -73.5531378,
              6.2327007
            ],
            [
              -73.5531432,
              6.2338609
            ],
            [
              -73.5534162,
              6.2350198
            ],
            [
              -73.5542251,
              6.2363548
            ],
            [
              -73.5544093,
              6.2376034
            ],
            [
              -73.5547703,
              6.2384941
            ],
            [
              -73.5561147,
              6.2399158
            ],
            [
              -73.5573675,
              6.2408023
            ],
            [
              -73.5581748,
              6.2417803
            ],
            [
              -73.5588066,
              6.2433837
            ],
            [
              -73.5588117,
              6.2444547
            ],
            [
              -73.5591128,
              6.2452279
            ],
            [
              -73.559019,
              6.2452719
            ],
            [
              -73.5589424,
              6.2453594
            ],
            [
              -73.5588796,
              6.2454812
            ],
            [
              -73.5588328,
              6.2456257
            ],
            [
              -73.5587985,
              6.2458184
            ],
            [
              -73.5587881,
              6.2460376
            ],
            [
              -73.5588045,
              6.2462627
            ],
            [
              -73.5588435,
              6.2464756
            ],
            [
              -73.5589371,
              6.2467747
            ],
            [
              -73.5590078,
              6.2469372
            ],
            [
              -73.5591025,
              6.2471156
            ],
            [
              -73.5592297,
              6.2473132
            ],
            [
              -73.5593906,
              6.2475204
            ],
            [
              -73.5595854,
              6.2477299
            ],
            [
              -73.559806,
              6.2479296
            ],
            [
              -73.5600404,
              6.2481105
            ],
            [
              -73.5603078,
              6.2482874
            ],
            [
              -73.5606113,
              6.2484606
            ],
            [
              -73.5612529,
              6.2487656
            ],
            [
              -73.5620333,
              6.2490813
            ],
            [
              -73.5627351,
              6.2493449
            ],
            [
              -73.5633898,
              6.2495701
            ],
            [
              -73.5639094,
              6.2497248
            ],
            [
              -73.5644289,
              6.2498537
            ],
            [
              -73.5650168,
              6.24997
            ],
            [
              -73.5656622,
              6.2500686
            ],
            [
              -73.5668484,
              6.2502204
            ],
            [
              -73.5672661,
              6.2502889
            ],
            [
              -73.567762,
              6.2503979
            ],
            [
              -73.5680658,
              6.2504829
            ],
            [
              -73.5684753,
              6.2506221
            ],
            [
              -73.569061,
              6.2508677
            ],
            [
              -73.5694347,
              6.2512241
            ],
            [
              -73.5703563,
              6.2508012
            ],
            [
              -73.5705037,
              6.2494047
            ],
            [
              -73.5705251,
              6.2489655
            ],
            [
              -73.5704834,
              6.2487216
            ],
            [
              -73.5701203,
              6.2481801
            ],
            [
              -73.5700386,
              6.2478238
            ],
            [
              -73.5701276,
              6.2474582
            ],
            [
              -73.5704879,
              6.2468161
            ],
            [
              -73.5705633,
              6.2464268
            ],
            [
              -73.5705305,
              6.2460333
            ],
            [
              -73.5703246,
              6.2454639
            ],
            [
              -73.570292,
              6.2448503
            ],
            [
              -73.5703133,
              6.242889
            ],
            [
              -73.5703638,
              6.2426417
            ],
            [
              -73.5705302,
              6.242231
            ],
            [
              -73.5705712,
              6.2418925
            ],
            [
              -73.5705778,
              6.2402922
            ],
            [
              -73.5705219,
              6.239761
            ],
            [
              -73.5700253,
              6.2384694
            ],
            [
              -73.569073,
              6.2377659
            ],
            [
              -73.5686629,
              6.2376063
            ],
            [
              -73.5676151,
              6.2374185
            ],
            [
              -73.5672858,
              6.2373174
            ],
            [
              -73.56699,
              6.23713
            ],
            [
              -73.5658857,
              6.2362096
            ],
            [
              -73.5655895,
              6.2360269
            ],
            [
              -73.5651678,
              6.2359252
            ],
            [
              -73.5632917,
              6.2356888
            ],
            [
              -73.5630419,
              6.2355789
            ],
            [
              -73.5626734,
              6.2352594
            ],
            [
              -73.562436,
              6.2350084
            ],
            [
              -73.5618961,
              6.234101
            ],
            [
              -73.5619612,
              6.2331987
            ],
            [
              -73.5616102,
              6.2322982
            ],
            [
              -73.5595827,
              6.2287689
            ],
            [
              -73.5595069,
              6.2273814
            ],
            [
              -73.5594916,
              6.2241202
            ],
            [
              -73.5594174,
              6.2230797
            ],
            [
              -73.5580866,
              6.2202409
            ],
            [
              -73.5580114,
              6.2189923
            ],
            [
              -73.5580045,
              6.2175351
            ],
            [
              -73.558067,
              6.2160776
            ],
            [
              -73.558751,
              6.2140621
            ],
            [
              -73.5588845,
              6.2129512
            ],
            [
              -73.5588659,
              6.208996
            ],
            [
              -73.5586508,
              6.2074705
            ],
            [
              -73.5572582,
              6.206228
            ],
            [
              -73.556283,
              6.2052611
            ],
            [
              -73.5556557,
              6.2045701
            ],
            [
              -73.5553042,
              6.2035309
            ],
            [
              -73.5550197,
              6.2020056
            ],
            [
              -73.5550122,
              6.2004097
            ],
            [
              -73.5554224,
              6.1991588
            ],
            [
              -73.556036,
              6.1969354
            ],
            [
              -73.5563779,
              6.1958929
            ],
            [
              -73.5564423,
              6.1948518
            ],
            [
              -73.5564329,
              6.1928395
            ],
            [
              -73.5562859,
              6.191036
            ],
            [
              -73.5553048,
              6.1888201
            ],
            [
              -73.554954,
              6.1879197
            ],
            [
              -73.5534904,
              6.1863097
            ],
            [
              -73.5526549,
              6.1855503
            ],
            [
              -73.5520254,
              6.1843736
            ],
            [
              -73.5517438,
              6.1834728
            ],
            [
              -73.5515316,
              6.1825717
            ],
            [
              -73.5515226,
              6.1806289
            ],
            [
              -73.5517938,
              6.1793092
            ],
            [
              -73.552343,
              6.178127
            ],
            [
              -73.5536529,
              6.1765249
            ],
            [
              -73.555166,
              6.173881
            ],
            [
              -73.5560544,
              6.1711012
            ],
            [
              -73.5570843,
              6.1689453
            ],
            [
              -73.5574242,
              6.1674866
            ],
            [
              -73.5576254,
              6.1660284
            ],
            [
              -73.5576141,
              6.1635998
            ],
            [
              -73.5573294,
              6.1620052
            ],
            [
              -73.5573204,
              6.1600623
            ],
            [
              -73.5578005,
              6.1589498
            ],
            [
              -73.5580733,
              6.1579771
            ],
            [
              -73.5581356,
              6.1564502
            ],
            [
              -73.5577806,
              6.1546477
            ],
            [
              -73.5572195,
              6.1532625
            ],
            [
              -73.5570754,
              6.1520835
            ],
            [
              -73.5563686,
              6.1491724
            ],
            [
              -73.5563596,
              6.1472295
            ],
            [
              -73.5564933,
              6.1461741
            ],
            [
              -73.5571799,
              6.1447137
            ],
            [
              -73.5568291,
              6.1438133
            ],
            [
              -73.555506,
              6.1425704
            ],
            [
              -73.5547393,
              6.1416719
            ],
            [
              -73.5538325,
              6.1404964
            ],
            [
              -73.5531341,
              6.1393894
            ],
            [
              -73.5514619,
              6.137593
            ],
            [
              -73.5506262,
              6.1367642
            ],
            [
              -73.5505517,
              6.1356543
            ],
            [
              -73.55053,
              6.1309358
            ],
            [
              -73.5507245,
              6.1280205
            ],
            [
              -73.5507169,
              6.1263551
            ],
            [
              -73.5505031,
              6.1251071
            ],
            [
              -73.5500821,
              6.1239988
            ],
            [
              -73.5500776,
              6.1230273
            ],
            [
              -73.5497092,
              6.1222689
            ],
            [
              -73.5497213,
              6.1207427
            ],
            [
              -73.5496739,
              6.1203056
            ],
            [
              -73.549562,
              6.1200803
            ],
            [
              -73.5490276,
              6.1194858
            ],
            [
              -73.5488367,
              6.1191952
            ],
            [
              -73.5480306,
              6.117172
            ],
            [
              -73.5464769,
              6.1152772
            ],
            [
              -73.5457749,
              6.1137835
            ],
            [
              -73.5424346,
              6.110146
            ],
            [
              -73.5422123,
              6.1085489
            ],
            [
              -73.5407687,
              6.1090851
            ],
            [
              -73.5400814,
              6.1093696
            ],
            [
              -73.5394749,
              6.1096426
            ],
            [
              -73.5389161,
              6.1099171
            ],
            [
              -73.5383551,
              6.1102201
            ],
            [
              -73.5378413,
              6.1105272
            ],
            [
              -73.5373714,
              6.1108389
            ],
            [
              -73.5369426,
              6.1111551
            ],
            [
              -73.5365516,
              6.1114761
            ],
            [
              -73.5361966,
              6.1118015
            ],
            [
              -73.5358749,
              6.112131
            ],
            [
              -73.5355841,
              6.1124647
            ],
            [
              -73.5353465,
              6.1127693
            ],
            [
              -73.5351304,
              6.1130778
            ],
            [
              -73.5349341,
              6.1133907
            ],
            [
              -73.534595,
              6.1140326
            ],
            [
              -73.5343183,
              6.1147022
            ],
            [
              -73.5341347,
              6.1152649
            ],
            [
              -73.5339397,
              6.1160264
            ],
            [
              -73.5335538,
              6.1179189
            ],
            [
              -73.5333866,
              6.1185906
            ],
            [
              -73.5331916,
              6.1191967
            ],
            [
              -73.5329891,
              6.119689
            ],
            [
              -73.5327411,
              6.1201751
            ],
            [
              -73.5325063,
              6.1205653
            ],
            [
              -73.5316834,
              6.121747
            ],
            [
              -73.531438,
              6.1221136
            ],
            [
              -73.5312304,
              6.1224577
            ],
            [
              -73.5309426,
              6.1230361
            ],
            [
              -73.5304244,
              6.1242922
            ],
            [
              -73.5301995,
              6.1247058
            ],
            [
              -73.5299516,
              6.1250563
            ],
            [
              -73.5296892,
              6.1253518
            ],
            [
              -73.529452,
              6.1255763
            ],
            [
              -73.5291468,
              6.125826
            ],
            [
              -73.5288415,
              6.1260458
            ],
            [
              -73.5284619,
              6.1262917
            ],
            [
              -73.5270201,
              6.1271261
            ],
            [
              -73.5264814,
              6.1274568
            ],
            [
              -73.5260001,
              6.1277926
            ],
            [
              -73.5256245,
              6.1281011
            ],
            [
              -73.5253072,
              6.1284137
            ],
            [
              -73.5249673,
              6.1288389
            ],
            [
              -73.5247271,
              6.1292416
            ],
            [
              -73.5245644,
              6.1296067
            ],
            [
              -73.5244278,
              6.1300305
            ],
            [
              -73.5243259,
              6.1305229
            ],
            [
              -73.5242687,
              6.1310939
            ],
            [
              -73.5242665,
              6.1317269
            ],
            [
              -73.5243278,
              6.1324588
            ],
            [
              -73.5244625,
              6.133286
            ],
            [
              -73.5245964,
              6.1338883
            ],
            [
              -73.5247558,
              6.1344908
            ],
            [
              -73.5250292,
              6.1353747
            ],
            [
              -73.5256456,
              6.137156
            ],
            [
              -73.5258897,
              6.1379415
            ],
            [
              -73.5259971,
              6.1383535
            ],
            [
              -73.5260749,
              6.1387129
            ],
            [
              -73.526138,
              6.1390935
            ],
            [
              -73.5261755,
              6.1394347
            ],
            [
              -73.5261922,
              6.1397459
            ],
            [
              -73.5261787,
              6.1402806
            ],
            [
              -73.5261116,
              6.1407964
            ],
            [
              -73.5259792,
              6.1413456
            ],
            [
              -73.5257677,
              6.1419275
            ],
            [
              -73.5256285,
              6.142229
            ],
            [
              -73.5254643,
              6.1425374
            ],
            [
              -73.5252751,
              6.1428496
            ],
            [
              -73.5250604,
              6.1431638
            ],
            [
              -73.5248202,
              6.1434778
            ],
            [
              -73.5245547,
              6.1437897
            ],
            [
              -73.5242653,
              6.1440966
            ],
            [
              -73.5239535,
              6.1443959
            ],
            [
              -73.5236213,
              6.1446848
            ],
            [
              -73.5230752,
              6.1451037
            ],
            [
              -73.5224991,
              6.1454815
            ],
            [
              -73.5219072,
              6.1458095
            ],
            [
              -73.5213153,
              6.1460816
            ],
            [
              -73.5207603,
              6.1462885
            ],
            [
              -73.5202535,
              6.1464378
            ],
            [
              -73.5198577,
              6.1465287
            ],
            [
              -73.5194369,
              6.1466017
            ],
            [
              -73.5190284,
              6.1466505
            ],
            [
              -73.5185869,
              6.1466811
            ],
            [
              -73.5181058,
              6.146691
            ],
            [
              -73.5175749,
              6.1466775
            ],
            [
              -73.5165033,
              6.1465907
            ],
            [
              -73.5143965,
              6.1463201
            ],
            [
              -73.5135484,
              6.1462268
            ],
            [
              -73.5126978,
              6.1461704
            ],
            [
              -73.511964,
              6.1461655
            ],
            [
              -73.511587,
              6.1461825
            ],
            [
              -73.5108959,
              6.1462534
            ],
            [
              -73.5101868,
              6.1463847
            ],
            [
              -73.5097817,
              6.1464876
            ],
            [
              -73.5093739,
              6.146612
            ],
            [
              -73.508959,
              6.1467598
            ],
            [
              -73.5082807,
              6.1470475
            ],
            [
              -73.5075757,
              6.1474053
            ],
            [
              -73.506837,
              6.147841
            ],
            [
              -73.5064406,
              6.1480984
            ],
            [
              -73.5054529,
              6.1488032
            ],
            [
              -73.5047977,
              6.1493123
            ],
            [
              -73.5035871,
              6.1503112
            ],
            [
              -73.5029125,
              6.1517127
            ],
            [
              -73.5014124,
              6.1521653
            ],
            [
              -73.5007775,
              6.152662
            ],
            [
              -73.497898,
              6.1551021
            ],
            [
              -73.49689,
              6.1559842
            ],
            [
              -73.4963589,
              6.1564722
            ],
            [
              -73.4954304,
              6.1573823
            ],
            [
              -73.4950179,
              6.1578167
            ],
            [
              -73.494409,
              6.1585007
            ],
            [
              -73.493862,
              6.1591661
            ],
            [
              -73.493366,
              6.1598163
            ],
            [
              -73.4929111,
              6.1604515
            ],
            [
              -73.4919769,
              6.161821
            ],
            [
              -73.4916594,
              6.162266
            ],
            [
              -73.4913286,
              6.162688
            ],
            [
              -73.4911544,
              6.1628882
            ],
            [
              -73.4908312,
              6.1632158
            ],
            [
              -73.4905202,
              6.1634783
            ],
            [
              -73.4903397,
              6.163609
            ],
            [
              -73.4898448,
              6.1644276
            ],
            [
              -73.4896468,
              6.163987
            ],
            [
              -73.4892223,
              6.1641385
            ],
            [
              -73.4887608,
              6.1642463
            ],
            [
              -73.4882816,
              6.1643028
            ],
            [
              -73.4878088,
              6.1643079
            ],
            [
              -73.4873641,
              6.16427
            ],
            [
              -73.4867245,
              6.164147
            ],
            [
              -73.4861503,
              6.1639751
            ],
            [
              -73.4847193,
              6.1634517
            ],
            [
              -73.4842291,
              6.1633243
            ],
            [
              -73.4838259,
              6.1632712
            ],
            [
              -73.4836047,
              6.1632664
            ],
            [
              -73.4833739,
              6.1632826
            ],
            [
              -73.4831337,
              6.1633265
            ],
            [
              -73.4828952,
              6.163406
            ],
            [
              -73.4826828,
              6.1635275
            ],
            [
              -73.482541,
              6.1636952
            ],
            [
              -73.4824913,
              6.1640259
            ],
            [
              -73.4828827,
              6.1647335
            ],
            [
              -73.4832252,
              6.165437
            ],
            [
              -73.4835352,
              6.1661577
            ],
            [
              -73.4838101,
              6.1668904
            ],
            [
              -73.4840479,
              6.1676299
            ],
            [
              -73.4842469,
              6.168371
            ],
            [
              -73.484406,
              6.1691086
            ],
            [
              -73.4845242,
              6.169836
            ],
            [
              -73.4846019,
              6.1705509
            ],
            [
              -73.4846396,
              6.1712494
            ],
            [
              -73.4846382,
              6.1719281
            ],
            [
              -73.484599,
              6.1725893
            ],
            [
              -73.4845239,
              6.1732258
            ],
            [
              -73.4844116,
              6.1738556
            ],
            [
              -73.4842872,
              6.1743825
            ],
            [
              -73.4840828,
              6.1750685
            ],
            [
              -73.4838027,
              6.1758302
            ],
            [
              -73.4827981,
              6.17669
            ],
            [
              -73.4837756,
              6.1768803
            ],
            [
              -73.4848461,
              6.1760023
            ],
            [
              -73.4866955,
              6.176394
            ],
            [
              -73.4871102,
              6.1763238
            ],
            [
              -73.4877062,
              6.1758205
            ],
            [
              -73.4881808,
              6.1758053
            ],
            [
              -73.4897685,
              6.1764524
            ],
            [
              -73.4904981,
              6.1766258
            ],
            [
              -73.4910311,
              6.1771233
            ],
            [
              -73.4918285,
              6.177272
            ],
            [
              -73.4922898,
              6.1776709
            ],
            [
              -73.4936093,
              6.177826
            ],
            [
              -73.4964752,
              6.177041
            ],
            [
              -73.4978092,
              6.1761013
            ],
            [
              -73.4987343,
              6.176494
            ],
            [
              -73.4993433,
              6.176595
            ],
            [
              -73.5000082,
              6.1763505
            ],
            [
              -73.5010344,
              6.1766244
            ],
            [
              -73.5019324,
              6.1773574
            ],
            [
              -73.5022758,
              6.1780165
            ],
            [
              -73.5029393,
              6.1784436
            ],
            [
              -73.5034972,
              6.1796329
            ],
            [
              -73.5041681,
              6.180046
            ],
            [
              -73.5046285,
              6.180595
            ],
            [
              -73.5054328,
              6.1809909
            ],
            [
              -73.5061108,
              6.1810118
            ],
            [
              -73.5067461,
              6.1814156
            ],
            [
              -73.5069811,
              6.182055
            ],
            [
              -73.5072256,
              6.182474
            ],
            [
              -73.5081077,
              6.1830672
            ],
            [
              -73.5086255,
              6.1839652
            ],
            [
              -73.5087002,
              6.1847453
            ],
            [
              -73.5090876,
              6.1849756
            ],
            [
              -73.5094323,
              6.1854012
            ],
            [
              -73.5090117,
              6.186447
            ],
            [
              -73.5092774,
              6.1865768
            ],
            [
              -73.5095323,
              6.1872431
            ],
            [
              -73.5095113,
              6.1879573
            ],
            [
              -73.5092192,
              6.1881713
            ],
            [
              -73.5090428,
              6.1886568
            ],
            [
              -73.5094584,
              6.1903867
            ],
            [
              -73.5093794,
              6.1907272
            ],
            [
              -73.5099985,
              6.1915909
            ],
            [
              -73.5103775,
              6.1919433
            ],
            [
              -73.5118824,
              6.1923191
            ],
            [
              -73.5122117,
              6.1927259
            ],
            [
              -73.5132545,
              6.1927931
            ],
            [
              -73.513478,
              6.1934112
            ],
            [
              -73.5138672,
              6.1936868
            ],
            [
              -73.5143817,
              6.194685
            ],
            [
              -73.5150805,
              6.1956298
            ],
            [
              -73.5153697,
              6.1964401
            ],
            [
              -73.5160822,
              6.196771
            ],
            [
              -73.5164228,
              6.1971577
            ],
            [
              -73.5164766,
              6.1979951
            ],
            [
              -73.5169888,
              6.1984083
            ],
            [
              -73.5169619,
              6.1992162
            ],
            [
              -73.5174357,
              6.199597
            ],
            [
              -73.5176808,
              6.2003202
            ],
            [
              -73.5181842,
              6.2004568
            ],
            [
              -73.5192034,
              6.2013159
            ],
            [
              -73.519274,
              6.2018134
            ],
            [
              -73.5199916,
              6.2028207
            ],
            [
              -73.5203335,
              6.2030694
            ],
            [
              -73.5206239,
              6.2035671
            ],
            [
              -73.5214278,
              6.2039093
            ],
            [
              -73.5215217,
              6.2041893
            ],
            [
              -73.5212937,
              6.2047146
            ],
            [
              -73.5214278,
              6.2049866
            ],
            [
              -73.5218811,
              6.2049679
            ],
            [
              -73.5227382,
              6.2053954
            ],
            [
              -73.5233119,
              6.2062818
            ],
            [
              -73.5236812,
              6.2066307
            ],
            [
              -73.5245311,
              6.2073038
            ],
            [
              -73.5250356,
              6.2084458
            ],
            [
              -73.5255054,
              6.2086981
            ],
            [
              -73.5260627,
              6.2098556
            ],
            [
              -73.5260224,
              6.2105409
            ],
            [
              -73.5260868,
              6.2107515
            ],
            [
              -73.5266603,
              6.2110817
            ],
            [
              -73.5267627,
              6.2115541
            ],
            [
              -73.5269558,
              6.2118181
            ],
            [
              -73.5276878,
              6.2118719
            ],
            [
              -73.5276074,
              6.2125974
            ],
            [
              -73.5278732,
              6.2133033
            ],
            [
              -73.5280529,
              6.214186
            ],
            [
              -73.5284294,
              6.2144572
            ],
            [
              -73.529107,
              6.2152231
            ],
            [
              -73.5296246,
              6.2154231
            ],
            [
              -73.5297534,
              6.2156444
            ],
            [
              -73.5295596,
              6.2163701
            ]
          ]
        ]
      },
      "id": "relation/1315454"
    }
  ]
}