{
  "type": "FeatureCollection",
  "features": [
    {
      "type": "Feature",
      "properties": {
        "@id": "relation/1315423",
        "DANE:area": "273.00",
        "DANE:departamento": "68",
        "admin_level": "6",
        "boundary": "administrative",
        "clcfile": "MunicipiosDepartamentos/ADM_Municipios.shp",
        "divipola": "68572",
        "entidad_te": "Cabecera Municipal",
        "is_in:country": "Colombia",
        "is_in:state": "Santander",
        "name": "Puente Nacional",
        "objectid": "3746",
        "source": "OCHA - SIGOT",
        "type": "boundary",
        "wikidata": "Q1525489",
        "wikipedia": "es:Puente Nacional (Santander)"
      },
      "geometry": {
        "type": "Polygon",
        "coordinates": [
          [
            [
              -73.6630953,
              5.9273953
            ],
            [
              -73.666834,
              5.929151
            ],
            [
              -73.6671711,
              5.9293526
            ],
            [
              -73.6673455,
              5.9294014
            ],
            [
              -73.6674912,
              5.9294214
            ],
            [
              -73.6676082,
              5.9294127
            ],
            [
              -73.6676966,
              5.9293752
            ],
            [
              -73.6677378,
              5.9293324
            ],
            [
              -73.6677513,
              5.9292675
            ],
            [
              -73.667706,
              5.9289597
            ],
            [
              -73.6677079,
              5.9288475
            ],
            [
              -73.6677479,
              5.9287588
            ],
            [
              -73.6678359,
              5.9286577
            ],
            [
              -73.6680109,
              5.9285161
            ],
            [
              -73.6681206,
              5.9284579
            ],
            [
              -73.6682605,
              5.9284159
            ],
            [
              -73.66861,
              5.9283464
            ],
            [
              -73.6687685,
              5.9282863
            ],
            [
              -73.6688746,
              5.9282088
            ],
            [
              -73.6690975,
              5.9279775
            ],
            [
              -73.6691787,
              5.9279233
            ],
            [
              -73.6692691,
              5.9278833
            ],
            [
              -73.6694356,
              5.9278481
            ],
            [
              -73.669634,
              5.9278477
            ],
            [
              -73.669856,
              5.9278779
            ],
            [
              -73.670524,
              5.9280091
            ],
            [
              -73.6707262,
              5.9280233
            ],
            [
              -73.6708996,
              5.9280097
            ],
            [
              -73.6710052,
              5.9279843
            ],
            [
              -73.6711151,
              5.9279413
            ],
            [
              -73.6714917,
              5.927743
            ],
            [
              -73.6716325,
              5.9276801
            ],
            [
              -73.6721348,
              5.9275514
            ],
            [
              -73.6723052,
              5.9274887
            ],
            [
              -73.6724318,
              5.9274094
            ],
            [
              -73.6726343,
              5.9271902
            ],
            [
              -73.6726878,
              5.9271486
            ],
            [
              -73.67274,
              5.9271244
            ],
            [
              -73.6728188,
              5.92711
            ],
            [
              -73.6729156,
              5.9271127
            ],
            [
              -73.6733432,
              5.9271879
            ],
            [
              -73.6734266,
              5.9271843
            ],
            [
              -73.6734928,
              5.9271635
            ],
            [
              -73.6735523,
              5.9271167
            ],
            [
              -73.6736032,
              5.927041
            ],
            [
              -73.6737195,
              5.9267342
            ],
            [
              -73.673768,
              5.926635
            ],
            [
              -73.6739282,
              5.9264452
            ],
            [
              -73.6741302,
              5.926278
            ],
            [
              -73.6745929,
              5.9260612
            ],
            [
              -73.6747631,
              5.9259492
            ],
            [
              -73.6749318,
              5.92582
            ],
            [
              -73.6751135,
              5.9256577
            ],
            [
              -73.6752839,
              5.9254797
            ],
            [
              -73.6754429,
              5.9252858
            ],
            [
              -73.6755905,
              5.9250762
            ],
            [
              -73.6758973,
              5.924727
            ],
            [
              -73.6763792,
              5.9240285
            ],
            [
              -73.6768129,
              5.923395
            ],
            [
              -73.6773758,
              5.9227446
            ],
            [
              -73.6776334,
              5.9225005
            ],
            [
              -73.6780354,
              5.9220129
            ],
            [
              -73.6785016,
              5.9214278
            ],
            [
              -73.6787741,
              5.9209084
            ],
            [
              -73.6791114,
              5.9204048
            ],
            [
              -73.6794574,
              5.9199674
            ],
            [
              -73.679734,
              5.9199048
            ],
            [
              -73.6799819,
              5.9197986
            ],
            [
              -73.6801722,
              5.9196716
            ],
            [
              -73.6803697,
              5.9194632
            ],
            [
              -73.6804565,
              5.9193919
            ],
            [
              -73.6805718,
              5.9193296
            ],
            [
              -73.6808626,
              5.919209
            ],
            [
              -73.6809917,
              5.9191269
            ],
            [
              -73.681173,
              5.9189568
            ],
            [
              -73.6813228,
              5.9187643
            ],
            [
              -73.6814412,
              5.9185491
            ],
            [
              -73.6815281,
              5.9183111
            ],
            [
              -73.6817366,
              5.9182373
            ],
            [
              -73.681928,
              5.9181395
            ],
            [
              -73.6821062,
              5.9180137
            ],
            [
              -73.6822986,
              5.9178103
            ],
            [
              -73.6823825,
              5.9177402
            ],
            [
              -73.6824947,
              5.9176809
            ],
            [
              -73.6827868,
              5.9175661
            ],
            [
              -73.6829105,
              5.9174811
            ],
            [
              -73.6829691,
              5.9174021
            ],
            [
              -73.6830136,
              5.9172979
            ],
            [
              -73.6831065,
              5.9168493
            ],
            [
              -73.6831705,
              5.9166787
            ],
            [
              -73.683276,
              5.9165225
            ],
            [
              -73.6833972,
              5.916375
            ],
            [
              -73.6835212,
              5.9162522
            ],
            [
              -73.6836455,
              5.9161559
            ],
            [
              -73.6837618,
              5.9160904
            ],
            [
              -73.683897,
              5.9160382
            ],
            [
              -73.6840367,
              5.9160049
            ],
            [
              -73.6841837,
              5.9159894
            ],
            [
              -73.6843372,
              5.9159916
            ],
            [
              -73.6844979,
              5.9160112
            ],
            [
              -73.6846658,
              5.9160484
            ],
            [
              -73.6848409,
              5.9161031
            ],
            [
              -73.6853932,
              5.9155509
            ],
            [
              -73.6855277,
              5.9153994
            ],
            [
              -73.6856768,
              5.915269
            ],
            [
              -73.6857914,
              5.915201
            ],
            [
              -73.6860728,
              5.915085
            ],
            [
              -73.6861894,
              5.9150219
            ],
            [
              -73.686279,
              5.9149478
            ],
            [
              -73.6864528,
              5.9147614
            ],
            [
              -73.6865303,
              5.9146992
            ],
            [
              -73.6866468,
              5.9146363
            ],
            [
              -73.6869241,
              5.9145223
            ],
            [
              -73.6870333,
              5.914459
            ],
            [
              -73.6871161,
              5.9143878
            ],
            [
              -73.6873232,
              5.9141729
            ],
            [
              -73.6876081,
              5.9139616
            ],
            [
              -73.6877968,
              5.9138527
            ],
            [
              -73.6879967,
              5.9137593
            ],
            [
              -73.6882078,
              5.9136814
            ],
            [
              -73.6884299,
              5.9136189
            ],
            [
              -73.6898096,
              5.9136199
            ],
            [
              -73.6900661,
              5.913478
            ],
            [
              -73.6902791,
              5.9133179
            ],
            [
              -73.6903516,
              5.9129042
            ],
            [
              -73.6906626,
              5.9125028
            ],
            [
              -73.6906289,
              5.9121285
            ],
            [
              -73.6907155,
              5.9117472
            ],
            [
              -73.6911377,
              5.9113192
            ],
            [
              -73.6917563,
              5.9110191
            ],
            [
              -73.6920042,
              5.9107868
            ],
            [
              -73.6926062,
              5.910465
            ],
            [
              -73.6930496,
              5.9102064
            ],
            [
              -73.6933201,
              5.9099617
            ],
            [
              -73.6934468,
              5.9098516
            ],
            [
              -73.6935653,
              5.9096904
            ],
            [
              -73.6936756,
              5.9094781
            ],
            [
              -73.6935596,
              5.9090622
            ],
            [
              -73.6934981,
              5.908669
            ],
            [
              -73.6934912,
              5.9082985
            ],
            [
              -73.6935083,
              5.9081217
            ],
            [
              -73.6935389,
              5.9079506
            ],
            [
              -73.6935866,
              5.9077745
            ],
            [
              -73.6936497,
              5.9076049
            ],
            [
              -73.6937037,
              5.9074937
            ],
            [
              -73.6937752,
              5.9073958
            ],
            [
              -73.6939788,
              5.9072085
            ],
            [
              -73.6944182,
              5.9068991
            ],
            [
              -73.6945692,
              5.90678
            ],
            [
              -73.6946923,
              5.9066514
            ],
            [
              -73.6947622,
              5.9065274
            ],
            [
              -73.694779,
              5.9064611
            ],
            [
              -73.6947813,
              5.9063972
            ],
            [
              -73.6947404,
              5.9062565
            ],
            [
              -73.6946489,
              5.9061038
            ],
            [
              -73.6944049,
              5.9057856
            ],
            [
              -73.6943129,
              5.9056486
            ],
            [
              -73.694247,
              5.9055071
            ],
            [
              -73.6942261,
              5.9053817
            ],
            [
              -73.6942396,
              5.9052881
            ],
            [
              -73.694276,
              5.9051737
            ],
            [
              -73.6944024,
              5.9049293
            ],
            [
              -73.6945762,
              5.9046983
            ],
            [
              -73.6947827,
              5.9045054
            ],
            [
              -73.6957691,
              5.9050254
            ],
            [
              -73.6964879,
              5.90556
            ],
            [
              -73.6975657,
              5.9062722
            ],
            [
              -73.6986441,
              5.9071039
            ],
            [
              -73.7003802,
              5.9081716
            ],
            [
              -73.7014575,
              5.9087642
            ],
            [
              -73.7030711,
              5.909175
            ],
            [
              -73.7062384,
              5.909937
            ],
            [
              -73.7079118,
              5.9103475
            ],
            [
              -73.7093444,
              5.9103407
            ],
            [
              -73.7095829,
              5.9102798
            ],
            [
              -73.7105962,
              5.9099762
            ],
            [
              -73.7112497,
              5.9093156
            ],
            [
              -73.7122594,
              5.9082349
            ],
            [
              -73.7134529,
              5.9081695
            ],
            [
              -73.71429,
              5.9084644
            ],
            [
              -73.7148326,
              5.9095974
            ],
            [
              -73.7150767,
              5.9107319
            ],
            [
              -73.7157978,
              5.9117446
            ],
            [
              -73.7168745,
              5.9122177
            ],
            [
              -73.7192022,
              5.9121468
            ],
            [
              -73.7204498,
              5.9108857
            ],
            [
              -73.7217581,
              5.9098634
            ],
            [
              -73.722234,
              5.9095025
            ],
            [
              -73.7230054,
              5.9085425
            ],
            [
              -73.7231214,
              5.9078247
            ],
            [
              -73.7235966,
              5.9073442
            ],
            [
              -73.7237726,
              5.9066859
            ],
            [
              -73.7237692,
              5.9059687
            ],
            [
              -73.7243618,
              5.9050693
            ],
            [
              -73.7254357,
              5.9049446
            ],
            [
              -73.7269876,
              5.9049372
            ],
            [
              -73.7285424,
              5.9055275
            ],
            [
              -73.7297993,
              5.9062388
            ],
            [
              -73.7310556,
              5.9068305
            ],
            [
              -73.7321906,
              5.9070044
            ],
            [
              -73.7363092,
              5.9069847
            ],
            [
              -73.7373242,
              5.9070396
            ],
            [
              -73.7380595,
              5.9070035
            ],
            [
              -73.7380666,
              5.906954
            ],
            [
              -73.738183,
              5.9066825
            ],
            [
              -73.7385324,
              5.9057514
            ],
            [
              -73.7386876,
              5.905441
            ],
            [
              -73.7388815,
              5.9051307
            ],
            [
              -73.7390367,
              5.9048592
            ],
            [
              -73.7392306,
              5.9045877
            ],
            [
              -73.7396184,
              5.9041999
            ],
            [
              -73.7397348,
              5.9038896
            ],
            [
              -73.7397498,
              5.9038695
            ],
            [
              -73.7397462,
              5.9038093
            ],
            [
              -73.7397665,
              5.9036851
            ],
            [
              -73.739827,
              5.9035523
            ],
            [
              -73.7399131,
              5.903436
            ],
            [
              -73.7400326,
              5.9033179
            ],
            [
              -73.7405715,
              5.9029125
            ],
            [
              -73.7407725,
              5.9027247
            ],
            [
              -73.7408948,
              5.9025494
            ],
            [
              -73.7410588,
              5.9021921
            ],
            [
              -73.7411351,
              5.9020575
            ],
            [
              -73.7413002,
              5.9018465
            ],
            [
              -73.7414937,
              5.9016533
            ],
            [
              -73.7417459,
              5.9014635
            ],
            [
              -73.7420983,
              5.9013079
            ],
            [
              -73.7422166,
              5.9012414
            ],
            [
              -73.7423021,
              5.9011699
            ],
            [
              -73.7424833,
              5.900976
            ],
            [
              -73.7425974,
              5.9008959
            ],
            [
              -73.7427798,
              5.9008235
            ],
            [
              -73.7431532,
              5.9007354
            ],
            [
              -73.743298,
              5.9006902
            ],
            [
              -73.74346,
              5.9006109
            ],
            [
              -73.7436208,
              5.9005021
            ],
            [
              -73.7437992,
              5.9003447
            ],
            [
              -73.7439821,
              5.9001437
            ],
            [
              -73.7445432,
              5.8993933
            ],
            [
              -73.7447641,
              5.8991298
            ],
            [
              -73.7450063,
              5.8989054
            ],
            [
              -73.7451285,
              5.8988193
            ],
            [
              -73.7452533,
              5.8987493
            ],
            [
              -73.7454707,
              5.8986613
            ],
            [
              -73.7459428,
              5.8985191
            ],
            [
              -73.7461406,
              5.8984472
            ],
            [
              -73.7463633,
              5.8983399
            ],
            [
              -73.7469618,
              5.8980085
            ],
            [
              -73.7471544,
              5.8979276
            ],
            [
              -73.747317,
              5.8978828
            ],
            [
              -73.7475198,
              5.8978647
            ],
            [
              -73.747757,
              5.8978795
            ],
            [
              -73.7485079,
              5.8978626
            ],
            [
              -73.749119,
              5.8978921
            ],
            [
              -73.749647,
              5.8976771
            ],
            [
              -73.7497427,
              5.8976012
            ],
            [
              -73.7498595,
              5.8975386
            ],
            [
              -73.7501465,
              5.8974167
            ],
            [
              -73.7502704,
              5.8973417
            ],
            [
              -73.7503808,
              5.8972294
            ],
            [
              -73.7506176,
              5.8969161
            ],
            [
              -73.750684,
              5.896854
            ],
            [
              -73.751139,
              5.896376
            ],
            [
              -73.7519064,
              5.8954238
            ],
            [
              -73.7522292,
              5.8948714
            ],
            [
              -73.7518949,
              5.8942614
            ],
            [
              -73.7515801,
              5.8936207
            ],
            [
              -73.7507859,
              5.8918763
            ],
            [
              -73.7505436,
              5.8913765
            ],
            [
              -73.7501726,
              5.8906796
            ],
            [
              -73.7496844,
              5.8898814
            ],
            [
              -73.7494174,
              5.8894925
            ],
            [
              -73.7488886,
              5.8888029
            ],
            [
              -73.74834,
              5.8881808
            ],
            [
              -73.7480661,
              5.8878997
            ],
            [
              -73.7475192,
              5.887388
            ],
            [
              -73.7467207,
              5.8867359
            ],
            [
              -73.7462144,
              5.8863654
            ],
            [
              -73.7449927,
              5.885513
            ],
            [
              -73.7446657,
              5.885258
            ],
            [
              -73.7442708,
              5.8848947
            ],
            [
              -73.7440844,
              5.8846864
            ],
            [
              -73.7439286,
              5.8844833
            ],
            [
              -73.7436672,
              5.8840534
            ],
            [
              -73.7434778,
              5.8836405
            ],
            [
              -73.7432913,
              5.8831251
            ],
            [
              -73.742989,
              5.8821519
            ],
            [
              -73.7427847,
              5.8815679
            ],
            [
              -73.7425385,
              5.8809985
            ],
            [
              -73.7421002,
              5.8801284
            ],
            [
              -73.74189,
              5.879623
            ],
            [
              -73.741815,
              5.8792955
            ],
            [
              -73.7418043,
              5.8791379
            ],
            [
              -73.7418191,
              5.8789401
            ],
            [
              -73.7418508,
              5.8787996
            ],
            [
              -73.7419036,
              5.8786567
            ],
            [
              -73.7419686,
              5.878533
            ],
            [
              -73.7421065,
              5.8783492
            ],
            [
              -73.7422601,
              5.8782059
            ],
            [
              -73.7424029,
              5.8781032
            ],
            [
              -73.7425749,
              5.8780018
            ],
            [
              -73.7434144,
              5.8776053
            ],
            [
              -73.7436779,
              5.8774675
            ],
            [
              -73.7441027,
              5.8771988
            ],
            [
              -73.7443326,
              5.8770206
            ],
            [
              -73.7445598,
              5.8768131
            ],
            [
              -73.7447733,
              5.8765788
            ],
            [
              -73.7449582,
              5.8763301
            ],
            [
              -73.7451061,
              5.8760815
            ],
            [
              -73.7452591,
              5.8757329
            ],
            [
              -73.7453396,
              5.8754613
            ],
            [
              -73.745383,
              5.8752419
            ],
            [
              -73.7454132,
              5.8749796
            ],
            [
              -73.7454238,
              5.8746928
            ],
            [
              -73.7454118,
              5.8743412
            ],
            [
              -73.7453758,
              5.873951
            ],
            [
              -73.7452208,
              5.8727929
            ],
            [
              -73.7451642,
              5.8721459
            ],
            [
              -73.7451677,
              5.8715486
            ],
            [
              -73.7452215,
              5.8710814
            ],
            [
              -73.7453356,
              5.8705793
            ],
            [
              -73.7454277,
              5.8702891
            ],
            [
              -73.7455253,
              5.870033
            ],
            [
              -73.7454268,
              5.8700864
            ],
            [
              -73.7451455,
              5.8702024
            ],
            [
              -73.7451196,
              5.8702177
            ],
            [
              -73.7448369,
              5.8704676
            ],
            [
              -73.7445967,
              5.8702273
            ],
            [
              -73.7439194,
              5.8703894
            ],
            [
              -73.7437069,
              5.8704043
            ],
            [
              -73.743256,
              5.8704359
            ],
            [
              -73.7424337,
              5.8704399
            ],
            [
              -73.7416982,
              5.8705012
            ],
            [
              -73.7414396,
              5.8707335
            ],
            [
              -73.7413115,
              5.8710953
            ],
            [
              -73.74127,
              5.8714856
            ],
            [
              -73.7410407,
              5.8718045
            ],
            [
              -73.7407088,
              5.8717917
            ],
            [
              -73.7401735,
              5.8714619
            ],
            [
              -73.7396962,
              5.8712186
            ],
            [
              -73.7392922,
              5.8712061
            ],
            [
              -73.7391203,
              5.8714525
            ],
            [
              -73.7392096,
              5.8720444
            ],
            [
              -73.739328,
              5.8726651
            ],
            [
              -73.7395616,
              5.8732563
            ],
            [
              -73.7395926,
              5.8736896
            ],
            [
              -73.7394929,
              5.8739645
            ],
            [
              -73.7392055,
              5.8742115
            ],
            [
              -73.7387588,
              5.8743148
            ],
            [
              -73.7382969,
              5.8742736
            ],
            [
              -73.7379342,
              5.8738564
            ],
            [
              -73.7377294,
              5.873265
            ],
            [
              -73.7375832,
              5.8728612
            ],
            [
              -73.7372487,
              5.8722849
            ],
            [
              -73.7369156,
              5.8720264
            ],
            [
              -73.7364677,
              5.8718841
            ],
            [
              -73.7361937,
              5.8718998
            ],
            [
              -73.7358909,
              5.8719446
            ],
            [
              -73.7357263,
              5.8718334
            ],
            [
              -73.7356292,
              5.8717679
            ],
            [
              -73.7356389,
              5.8717143
            ],
            [
              -73.7356868,
              5.8715409
            ],
            [
              -73.7357487,
              5.8713806
            ],
            [
              -73.7358235,
              5.8712359
            ],
            [
              -73.7359375,
              5.8710759
            ],
            [
              -73.7361357,
              5.8708881
            ],
            [
              -73.7362048,
              5.8708084
            ],
            [
              -73.7362696,
              5.8706964
            ],
            [
              -73.7363814,
              5.8704244
            ],
            [
              -73.7364412,
              5.8703113
            ],
            [
              -73.7365144,
              5.8702203
            ],
            [
              -73.7367315,
              5.8700131
            ],
            [
              -73.7367823,
              5.8699387
            ],
            [
              -73.7368194,
              5.8698551
            ],
            [
              -73.7368502,
              5.8697061
            ],
            [
              -73.7368498,
              5.8695276
            ],
            [
              -73.7368242,
              5.869338
            ],
            [
              -73.7367212,
              5.8688019
            ],
            [
              -73.7367068,
              5.8686436
            ],
            [
              -73.7367104,
              5.8685065
            ],
            [
              -73.7367273,
              5.8684035
            ],
            [
              -73.7367568,
              5.8683112
            ],
            [
              -73.7369828,
              5.8679357
            ],
            [
              -73.7370157,
              5.867846
            ],
            [
              -73.7370224,
              5.8677639
            ],
            [
              -73.7369984,
              5.867637
            ],
            [
              -73.7369401,
              5.8674973
            ],
            [
              -73.7368516,
              5.8673549
            ],
            [
              -73.7367451,
              5.8672297
            ],
            [
              -73.7366211,
              5.8671459
            ],
            [
              -73.7363339,
              5.8670335
            ],
            [
              -73.7362236,
              5.8669755
            ],
            [
              -73.7360538,
              5.8668322
            ],
            [
              -73.7359225,
              5.8666824
            ],
            [
              -73.7358488,
              5.8665523
            ],
            [
              -73.7357989,
              5.8663992
            ],
            [
              -73.7357731,
              5.8662236
            ],
            [
              -73.7357714,
              5.8660267
            ],
            [
              -73.7358176,
              5.8656784
            ],
            [
              -73.7359212,
              5.8652963
            ],
            [
              -73.7359762,
              5.8651806
            ],
            [
              -73.7361504,
              5.8649075
            ],
            [
              -73.7361822,
              5.8648331
            ],
            [
              -73.7361962,
              5.8647656
            ],
            [
              -73.7361906,
              5.8646954
            ],
            [
              -73.736159,
              5.8646167
            ],
            [
              -73.7359412,
              5.8642873
            ],
            [
              -73.7359217,
              5.8642176
            ],
            [
              -73.7359288,
              5.8641539
            ],
            [
              -73.73596,
              5.8640908
            ],
            [
              -73.7360161,
              5.8640259
            ],
            [
              -73.7363684,
              5.8637568
            ],
            [
              -73.7364391,
              5.8636865
            ],
            [
              -73.7364897,
              5.8636143
            ],
            [
              -73.7365862,
              5.863433
            ],
            [
              -73.7366617,
              5.8632387
            ],
            [
              -73.7367164,
              5.8630315
            ],
            [
              -73.7367501,
              5.8628112
            ],
            [
              -73.7369765,
              5.8625366
            ],
            [
              -73.7372354,
              5.8623072
            ],
            [
              -73.7372402,
              5.8623041
            ],
            [
              -73.7373055,
              5.8621623
            ],
            [
              -73.7378193,
              5.861882
            ],
            [
              -73.7383798,
              5.8615083
            ],
            [
              -73.7389871,
              5.8610177
            ],
            [
              -73.7394776,
              5.8605972
            ],
            [
              -73.7397814,
              5.8602467
            ],
            [
              -73.7401552,
              5.8597559
            ],
            [
              -73.7403888,
              5.8594755
            ],
            [
              -73.7405992,
              5.859125
            ],
            [
              -73.7407862,
              5.8586575
            ],
            [
              -73.740833,
              5.8584471
            ],
            [
              -73.7408703,
              5.8582778
            ],
            [
              -73.7409734,
              5.8579328
            ],
            [
              -73.7410629,
              5.8575604
            ],
            [
              -73.7411033,
              5.8574829
            ],
            [
              -73.7411936,
              5.8572174
            ],
            [
              -73.7412521,
              5.8569136
            ],
            [
              -73.7412719,
              5.8565953
            ],
            [
              -73.741252,
              5.856277
            ],
            [
              -73.7411934,
              5.8559734
            ],
            [
              -73.7411028,
              5.8557076
            ],
            [
              -73.7409818,
              5.8554763
            ],
            [
              -73.7408711,
              5.8553284
            ],
            [
              -73.7406574,
              5.8551308
            ],
            [
              -73.7405971,
              5.8550397
            ],
            [
              -73.7405539,
              5.854934
            ],
            [
              -73.7405194,
              5.8548104
            ],
            [
              -73.740489,
              5.854558
            ],
            [
              -73.7405115,
              5.8543772
            ],
            [
              -73.7405399,
              5.8543133
            ],
            [
              -73.7405789,
              5.8542691
            ],
            [
              -73.7406482,
              5.8542423
            ],
            [
              -73.7408525,
              5.8542534
            ],
            [
              -73.7409397,
              5.8542343
            ],
            [
              -73.7410508,
              5.8541677
            ],
            [
              -73.7411324,
              5.8540619
            ],
            [
              -73.7411834,
              5.853922
            ],
            [
              -73.7412067,
              5.8537453
            ],
            [
              -73.7412024,
              5.8535318
            ],
            [
              -73.7411704,
              5.8532815
            ],
            [
              -73.740992,
              5.8526924
            ],
            [
              -73.7403417,
              5.852106
            ],
            [
              -73.7396906,
              5.8513428
            ],
            [
              -73.7392746,
              5.8505195
            ],
            [
              -73.7390927,
              5.8494004
            ],
            [
              -73.7388531,
              5.8485173
            ],
            [
              -73.7384957,
              5.8476348
            ],
            [
              -73.7380798,
              5.8468115
            ],
            [
              -73.7374876,
              5.8460479
            ],
            [
              -73.736837,
              5.8454026
            ],
            [
              -73.7363025,
              5.844403
            ],
            [
              -73.7358866,
              5.8435797
            ],
            [
              -73.7358777,
              5.8416934
            ],
            [
              -73.7362856,
              5.8408073
            ],
            [
              -73.7368708,
              5.8400971
            ],
            [
              -73.7375147,
              5.8393278
            ],
            [
              -73.7384548,
              5.8389696
            ],
            [
              -73.7393363,
              5.8386707
            ],
            [
              -73.7398619,
              5.837784
            ],
            [
              -73.7405649,
              5.8370733
            ],
            [
              -73.7413853,
              5.8363031
            ],
            [
              -73.742148,
              5.8357689
            ],
            [
              -73.7429099,
              5.835058
            ],
            [
              -73.7437311,
              5.8344646
            ],
            [
              -73.7445516,
              5.8336944
            ],
            [
              -73.7451357,
              5.8327485
            ],
            [
              -73.745897,
              5.8319196
            ],
            [
              -73.7467763,
              5.8311491
            ],
            [
              -73.7473615,
              5.830439
            ],
            [
              -73.748183,
              5.8299045
            ],
            [
              -73.7488257,
              5.8288876
            ],
            [
              -73.7489978,
              5.8279436
            ],
            [
              -73.749582,
              5.8269977
            ],
            [
              -73.7502252,
              5.8261104
            ],
            [
              -73.7508693,
              5.8254
            ],
            [
              -73.7515715,
              5.8245125
            ],
            [
              -73.7514493,
              5.8235699
            ],
            [
              -73.7512097,
              5.8226868
            ],
            [
              -73.7512052,
              5.8217437
            ],
            [
              -73.7513773,
              5.8207997
            ],
            [
              -73.7516671,
              5.8198552
            ],
            [
              -73.7520753,
              5.819028
            ],
            [
              -73.7520663,
              5.8171417
            ],
            [
              -73.752003,
              5.8161988
            ],
            [
              -73.7519986,
              5.8152557
            ],
            [
              -73.7521118,
              5.814312
            ],
            [
              -73.7523422,
              5.8132499
            ],
            [
              -73.7525688,
              5.8113625
            ],
            [
              -73.7528583,
              5.810359
            ],
            [
              -73.753325,
              5.8094726
            ],
            [
              -73.7541462,
              5.8088793
            ],
            [
              -73.7547312,
              5.8081102
            ],
            [
              -73.7553136,
              5.8068106
            ],
            [
              -73.7554843,
              5.8055719
            ],
            [
              -73.7554752,
              5.8036267
            ],
            [
              -73.7553474,
              5.8015052
            ],
            [
              -73.7554018,
              5.8005618
            ],
            [
              -73.7553974,
              5.7996186
            ],
            [
              -73.7552752,
              5.7986761
            ],
            [
              -73.7546239,
              5.7978539
            ],
            [
              -73.753798,
              5.7974452
            ],
            [
              -73.7520295,
              5.7968641
            ],
            [
              -73.751145,
              5.7965145
            ],
            [
              -73.7503768,
              5.7958698
            ],
            [
              -73.7499601,
              5.7948696
            ],
            [
              -73.7501913,
              5.7939843
            ],
            [
              -73.7508354,
              5.7932739
            ],
            [
              -73.7514798,
              5.7926224
            ],
            [
              -73.7521236,
              5.7918531
            ],
            [
              -73.752414,
              5.7910324
            ],
            [
              -73.7524686,
              5.7901302
            ],
            [
              -73.7526999,
              5.7892449
            ],
            [
              -73.7527543,
              5.7883015
            ],
            [
              -73.7528085,
              5.7872991
            ],
            [
              -73.7529217,
              5.7863554
            ],
            [
              -73.7534478,
              5.7855867
            ],
            [
              -73.7541494,
              5.7845812
            ],
            [
              -73.7547332,
              5.7835764
            ],
            [
              -73.7548465,
              5.7826327
            ],
            [
              -73.754842,
              5.7816896
            ],
            [
              -73.7553076,
              5.7805674
            ],
            [
              -73.7557746,
              5.7797399
            ],
            [
              -73.7561816,
              5.7786769
            ],
            [
              -73.7566485,
              5.7778495
            ],
            [
              -73.7583472,
              5.776132
            ],
            [
              -73.7591095,
              5.7755389
            ],
            [
              -73.7599888,
              5.7747685
            ],
            [
              -73.7608691,
              5.7742338
            ],
            [
              -73.7619842,
              5.7735801
            ],
            [
              -73.7630411,
              5.7730446
            ],
            [
              -73.764038,
              5.7722736
            ],
            [
              -73.7648,
              5.7716216
            ],
            [
              -73.7652669,
              5.7707941
            ],
            [
              -73.7657925,
              5.7699074
            ],
            [
              -73.7666711,
              5.7690191
            ],
            [
              -73.767138,
              5.7681916
            ],
            [
              -73.767487,
              5.7673058
            ],
            [
              -73.7678948,
              5.7664196
            ],
            [
              -73.7685385,
              5.7656503
            ],
            [
              -73.7684164,
              5.7647077
            ],
            [
              -73.7688242,
              5.7638216
            ],
            [
              -73.7695867,
              5.7632875
            ],
            [
              -73.7704082,
              5.7627531
            ],
            [
              -73.7713478,
              5.762336
            ],
            [
              -73.7719922,
              5.7616845
            ],
            [
              -73.7723403,
              5.7606219
            ],
            [
              -73.7728652,
              5.7596173
            ],
            [
              -73.7736264,
              5.7587884
            ],
            [
              -73.7744467,
              5.7580182
            ],
            [
              -73.7750316,
              5.7572492
            ],
            [
              -73.7754508,
              5.7556521
            ],
            [
              -73.7746149,
              5.7562491
            ],
            [
              -73.7729743,
              5.7577894
            ],
            [
              -73.7705705,
              5.759746
            ],
            [
              -73.7699856,
              5.7605151
            ],
            [
              -73.7692828,
              5.7612258
            ],
            [
              -73.7684014,
              5.7615247
            ],
            [
              -73.7664629,
              5.7623001
            ],
            [
              -73.7658777,
              5.7630103
            ],
            [
              -73.7654696,
              5.7638374
            ],
            [
              -73.7642359,
              5.7643148
            ],
            [
              -73.7632973,
              5.7649677
            ],
            [
              -73.7625941,
              5.7656194
            ],
            [
              -73.7619512,
              5.7665656
            ],
            [
              -73.7603697,
              5.7681646
            ],
            [
              -73.759667,
              5.7689343
            ],
            [
              -73.7580833,
              5.7700617
            ],
            [
              -73.7571438,
              5.7705377
            ],
            [
              -73.7553227,
              5.7712537
            ],
            [
              -73.7532628,
              5.7712634
            ],
            [
              -73.752322,
              5.7714446
            ],
            [
              -73.7514403,
              5.7716846
            ],
            [
              -73.7503826,
              5.7720432
            ],
            [
              -73.7493243,
              5.772284
            ],
            [
              -73.7483827,
              5.7722884
            ],
            [
              -73.7474987,
              5.7720568
            ],
            [
              -73.7466723,
              5.7715301
            ],
            [
              -73.7457301,
              5.7714166
            ],
            [
              -73.7449037,
              5.77089
            ],
            [
              -73.7441388,
              5.7709525
            ],
            [
              -73.7434356,
              5.7716043
            ],
            [
              -73.7430861,
              5.7723722
            ],
            [
              -73.7423842,
              5.7733187
            ],
            [
              -73.7407407,
              5.7743248
            ],
            [
              -73.7406329,
              5.7743247
            ],
            [
              -73.7403081,
              5.774278
            ],
            [
              -73.7392414,
              5.7734874
            ],
            [
              -73.7384531,
              5.7727899
            ],
            [
              -73.7372007,
              5.772278
            ],
            [
              -73.7355305,
              5.7720911
            ],
            [
              -73.7344637,
              5.7714399
            ],
            [
              -73.7342319,
              5.7712074
            ],
            [
              -73.7340465,
              5.7709284
            ],
            [
              -73.7337682,
              5.7707424
            ],
            [
              -73.7326086,
              5.7702305
            ],
            [
              -73.7312632,
              5.7700438
            ],
            [
              -73.7299176,
              5.7701359
            ],
            [
              -73.729268,
              5.7702285
            ],
            [
              -73.7276452,
              5.7702675
            ],
            [
              -73.7266902,
              5.7705642
            ],
            [
              -73.7253468,
              5.7713683
            ],
            [
              -73.7242187,
              5.7718729
            ],
            [
              -73.7232346,
              5.772206
            ],
            [
              -73.720492,
              5.7728929
            ],
            [
              -73.7196596,
              5.7732821
            ],
            [
              -73.7192024,
              5.7736191
            ],
            [
              -73.7185744,
              5.7742862
            ],
            [
              -73.7182005,
              5.7748375
            ],
            [
              -73.7179023,
              5.775396
            ],
            [
              -73.7163889,
              5.7792572
            ],
            [
              -73.715415,
              5.7810662
            ],
            [
              -73.7147951,
              5.7799751
            ],
            [
              -73.7141091,
              5.7793563
            ],
            [
              -73.7135464,
              5.7785504
            ],
            [
              -73.7130456,
              5.7776819
            ],
            [
              -73.7121107,
              5.7769399
            ],
            [
              -73.7108623,
              5.7755773
            ],
            [
              -73.7107295,
              5.773712
            ],
            [
              -73.7106004,
              5.7726552
            ],
            [
              -73.7100378,
              5.7718492
            ],
            [
              -73.7087271,
              5.7704247
            ],
            [
              -73.7080411,
              5.7698059
            ],
            [
              -73.7071074,
              5.7693127
            ],
            [
              -73.7053625,
              5.7680145
            ],
            [
              -73.70449,
              5.7673344
            ],
            [
              -73.7038035,
              5.7665912
            ],
            [
              -73.7032403,
              5.7656608
            ],
            [
              -73.7027355,
              5.7639216
            ],
            [
              -73.7027269,
              5.7620557
            ],
            [
              -73.7026605,
              5.761123
            ],
            [
              -73.7020982,
              5.7603792
            ],
            [
              -73.7005383,
              5.7587692
            ],
            [
              -73.6997279,
              5.7580887
            ],
            [
              -73.6991656,
              5.757345
            ],
            [
              -73.6984796,
              5.7567261
            ],
            [
              -73.6978555,
              5.7560448
            ],
            [
              -73.6959914,
              5.7558046
            ],
            [
              -73.6949979,
              5.7558091
            ],
            [
              -73.693755,
              5.7556282
            ],
            [
              -73.6924481,
              5.7550122
            ],
            [
              -73.6907034,
              5.7537141
            ],
            [
              -73.6897092,
              5.7535942
            ],
            [
              -73.6869148,
              5.753607
            ],
            [
              -73.685858,
              5.753363
            ],
            [
              -73.6841765,
              5.7523133
            ],
            [
              -73.6831168,
              5.7514474
            ],
            [
              -73.6821828,
              5.7508919
            ],
            [
              -73.681187,
              5.7503988
            ],
            [
              -73.6800048,
              5.7499066
            ],
            [
              -73.6788233,
              5.7495388
            ],
            [
              -73.6777052,
              5.7494817
            ],
            [
              -73.6767737,
              5.7494859
            ],
            [
              -73.6758417,
              5.7493658
            ],
            [
              -73.6745977,
              5.748936
            ],
            [
              -73.6738497,
              5.7483174
            ],
            [
              -73.6730362,
              5.7469527
            ],
            [
              -73.6728457,
              5.7460206
            ],
            [
              -73.6724071,
              5.7451518
            ],
            [
              -73.6722786,
              5.7442194
            ],
            [
              -73.6710299,
              5.7427322
            ],
            [
              -73.6705289,
              5.7418015
            ],
            [
              -73.6698368,
              5.7398142
            ],
            [
              -73.6697699,
              5.7387571
            ],
            [
              -73.6697609,
              5.7367668
            ],
            [
              -73.6690085,
              5.735153
            ],
            [
              -73.668134,
              5.7340373
            ],
            [
              -73.6676336,
              5.733231
            ],
            [
              -73.6670073,
              5.732052
            ],
            [
              -73.6668165,
              5.7310577
            ],
            [
              -73.6649057,
              5.7273224
            ],
            [
              -73.664312,
              5.7264978
            ],
            [
              -73.6636009,
              5.725792
            ],
            [
              -73.6622952,
              5.7240251
            ],
            [
              -73.6608714,
              5.7222588
            ],
            [
              -73.6599233,
              5.7213177
            ],
            [
              -73.6589768,
              5.720731
            ],
            [
              -73.6582662,
              5.7201433
            ],
            [
              -73.6577906,
              5.7193182
            ],
            [
              -73.6570784,
              5.7183759
            ],
            [
              -73.6566012,
              5.7171962
            ],
            [
              -73.6608071,
              5.7131893
            ],
            [
              -73.6565832,
              5.7131781
            ],
            [
              -73.6559901,
              5.7124717
            ],
            [
              -73.6550441,
              5.7120032
            ],
            [
              -73.6523696,
              5.7120152
            ],
            [
              -73.6479652,
              5.712035
            ],
            [
              -73.6469039,
              5.7121579
            ],
            [
              -73.6461986,
              5.712752
            ],
            [
              -73.6454949,
              5.7137006
            ],
            [
              -73.6449082,
              5.7144123
            ],
            [
              -73.644204,
              5.7152427
            ],
            [
              -73.6438542,
              5.7161897
            ],
            [
              -73.643505,
              5.717255
            ],
            [
              -73.6430367,
              5.7180843
            ],
            [
              -73.642569,
              5.7190319
            ],
            [
              -73.6424563,
              5.7202142
            ],
            [
              -73.6421066,
              5.7211613
            ],
            [
              -73.6412838,
              5.721874
            ],
            [
              -73.6405785,
              5.7224681
            ],
            [
              -73.6399918,
              5.7231798
            ],
            [
              -73.6395246,
              5.7242456
            ],
            [
              -73.6391748,
              5.7251926
            ],
            [
              -73.6391922,
              5.7290926
            ],
            [
              -73.638489,
              5.7301594
            ],
            [
              -73.6380213,
              5.7311069
            ],
            [
              -73.637553,
              5.7319363
            ],
            [
              -73.6373213,
              5.7328828
            ],
            [
              -73.6372075,
              5.7338288
            ],
            [
              -73.6369763,
              5.7348935
            ],
            [
              -73.6366265,
              5.7358405
            ],
            [
              -73.6360397,
              5.7365522
            ],
            [
              -73.6325132,
              5.7395226
            ],
            [
              -73.631927,
              5.7403525
            ],
            [
              -73.6313402,
              5.7410643
            ],
            [
              -73.6308724,
              5.7420118
            ],
            [
              -73.630885,
              5.7448482
            ],
            [
              -73.6310073,
              5.7457931
            ],
            [
              -73.6310157,
              5.747684
            ],
            [
              -73.6305474,
              5.7485134
            ],
            [
              -73.6304336,
              5.7494594
            ],
            [
              -73.6299659,
              5.750407
            ],
            [
              -73.6299917,
              5.7561979
            ],
            [
              -73.6298899,
              5.7577296
            ],
            [
              -73.6297754,
              5.7586407
            ],
            [
              -73.629305,
              5.7595138
            ],
            [
              -73.6288749,
              5.7605846
            ],
            [
              -73.6284437,
              5.7613783
            ],
            [
              -73.6281714,
              5.7623693
            ],
            [
              -73.627425,
              5.763402
            ],
            [
              -73.6271127,
              5.7642743
            ],
            [
              -73.6266426,
              5.7652266
            ],
            [
              -73.6262913,
              5.7662179
            ],
            [
              -73.6260979,
              5.7671689
            ],
            [
              -73.6260625,
              5.7680796
            ],
            [
              -73.6257503,
              5.7689916
            ],
            [
              -73.6256753,
              5.7699025
            ],
            [
              -73.6256401,
              5.7708528
            ],
            [
              -73.6256441,
              5.7717633
            ],
            [
              -73.6256877,
              5.7726737
            ],
            [
              -73.6256918,
              5.7735842
            ],
            [
              -73.6258148,
              5.7745734
            ],
            [
              -73.6258981,
              5.7755232
            ],
            [
              -73.6260209,
              5.7764728
            ],
            [
              -73.6260645,
              5.7773832
            ],
            [
              -73.6260949,
              5.7777158
            ],
            [
              -73.6261477,
              5.7782934
            ],
            [
              -73.6263494,
              5.779203
            ],
            [
              -73.6266307,
              5.7802311
            ],
            [
              -73.6268324,
              5.7811407
            ],
            [
              -73.6272314,
              5.7819822
            ],
            [
              -73.627473,
              5.7829709
            ],
            [
              -73.6277931,
              5.7838404
            ],
            [
              -73.6281528,
              5.7847098
            ],
            [
              -73.6282359,
              5.7856199
            ],
            [
              -73.6285171,
              5.7866084
            ],
            [
              -73.6287977,
              5.7874781
            ],
            [
              -73.6289601,
              5.7884275
            ],
            [
              -73.6291223,
              5.7893374
            ],
            [
              -73.6295608,
              5.7901668
            ],
            [
              -73.6297235,
              5.7911954
            ],
            [
              -73.6292137,
              5.7921082
            ],
            [
              -73.628546,
              5.7930614
            ],
            [
              -73.6281148,
              5.7938551
            ],
            [
              -73.6279608,
              5.7947664
            ],
            [
              -73.6275692,
              5.7955995
            ],
            [
              -73.6271011,
              5.7969873
            ],
            [
              -73.6264738,
              5.7981382
            ],
            [
              -73.6258853,
              5.7991306
            ],
            [
              -73.6257316,
              5.800121
            ],
            [
              -73.625741,
              5.8022192
            ],
            [
              -73.6253098,
              5.8030129
            ],
            [
              -73.62472,
              5.8037282
            ],
            [
              -73.6243695,
              5.8048858
            ],
            [
              -73.6243743,
              5.8059547
            ],
            [
              -73.62426,
              5.8069054
            ],
            [
              -73.6241894,
              5.808806
            ],
            [
              -73.6241942,
              5.8098749
            ],
            [
              -73.623962,
              5.8109844
            ],
            [
              -73.62361,
              5.8118174
            ],
            [
              -73.6232979,
              5.8127294
            ],
            [
              -73.6231439,
              5.8136406
            ],
            [
              -73.6229503,
              5.8145521
            ],
            [
              -73.6227963,
              5.8154633
            ],
            [
              -73.6221675,
              5.8162975
            ],
            [
              -73.6215381,
              5.8169734
            ],
            [
              -73.62087,
              5.8178474
            ],
            [
              -73.6204784,
              5.8186806
            ],
            [
              -73.6199328,
              5.820425
            ],
            [
              -73.6199457,
              5.8232754
            ],
            [
              -73.6199102,
              5.8241861
            ],
            [
              -73.6195993,
              5.8253752
            ],
            [
              -73.6191689,
              5.8263669
            ],
            [
              -73.6188571,
              5.827358
            ],
            [
              -73.6183092,
              5.8285878
            ],
            [
              -73.6178397,
              5.8296588
            ],
            [
              -73.6172914,
              5.8308173
            ],
            [
              -73.6163094,
              5.8322074
            ],
            [
              -73.6152069,
              5.8332021
            ],
            [
              -73.614109,
              5.8351866
            ],
            [
              -73.6124267,
              5.8391136
            ],
            [
              -73.6104647,
              5.8423688
            ],
            [
              -73.6095245,
              5.8442733
            ],
            [
              -73.6087401,
              5.8456625
            ],
            [
              -73.607449,
              5.8486772
            ],
            [
              -73.6067467,
              5.8507391
            ],
            [
              -73.6062069,
              5.8537899
            ],
            [
              -73.6055044,
              5.8558122
            ],
            [
              -73.6046445,
              5.8579935
            ],
            [
              -73.6038595,
              5.859264
            ],
            [
              -73.6026132,
              5.8634503
            ],
            [
              -73.6012824,
              5.8664216
            ],
            [
              -73.6005758,
              5.8675333
            ],
            [
              -73.5999074,
              5.8683678
            ],
            [
              -73.599912,
              5.8693971
            ],
            [
              -73.6007473,
              5.8705018
            ],
            [
              -73.6020211,
              5.872436
            ],
            [
              -73.6026207,
              5.8738981
            ],
            [
              -73.6033375,
              5.875043
            ],
            [
              -73.6040937,
              5.8761481
            ],
            [
              -73.6056413,
              5.877408
            ],
            [
              -73.6070305,
              5.878629
            ],
            [
              -73.6075498,
              5.8798144
            ],
            [
              -73.6081917,
              5.8818701
            ],
            [
              -73.6097864,
              5.8847926
            ],
            [
              -73.61249,
              5.8881454
            ],
            [
              -73.6138804,
              5.8896039
            ],
            [
              -73.6144366,
              5.8901952
            ],
            [
              -73.6159814,
              5.8908216
            ],
            [
              -73.6181194,
              5.8914849
            ],
            [
              -73.6199801,
              5.8920307
            ],
            [
              -73.6230277,
              5.892769
            ],
            [
              -73.6247281,
              5.8928404
            ],
            [
              -73.6261124,
              5.8929528
            ],
            [
              -73.6279368,
              5.8942113
            ],
            [
              -73.6292859,
              5.8952741
            ],
            [
              -73.6305573,
              5.8966538
            ],
            [
              -73.6316306,
              5.8979158
            ],
            [
              -73.631446,
              5.9007671
            ],
            [
              -73.6309097,
              5.9045305
            ],
            [
              -73.6306377,
              5.9055611
            ],
            [
              -73.6303266,
              5.9067106
            ],
            [
              -73.6296633,
              5.9086416
            ],
            [
              -73.6296759,
              5.9113733
            ],
            [
              -73.6297986,
              5.9122832
            ],
            [
              -73.6300005,
              5.9131929
            ],
            [
              -73.630155,
              5.9142445
            ],
            [
              -73.6303883,
              5.9141207
            ],
            [
              -73.631142,
              5.913579
            ],
            [
              -73.6323902,
              5.9124485
            ],
            [
              -73.6326357,
              5.9118177
            ],
            [
              -73.632886,
              5.9114437
            ],
            [
              -73.6333033,
              5.91112
            ],
            [
              -73.6338745,
              5.9109576
            ],
            [
              -73.6344877,
              5.9109513
            ],
            [
              -73.6359055,
              5.9112044
            ],
            [
              -73.6361173,
              5.9119923
            ],
            [
              -73.6366025,
              5.9122514
            ],
            [
              -73.6370063,
              5.9122994
            ],
            [
              -73.6374133,
              5.9124061
            ],
            [
              -73.6400589,
              5.9159709
            ],
            [
              -73.6406275,
              5.9164938
            ],
            [
              -73.6417578,
              5.9165203
            ],
            [
              -73.6424687,
              5.9168357
            ],
            [
              -73.642744,
              5.9171642
            ],
            [
              -73.6435355,
              5.9175521
            ],
            [
              -73.6437959,
              5.9180561
            ],
            [
              -73.6436574,
              5.9189406
            ],
            [
              -73.6440363,
              5.9198394
            ],
            [
              -73.6446772,
              5.9203619
            ],
            [
              -73.6456444,
              5.9207364
            ],
            [
              -73.6463653,
              5.9201975
            ],
            [
              -73.6474831,
              5.9209066
            ],
            [
              -73.6479591,
              5.9214051
            ],
            [
              -73.6486282,
              5.9214977
            ],
            [
              -73.6486878,
              5.9222247
            ],
            [
              -73.6491524,
              5.9227645
            ],
            [
              -73.6501348,
              5.9229038
            ],
            [
              -73.6512018,
              5.9232807
            ],
            [
              -73.6520452,
              5.9238441
            ],
            [
              -73.6531191,
              5.9247435
            ],
            [
              -73.6534991,
              5.9244433
            ],
            [
              -73.6543426,
              5.9242554
            ],
            [
              -73.6564147,
              5.9241463
            ],
            [
              -73.6588138,
              5.9247768
            ],
            [
              -73.6602582,
              5.924907
            ],
            [
              -73.6618836,
              5.9268358
            ],
            [
              -73.6630953,
              5.9273953
            ]
          ]
        ]
      },
      "id": "relation/1315423"
    }
  ]
}