{
  "type": "FeatureCollection",
  "features": [
    {
      "type": "Feature",
      "properties": {
        "@id": "relation/1315463",
        "DANE:area": "144.00",
        "DANE:departamento": "68",
        "admin_level": "6",
        "boundary": "administrative",
        "clcfile": "MunicipiosDepartamentos/ADM_Municipios.shp",
        "divipola": "68320",
        "entidad_te": "Cabecera Municipal",
        "is_in:country": "Colombia",
        "is_in:state": "Santander",
        "name": "Guadalupe",
        "objectid": "3736",
        "source": "OCHA - SIGOT",
        "type": "boundary",
        "wikidata": "Q2432014",
        "wikipedia": "es:Guadalupe (Santander)"
      },
      "geometry": {
        "type": "Polygon",
        "coordinates": [
          [
            [
              -73.4509945,
              6.2322923
            ],
            [
              -73.4516457,
              6.2321716
            ],
            [
              -73.4519983,
              6.2320697
            ],
            [
              -73.4523489,
              6.231936
            ],
            [
              -73.4527681,
              6.2317268
            ],
            [
              -73.4530073,
              6.2315808
            ],
            [
              -73.4533923,
              6.2313027
            ],
            [
              -73.4537162,
              6.2310262
            ],
            [
              -73.4540254,
              6.2307249
            ],
            [
              -73.4544401,
              6.2302615
            ],
            [
              -73.454715,
              6.2299137
            ],
            [
              -73.4550384,
              6.2294586
            ],
            [
              -73.4553491,
              6.2289686
            ],
            [
              -73.455646,
              6.2284448
            ],
            [
              -73.4559282,
              6.2278884
            ],
            [
              -73.4561947,
              6.2273005
            ],
            [
              -73.4564446,
              6.2266826
            ],
            [
              -73.4566769,
              6.2260362
            ],
            [
              -73.456891,
              6.225363
            ],
            [
              -73.4571721,
              6.2243272
            ],
            [
              -73.4578709,
              6.221187
            ],
            [
              -73.4581667,
              6.2201098
            ],
            [
              -73.458348,
              6.2195656
            ],
            [
              -73.458562,
              6.2190075
            ],
            [
              -73.4588113,
              6.218441
            ],
            [
              -73.459101,
              6.2178639
            ],
            [
              -73.4593469,
              6.2174235
            ],
            [
              -73.4596224,
              6.2169705
            ],
            [
              -73.4599313,
              6.216501
            ],
            [
              -73.4606377,
              6.2155314
            ],
            [
              -73.461596,
              6.2143447
            ],
            [
              -73.4633951,
              6.2121843
            ],
            [
              -73.463757,
              6.2117242
            ],
            [
              -73.4643861,
              6.2108773
            ],
            [
              -73.4649062,
              6.2101176
            ],
            [
              -73.4653311,
              6.2094491
            ],
            [
              -73.4665986,
              6.2072778
            ],
            [
              -73.4671542,
              6.2063607
            ],
            [
              -73.4676185,
              6.2056647
            ],
            [
              -73.4680473,
              6.205087
            ],
            [
              -73.4684469,
              6.204601
            ],
            [
              -73.4690078,
              6.2039881
            ],
            [
              -73.4693808,
              6.2036124
            ],
            [
              -73.470662,
              6.2023812
            ],
            [
              -73.4713622,
              6.2016671
            ],
            [
              -73.4717947,
              6.2011905
            ],
            [
              -73.4722349,
              6.2006694
            ],
            [
              -73.4726836,
              6.2000935
            ],
            [
              -73.4729495,
              6.1997275
            ],
            [
              -73.4734875,
              6.1989221
            ],
            [
              -73.4737567,
              6.1984814
            ],
            [
              -73.4743024,
              6.1974926
            ],
            [
              -73.4748279,
              6.1964054
            ],
            [
              -73.4757365,
              6.1943662
            ],
            [
              -73.4761062,
              6.1935852
            ],
            [
              -73.4763097,
              6.1931837
            ],
            [
              -73.4767013,
              6.192471
            ],
            [
              -73.4770637,
              6.1918759
            ],
            [
              -73.477449,
              6.191297
            ],
            [
              -73.479092,
              6.1890437
            ],
            [
              -73.4795133,
              6.1884046
            ],
            [
              -73.4798416,
              6.1878362
            ],
            [
              -73.4800976,
              6.1873176
            ],
            [
              -73.4802403,
              6.1869829
            ],
            [
              -73.4804817,
              6.1862956
            ],
            [
              -73.4805923,
              6.1859024
            ],
            [
              -73.4807782,
              6.1850586
            ],
            [
              -73.4809386,
              6.1840544
            ],
            [
              -73.4810631,
              6.1832745
            ],
            [
              -73.4812674,
              6.1821408
            ],
            [
              -73.4814294,
              6.1814579
            ],
            [
              -73.4816456,
              6.1807281
            ],
            [
              -73.4819418,
              6.1799116
            ],
            [
              -73.4821283,
              6.1794599
            ],
            [
              -73.4825052,
              6.1786257
            ],
            [
              -73.4827981,
              6.17669
            ],
            [
              -73.4838027,
              6.1758302
            ],
            [
              -73.4840828,
              6.1750685
            ],
            [
              -73.4842872,
              6.1743825
            ],
            [
              -73.4844116,
              6.1738556
            ],
            [
              -73.4845239,
              6.1732258
            ],
            [
              -73.484599,
              6.1725893
            ],
            [
              -73.4846382,
              6.1719281
            ],
            [
              -73.4846396,
              6.1712494
            ],
            [
              -73.4846019,
              6.1705509
            ],
            [
              -73.4845242,
              6.169836
            ],
            [
              -73.484406,
              6.1691086
            ],
            [
              -73.4842469,
              6.168371
            ],
            [
              -73.4840479,
              6.1676299
            ],
            [
              -73.4838101,
              6.1668904
            ],
            [
              -73.4835352,
              6.1661577
            ],
            [
              -73.4832252,
              6.165437
            ],
            [
              -73.4828827,
              6.1647335
            ],
            [
              -73.4824913,
              6.1640259
            ],
            [
              -73.4824216,
              6.1638999
            ],
            [
              -73.4821126,
              6.1633978
            ],
            [
              -73.4817247,
              6.1628197
            ],
            [
              -73.4813213,
              6.16227
            ],
            [
              -73.4809116,
              6.1617572
            ],
            [
              -73.4804706,
              6.1612485
            ],
            [
              -73.4799695,
              6.1607164
            ],
            [
              -73.4794518,
              6.1602101
            ],
            [
              -73.4789249,
              6.159733
            ],
            [
              -73.4783959,
              6.1592865
            ],
            [
              -73.4775291,
              6.1586101
            ],
            [
              -73.475845,
              6.1573783
            ],
            [
              -73.4754274,
              6.1570427
            ],
            [
              -73.4751693,
              6.1568129
            ],
            [
              -73.4747775,
              6.1564058
            ],
            [
              -73.4744951,
              6.1560352
            ],
            [
              -73.4734684,
              6.1561782
            ],
            [
              -73.4724923,
              6.1563435
            ],
            [
              -73.4718381,
              6.1564473
            ],
            [
              -73.4709682,
              6.1565769
            ],
            [
              -73.4698476,
              6.1567345
            ],
            [
              -73.4694429,
              6.1567989
            ],
            [
              -73.4692907,
              6.1568107
            ],
            [
              -73.4687372,
              6.156956
            ],
            [
              -73.4685509,
              6.1570105
            ],
            [
              -73.4683654,
              6.1570705
            ],
            [
              -73.4681818,
              6.157135
            ],
            [
              -73.46782,
              6.1572763
            ],
            [
              -73.4676421,
              6.1573534
            ],
            [
              -73.4673446,
              6.1574958
            ],
            [
              -73.4670706,
              6.1576437
            ],
            [
              -73.4663748,
              6.1580603
            ],
            [
              -73.4662391,
              6.1581351
            ],
            [
              -73.4660634,
              6.1582244
            ],
            [
              -73.4658657,
              6.1583156
            ],
            [
              -73.4656246,
              6.1584161
            ],
            [
              -73.4654619,
              6.1584796
            ],
            [
              -73.4647796,
              6.1587302
            ],
            [
              -73.4646135,
              6.1587991
            ],
            [
              -73.4644448,
              6.1588781
            ],
            [
              -73.4642821,
              6.1589664
            ],
            [
              -73.4641609,
              6.1590426
            ],
            [
              -73.4640448,
              6.1591259
            ],
            [
              -73.463922,
              6.1592271
            ],
            [
              -73.4638061,
              6.1593364
            ],
            [
              -73.4636713,
              6.1594831
            ],
            [
              -73.4635462,
              6.1596396
            ],
            [
              -73.4634393,
              6.1597908
            ],
            [
              -73.4633394,
              6.159948
            ],
            [
              -73.4632314,
              6.1601356
            ],
            [
              -73.4631291,
              6.1603278
            ],
            [
              -73.4627914,
              6.1610011
            ],
            [
              -73.4626058,
              6.1613623
            ],
            [
              -73.4618377,
              6.1628116
            ],
            [
              -73.4615403,
              6.1633972
            ],
            [
              -73.4613525,
              6.1637886
            ],
            [
              -73.4611788,
              6.1641755
            ],
            [
              -73.4611288,
              6.164277
            ],
            [
              -73.4610666,
              6.164413
            ],
            [
              -73.4609248,
              6.1647996
            ],
            [
              -73.4607766,
              6.1652116
            ],
            [
              -73.4606414,
              6.1656281
            ],
            [
              -73.4605331,
              6.166002
            ],
            [
              -73.4604344,
              6.1663787
            ],
            [
              -73.4603884,
              6.1665679
            ],
            [
              -73.4603123,
              6.1669063
            ],
            [
              -73.4602347,
              6.1672831
            ],
            [
              -73.4599614,
              6.1687377
            ],
            [
              -73.4598364,
              6.1693594
            ],
            [
              -73.459775,
              6.1696703
            ],
            [
              -73.4596893,
              6.1697748
            ],
            [
              -73.4595126,
              6.1698001
            ],
            [
              -73.4591996,
              6.1699255
            ],
            [
              -73.4590248,
              6.1699884
            ],
            [
              -73.4588125,
              6.1700585
            ],
            [
              -73.4585956,
              6.1701243
            ],
            [
              -73.4583966,
              6.1701803
            ],
            [
              -73.4573991,
              6.1704453
            ],
            [
              -73.457191,
              6.1705061
            ],
            [
              -73.4568866,
              6.1706022
            ],
            [
              -73.4565357,
              6.1707223
            ],
            [
              -73.4557463,
              6.1710084
            ],
            [
              -73.4550189,
              6.1712664
            ],
            [
              -73.4546691,
              6.1713982
            ],
            [
              -73.4545117,
              6.1714631
            ],
            [
              -73.4543562,
              6.1715319
            ],
            [
              -73.4541973,
              6.1716075
            ],
            [
              -73.4540404,
              6.1716873
            ],
            [
              -73.4538666,
              6.1717809
            ],
            [
              -73.4531924,
              6.1721585
            ],
            [
              -73.4528981,
              6.1723126
            ],
            [
              -73.4524368,
              6.172535
            ],
            [
              -73.4522625,
              6.172629
            ],
            [
              -73.4516814,
              6.172878
            ],
            [
              -73.4513151,
              6.1730503
            ],
            [
              -73.450962,
              6.1732267
            ],
            [
              -73.4506254,
              6.1734066
            ],
            [
              -73.4503061,
              6.1735906
            ],
            [
              -73.4501656,
              6.1736766
            ],
            [
              -73.4499155,
              6.1738381
            ],
            [
              -73.4496373,
              6.1740298
            ],
            [
              -73.4493131,
              6.1742597
            ],
            [
              -73.4489694,
              6.1745036
            ],
            [
              -73.4486822,
              6.1746922
            ],
            [
              -73.4484303,
              6.1748422
            ],
            [
              -73.4482953,
              6.1749167
            ],
            [
              -73.4480166,
              6.1750597
            ],
            [
              -73.4476739,
              6.175221
            ],
            [
              -73.4474735,
              6.1753021
            ],
            [
              -73.4468287,
              6.175563
            ],
            [
              -73.4467423,
              6.175598
            ],
            [
              -73.4466976,
              6.1756055
            ],
            [
              -73.4466668,
              6.175613
            ],
            [
              -73.4466316,
              6.1756215
            ],
            [
              -73.4465767,
              6.1756505
            ],
            [
              -73.4465345,
              6.1756855
            ],
            [
              -73.4464876,
              6.1757243
            ],
            [
              -73.4463103,
              6.1757876
            ],
            [
              -73.4455209,
              6.1761935
            ],
            [
              -73.4453584,
              6.1762771
            ],
            [
              -73.4451567,
              6.1763605
            ],
            [
              -73.4449683,
              6.1764332
            ],
            [
              -73.4447783,
              6.1765013
            ],
            [
              -73.4445842,
              6.1765655
            ],
            [
              -73.4443886,
              6.1766248
            ],
            [
              -73.4441917,
              6.1766791
            ],
            [
              -73.4439935,
              6.1767285
            ],
            [
              -73.4437955,
              6.1767724
            ],
            [
              -73.4435965,
              6.1768114
            ],
            [
              -73.4433755,
              6.1768485
            ],
            [
              -73.4431536,
              6.1768797
            ],
            [
              -73.4429309,
              6.1769051
            ],
            [
              -73.4425904,
              6.1769318
            ],
            [
              -73.4422492,
              6.1769446
            ],
            [
              -73.441905,
              6.176943
            ],
            [
              -73.4413944,
              6.1769226
            ],
            [
              -73.4407941,
              6.1768364
            ],
            [
              -73.4407172,
              6.1768237
            ],
            [
              -73.4403281,
              6.176746
            ],
            [
              -73.4399553,
              6.1766552
            ],
            [
              -73.4395988,
              6.1765542
            ],
            [
              -73.4392455,
              6.1764419
            ],
            [
              -73.4390646,
              6.1763795
            ],
            [
              -73.4383763,
              6.1761264
            ],
            [
              -73.438036,
              6.1760084
            ],
            [
              -73.4378278,
              6.1759451
            ],
            [
              -73.4376179,
              6.1758899
            ],
            [
              -73.4373369,
              6.1758319
            ],
            [
              -73.4371888,
              6.1758087
            ],
            [
              -73.43704,
              6.1757905
            ],
            [
              -73.4368815,
              6.1757763
            ],
            [
              -73.4367226,
              6.1757671
            ],
            [
              -73.4365501,
              6.1757626
            ],
            [
              -73.4363772,
              6.1757631
            ],
            [
              -73.4361962,
              6.1757685
            ],
            [
              -73.4360543,
              6.1757809
            ],
            [
              -73.4359414,
              6.1757726
            ],
            [
              -73.4356377,
              6.1758083
            ],
            [
              -73.4344609,
              6.1759333
            ],
            [
              -73.4340438,
              6.1759676
            ],
            [
              -73.433835,
              6.1759803
            ],
            [
              -73.4336251,
              6.1759895
            ],
            [
              -73.4332048,
              6.1759989
            ],
            [
              -73.4328037,
              6.1759993
            ],
            [
              -73.4320013,
              6.1759931
            ],
            [
              -73.4316005,
              6.1759957
            ],
            [
              -73.4313825,
              6.1760013
            ],
            [
              -73.4309688,
              6.176023
            ],
            [
              -73.4305818,
              6.176058
            ],
            [
              -73.4302462,
              6.1761079
            ],
            [
              -73.4301332,
              6.1761015
            ],
            [
              -73.4297748,
              6.1761695
            ],
            [
              -73.4285889,
              6.1763633
            ],
            [
              -73.4280411,
              6.1764438
            ],
            [
              -73.4276198,
              6.1765013
            ],
            [
              -73.4265652,
              6.1766347
            ],
            [
              -73.4261429,
              6.1766833
            ],
            [
              -73.4257529,
              6.1767238
            ],
            [
              -73.4251672,
              6.1767754
            ],
            [
              -73.4245786,
              6.1768113
            ],
            [
              -73.4239639,
              6.1768311
            ],
            [
              -73.4228581,
              6.1768467
            ],
            [
              -73.4224163,
              6.1768597
            ],
            [
              -73.4220228,
              6.1768817
            ],
            [
              -73.4216303,
              6.1769153
            ],
            [
              -73.4214116,
              6.17694
            ],
            [
              -73.4209755,
              6.1770004
            ],
            [
              -73.42057,
              6.1770673
            ],
            [
              -73.4195573,
              6.1772466
            ],
            [
              -73.4191364,
              6.1773137
            ],
            [
              -73.4187355,
              6.1773695
            ],
            [
              -73.4183546,
              6.1774154
            ],
            [
              -73.4179443,
              6.1774587
            ],
            [
              -73.416839,
              6.1775625
            ],
            [
              -73.4163916,
              6.1776081
            ],
            [
              -73.415969,
              6.1776578
            ],
            [
              -73.4155403,
              6.1777158
            ],
            [
              -73.4148968,
              6.1778178
            ],
            [
              -73.4142334,
              6.1779366
            ],
            [
              -73.4135698,
              6.1780686
            ],
            [
              -73.4128464,
              6.1782236
            ],
            [
              -73.412069,
              6.1784938
            ],
            [
              -73.4114,
              6.1786563
            ],
            [
              -73.4105407,
              6.179075
            ],
            [
              -73.409617,
              6.1793344
            ],
            [
              -73.4087913,
              6.180136
            ],
            [
              -73.4080604,
              6.1807137
            ],
            [
              -73.4076175,
              6.1815455
            ],
            [
              -73.4071415,
              6.1820902
            ],
            [
              -73.406314,
              6.1824769
            ],
            [
              -73.4057752,
              6.1832452
            ],
            [
              -73.4050164,
              6.1847487
            ],
            [
              -73.4050285,
              6.1875255
            ],
            [
              -73.4047453,
              6.1883885
            ],
            [
              -73.4040783,
              6.1890298
            ],
            [
              -73.4031581,
              6.1900871
            ],
            [
              -73.4028456,
              6.1915567
            ],
            [
              -73.4023082,
              6.1926443
            ],
            [
              -73.4015134,
              6.1932223
            ],
            [
              -73.4006544,
              6.1937048
            ],
            [
              -73.3993812,
              6.1942849
            ],
            [
              -73.3984577,
              6.1946081
            ],
            [
              -73.3975028,
              6.1950272
            ],
            [
              -73.3967075,
              6.1955095
            ],
            [
              -73.3958164,
              6.1959283
            ],
            [
              -73.3950852,
              6.1964741
            ],
            [
              -73.3940683,
              6.1973084
            ],
            [
              -73.3934763,
              6.1974086
            ],
            [
              -73.3930602,
              6.1974027
            ],
            [
              -73.3930355,
              6.1976511
            ],
            [
              -73.3929889,
              6.1979306
            ],
            [
              -73.3928697,
              6.1984427
            ],
            [
              -73.3927436,
              6.1988619
            ],
            [
              -73.3925729,
              6.1993199
            ],
            [
              -73.392241,
              6.2000232
            ],
            [
              -73.3918329,
              6.200734
            ],
            [
              -73.3908344,
              6.2023083
            ],
            [
              -73.3904393,
              6.2029581
            ],
            [
              -73.3900384,
              6.2036601
            ],
            [
              -73.3896424,
              6.2044302
            ],
            [
              -73.3894722,
              6.2041483
            ],
            [
              -73.389422,
              6.2037676
            ],
            [
              -73.3893914,
              6.2035877
            ],
            [
              -73.3893485,
              6.2033802
            ],
            [
              -73.3893039,
              6.2031993
            ],
            [
              -73.3892514,
              6.2030143
            ],
            [
              -73.3891913,
              6.2028288
            ],
            [
              -73.3891237,
              6.2026454
            ],
            [
              -73.389029,
              6.2024231
            ],
            [
              -73.3889235,
              6.2022085
            ],
            [
              -73.3888128,
              6.2020111
            ],
            [
              -73.3886927,
              6.2018229
            ],
            [
              -73.3885551,
              6.2016346
            ],
            [
              -73.3884092,
              6.2014553
            ],
            [
              -73.3882576,
              6.2012829
            ],
            [
              -73.388102,
              6.2011159
            ],
            [
              -73.3877838,
              6.2007932
            ],
            [
              -73.386984,
              6.200014
            ],
            [
              -73.3868294,
              6.1998558
            ],
            [
              -73.3865688,
              6.1995719
            ],
            [
              -73.3864437,
              6.1994267
            ],
            [
              -73.3863226,
              6.1992792
            ],
            [
              -73.3862043,
              6.1991263
            ],
            [
              -73.3860922,
              6.1989702
            ],
            [
              -73.3859879,
              6.1988104
            ],
            [
              -73.3858934,
              6.198646
            ],
            [
              -73.3858164,
              6.1984885
            ],
            [
              -73.3857497,
              6.198327
            ],
            [
              -73.3856931,
              6.198162
            ],
            [
              -73.3856474,
              6.197994
            ],
            [
              -73.3856134,
              6.1978234
            ],
            [
              -73.3855884,
              6.1976098
            ],
            [
              -73.3855762,
              6.1973939
            ],
            [
              -73.3855641,
              6.1969596
            ],
            [
              -73.3855526,
              6.19675
            ],
            [
              -73.3855319,
              6.196543
            ],
            [
              -73.3854978,
              6.1963401
            ],
            [
              -73.3854454,
              6.1961434
            ],
            [
              -73.3853883,
              6.1959941
            ],
            [
              -73.3853186,
              6.1958494
            ],
            [
              -73.3852385,
              6.1957087
            ],
            [
              -73.3851496,
              6.1955716
            ],
            [
              -73.3850327,
              6.1954109
            ],
            [
              -73.3849076,
              6.195254
            ],
            [
              -73.3847765,
              6.1950999
            ],
            [
              -73.3846411,
              6.1949478
            ],
            [
              -73.3843632,
              6.1946482
            ],
            [
              -73.3835085,
              6.1937455
            ],
            [
              -73.38236,
              6.1924998
            ],
            [
              -73.3819254,
              6.1920418
            ],
            [
              -73.3814988,
              6.1916068
            ],
            [
              -73.3811938,
              6.191307
            ],
            [
              -73.3808648,
              6.191002
            ],
            [
              -73.3806952,
              6.1908562
            ],
            [
              -73.3805205,
              6.1907172
            ],
            [
              -73.380382,
              6.190616
            ],
            [
              -73.38024,
              6.1905195
            ],
            [
              -73.3800949,
              6.1904272
            ],
            [
              -73.3797965,
              6.1902518
            ],
            [
              -73.3788023,
              6.1897011
            ],
            [
              -73.3783017,
              6.1894181
            ],
            [
              -73.377972,
              6.1892228
            ],
            [
              -73.3778019,
              6.1891171
            ],
            [
              -73.3774679,
              6.1888975
            ],
            [
              -73.3773035,
              6.188782
            ],
            [
              -73.3771424,
              6.1886628
            ],
            [
              -73.3769852,
              6.1885392
            ],
            [
              -73.3768465,
              6.1884224
            ],
            [
              -73.3767122,
              6.1883012
            ],
            [
              -73.3765829,
              6.1881754
            ],
            [
              -73.3764594,
              6.1880445
            ],
            [
              -73.3763429,
              6.1879078
            ],
            [
              -73.3762325,
              6.1877618
            ],
            [
              -73.3761291,
              6.1876102
            ],
            [
              -73.3760312,
              6.1874542
            ],
            [
              -73.3758473,
              6.1871328
            ],
            [
              -73.3757523,
              6.1869546
            ],
            [
              -73.3755705,
              6.1865927
            ],
            [
              -73.3754766,
              6.1864105
            ],
            [
              -73.3753931,
              6.1862123
            ],
            [
              -73.3750365,
              6.185423
            ],
            [
              -73.3749423,
              6.1852293
            ],
            [
              -73.3748435,
              6.1850387
            ],
            [
              -73.3747383,
              6.1848525
            ],
            [
              -73.374631,
              6.1846794
            ],
            [
              -73.3744101,
              6.1843391
            ],
            [
              -73.3743045,
              6.1841673
            ],
            [
              -73.3742148,
              6.1840055
            ],
            [
              -73.3741343,
              6.1838401
            ],
            [
              -73.3740648,
              6.183671
            ],
            [
              -73.374009,
              6.1834978
            ],
            [
              -73.3739874,
              6.1834058
            ],
            [
              -73.373986,
              6.1834069
            ],
            [
              -73.3736012,
              6.1837918
            ],
            [
              -73.3727868,
              6.1839004
            ],
            [
              -73.3716034,
              6.1837229
            ],
            [
              -73.3705196,
              6.1836627
            ],
            [
              -73.3694465,
              6.1835434
            ],
            [
              -73.3681411,
              6.1833654
            ],
            [
              -73.3673294,
              6.1831335
            ],
            [
              -73.3664882,
              6.1827129
            ],
            [
              -73.3657738,
              6.182518
            ],
            [
              -73.3649109,
              6.1826508
            ],
            [
              -73.3643862,
              6.1830443
            ],
            [
              -73.3641283,
              6.1832895
            ],
            [
              -73.3641283,
              6.1827075
            ],
            [
              -73.3640362,
              6.1818786
            ],
            [
              -73.3638559,
              6.1810221
            ],
            [
              -73.3637639,
              6.1802862
            ],
            [
              -73.3633852,
              6.1793395
            ],
            [
              -73.3629852,
              6.1788394
            ],
            [
              -73.3622751,
              6.1784607
            ],
            [
              -73.3614852,
              6.1780658
            ],
            [
              -73.360799,
              6.1774578
            ],
            [
              -73.3603228,
              6.1781995
            ],
            [
              -73.3601271,
              6.1790987
            ],
            [
              -73.3600325,
              6.180297
            ],
            [
              -73.3597371,
              6.1811967
            ],
            [
              -73.3592423,
              6.1820972
            ],
            [
              -73.3590488,
              6.1834955
            ],
            [
              -73.3584572,
              6.1850953
            ],
            [
              -73.3572646,
              6.1860986
            ],
            [
              -73.3560724,
              6.1872018
            ],
            [
              -73.354078,
              6.1873101
            ],
            [
              -73.3531812,
              6.1875136
            ],
            [
              -73.3517874,
              6.1881185
            ],
            [
              -73.3508948,
              6.1893202
            ],
            [
              -73.3501037,
              6.1909208
            ],
            [
              -73.3496089,
              6.1918213
            ],
            [
              -73.3490134,
              6.1925226
            ],
            [
              -73.348221,
              6.1938237
            ],
            [
              -73.3476255,
              6.194525
            ],
            [
              -73.34673,
              6.195028
            ],
            [
              -73.3458336,
              6.1953313
            ],
            [
              -73.3450378,
              6.1958338
            ],
            [
              -73.3438442,
              6.1966375
            ],
            [
              -73.3429521,
              6.197939
            ],
            [
              -73.3428583,
              6.1993369
            ],
            [
              -73.3425629,
              6.2002366
            ],
            [
              -73.3411754,
              6.2023388
            ],
            [
              -73.3406801,
              6.2031395
            ],
            [
              -73.3402854,
              6.2041395
            ],
            [
              -73.3392913,
              6.2049423
            ],
            [
              -73.3385957,
              6.2055442
            ],
            [
              -73.3378011,
              6.2063462
            ],
            [
              -73.3369085,
              6.2075479
            ],
            [
              -73.3364132,
              6.2083486
            ],
            [
              -73.3356199,
              6.20945
            ],
            [
              -73.3349276,
              6.2108505
            ],
            [
              -73.3348334,
              6.2121486
            ],
            [
              -73.3348453,
              6.2149437
            ],
            [
              -73.3359498,
              6.216636
            ],
            [
              -73.3374562,
              6.2190253
            ],
            [
              -73.3383595,
              6.2203191
            ],
            [
              -73.3392451,
              6.2214998
            ],
            [
              -73.3395095,
              6.2220869
            ],
            [
              -73.3407342,
              6.2247707
            ],
            [
              -73.3408995,
              6.225143
            ],
            [
              -73.3410574,
              6.2255145
            ],
            [
              -73.3412187,
              6.2259249
            ],
            [
              -73.3413812,
              6.2263855
            ],
            [
              -73.3414443,
              6.2265813
            ],
            [
              -73.3415543,
              6.2269502
            ],
            [
              -73.3416864,
              6.2274392
            ],
            [
              -73.3418053,
              6.2279347
            ],
            [
              -73.3418883,
              6.2283382
            ],
            [
              -73.3419225,
              6.2285376
            ],
            [
              -73.341951,
              6.2287376
            ],
            [
              -73.3419694,
              6.2289042
            ],
            [
              -73.3419826,
              6.2290712
            ],
            [
              -73.3419919,
              6.2293589
            ],
            [
              -73.3419842,
              6.2296281
            ],
            [
              -73.3419672,
              6.2298466
            ],
            [
              -73.3419022,
              6.2304184
            ],
            [
              -73.3418741,
              6.2307001
            ],
            [
              -73.3418519,
              6.2310217
            ],
            [
              -73.3418459,
              6.2311829
            ],
            [
              -73.3418446,
              6.2313833
            ],
            [
              -73.3418507,
              6.2315838
            ],
            [
              -73.341863,
              6.2317617
            ],
            [
              -73.3418829,
              6.2319392
            ],
            [
              -73.3419107,
              6.232114
            ],
            [
              -73.3419473,
              6.232288
            ],
            [
              -73.341981,
              6.2324181
            ],
            [
              -73.3420201,
              6.2325474
            ],
            [
              -73.3420947,
              6.2327529
            ],
            [
              -73.3421454,
              6.2328723
            ],
            [
              -73.342201,
              6.2329907
            ],
            [
              -73.3422841,
              6.2331488
            ],
            [
              -73.3423757,
              6.2333047
            ],
            [
              -73.3425006,
              6.2334946
            ],
            [
              -73.3426548,
              6.2337042
            ],
            [
              -73.3428353,
              6.2339261
            ],
            [
              -73.3429932,
              6.2341067
            ],
            [
              -73.3431528,
              6.2342812
            ],
            [
              -73.3435055,
              6.2346582
            ],
            [
              -73.3435921,
              6.2347567
            ],
            [
              -73.3438493,
              6.2348824
            ],
            [
              -73.3444473,
              6.2352753
            ],
            [
              -73.3448331,
              6.2355832
            ],
            [
              -73.345096,
              6.235807
            ],
            [
              -73.3452246,
              6.2359216
            ],
            [
              -73.3454911,
              6.2361724
            ],
            [
              -73.3457395,
              6.2364239
            ],
            [
              -73.3458847,
              6.2365784
            ],
            [
              -73.3461086,
              6.2368268
            ],
            [
              -73.3463328,
              6.2370864
            ],
            [
              -73.3469695,
              6.2378409
            ],
            [
              -73.3472098,
              6.2381129
            ],
            [
              -73.347491,
              6.2384093
            ],
            [
              -73.347644,
              6.2385597
            ],
            [
              -73.3478117,
              6.2387148
            ],
            [
              -73.3479326,
              6.2388202
            ],
            [
              -73.3481799,
              6.2390202
            ],
            [
              -73.3483059,
              6.2391151
            ],
            [
              -73.3484826,
              6.2392412
            ],
            [
              -73.348722,
              6.2394029
            ],
            [
              -73.3493673,
              6.2398163
            ],
            [
              -73.3496803,
              6.2400224
            ],
            [
              -73.3499424,
              6.2402085
            ],
            [
              -73.3500854,
              6.2403184
            ],
            [
              -73.3502244,
              6.2404329
            ],
            [
              -73.350343,
              6.2405377
            ],
            [
              -73.3504578,
              6.2406466
            ],
            [
              -73.3506,
              6.2407926
            ],
            [
              -73.3507753,
              6.2409885
            ],
            [
              -73.3510782,
              6.2413437
            ],
            [
              -73.3512877,
              6.2415741
            ],
            [
              -73.3514116,
              6.2416974
            ],
            [
              -73.3515655,
              6.2418356
            ],
            [
              -73.3516836,
              6.2419311
            ],
            [
              -73.3518058,
              6.2420215
            ],
            [
              -73.3519338,
              6.2421081
            ],
            [
              -73.3520654,
              6.2421899
            ],
            [
              -73.352244,
              6.242291
            ],
            [
              -73.3524927,
              6.2424162
            ],
            [
              -73.3526643,
              6.2424948
            ],
            [
              -73.3528381,
              6.2425697
            ],
            [
              -73.353149,
              6.2426946
            ],
            [
              -73.3537282,
              6.2429144
            ],
            [
              -73.3541195,
              6.2430686
            ],
            [
              -73.3542985,
              6.2431448
            ],
            [
              -73.3544966,
              6.2432352
            ],
            [
              -73.3547922,
              6.2433842
            ],
            [
              -73.3549989,
              6.243501
            ],
            [
              -73.3551048,
              6.2435655
            ],
            [
              -73.3553243,
              6.2437098
            ],
            [
              -73.3554354,
              6.2437885
            ],
            [
              -73.3556939,
              6.2439843
            ],
            [
              -73.3558409,
              6.2441017
            ],
            [
              -73.3564215,
              6.2445803
            ],
            [
              -73.3567509,
              6.2448404
            ],
            [
              -73.3569194,
              6.2449632
            ],
            [
              -73.357092,
              6.2450782
            ],
            [
              -73.3572703,
              6.2451826
            ],
            [
              -73.3574728,
              6.2452818
            ],
            [
              -73.3576572,
              6.2453586
            ],
            [
              -73.3578454,
              6.2454284
            ],
            [
              -73.358036,
              6.2454936
            ],
            [
              -73.3585859,
              6.2456752
            ],
            [
              -73.3589135,
              6.2457957
            ],
            [
              -73.3590754,
              6.2458637
            ],
            [
              -73.3592344,
              6.2459377
            ],
            [
              -73.35939,
              6.2460184
            ],
            [
              -73.3595567,
              6.2461154
            ],
            [
              -73.3597193,
              6.2462198
            ],
            [
              -73.3598788,
              6.24633
            ],
            [
              -73.3601867,
              6.2465603
            ],
            [
              -73.3607806,
              6.2470276
            ],
            [
              -73.3610741,
              6.2472475
            ],
            [
              -73.3613716,
              6.2474555
            ],
            [
              -73.3615236,
              6.2475549
            ],
            [
              -73.3617048,
              6.2476666
            ],
            [
              -73.3618893,
              6.2477729
            ],
            [
              -73.3620792,
              6.2478751
            ],
            [
              -73.3624547,
              6.2480608
            ],
            [
              -73.3628251,
              6.2482302
            ],
            [
              -73.3637126,
              6.2486176
            ],
            [
              -73.3641317,
              6.248808
            ],
            [
              -73.3642923,
              6.2488864
            ],
            [
              -73.3644499,
              6.2489699
            ],
            [
              -73.3646046,
              6.2490623
            ],
            [
              -73.3647523,
              6.2491656
            ],
            [
              -73.3648711,
              6.2492645
            ],
            [
              -73.3649821,
              6.2493737
            ],
            [
              -73.3650967,
              6.249509
            ],
            [
              -73.3651996,
              6.249656
            ],
            [
              -73.3653044,
              6.2498404
            ],
            [
              -73.3653939,
              6.250034
            ],
            [
              -73.3654616,
              6.2502093
            ],
            [
              -73.3655189,
              6.2503818
            ],
            [
              -73.3655622,
              6.2505285
            ],
            [
              -73.3656503,
              6.2508588
            ],
            [
              -73.36577,
              6.2524714
            ],
            [
              -73.3659662,
              6.2551518
            ],
            [
              -73.3659662,
              6.2573747
            ],
            [
              -73.3658354,
              6.2589438
            ],
            [
              -73.3650509,
              6.2611666
            ],
            [
              -73.3640702,
              6.2629972
            ],
            [
              -73.3629588,
              6.2644355
            ],
            [
              -73.3611936,
              6.2673121
            ],
            [
              -73.3601476,
              6.2691427
            ],
            [
              -73.3591669,
              6.2712348
            ],
            [
              -73.3589054,
              6.273
            ],
            [
              -73.35884,
              6.2748959
            ],
            [
              -73.3589586,
              6.2764566
            ],
            [
              -73.3596706,
              6.2768062
            ],
            [
              -73.3601216,
              6.2770581
            ],
            [
              -73.360715,
              6.2774279
            ],
            [
              -73.3609478,
              6.277573
            ],
            [
              -73.3613235,
              6.2778338
            ],
            [
              -73.3619829,
              6.278341
            ],
            [
              -73.3625736,
              6.2788629
            ],
            [
              -73.3630858,
              6.2793846
            ],
            [
              -73.3633257,
              6.2796572
            ],
            [
              -73.3637161,
              6.2801513
            ],
            [
              -73.3641311,
              6.2807644
            ],
            [
              -73.3643811,
              6.2811902
            ],
            [
              -73.3646279,
              6.2816611
            ],
            [
              -73.3648748,
              6.2821894
            ],
            [
              -73.3652998,
              6.2832382
            ],
            [
              -73.3660056,
              6.2851782
            ],
            [
              -73.3662885,
              6.2858922
            ],
            [
              -73.3665964,
              6.2865753
            ],
            [
              -73.3668982,
              6.2871487
            ],
            [
              -73.3672559,
              6.2877203
            ],
            [
              -73.367623,
              6.2882079
            ],
            [
              -73.3680117,
              6.2886389
            ],
            [
              -73.3682244,
              6.2888449
            ],
            [
              -73.3687055,
              6.2892484
            ],
            [
              -73.3692738,
              6.2896381
            ],
            [
              -73.3695925,
              6.2898244
            ],
            [
              -73.3699367,
              6.2900044
            ],
            [
              -73.3703096,
              6.2901784
            ],
            [
              -73.3707139,
              6.290346
            ],
            [
              -73.3711535,
              6.2905076
            ],
            [
              -73.3719397,
              6.2907541
            ],
            [
              -73.3723995,
              6.2908785
            ],
            [
              -73.3733217,
              6.2910973
            ],
            [
              -73.3765768,
              6.2917709
            ],
            [
              -73.3776337,
              6.2920364
            ],
            [
              -73.3785608,
              6.2923254
            ],
            [
              -73.3793658,
              6.2926412
            ],
            [
              -73.3796362,
              6.2927743
            ],
            [
              -73.3800512,
              6.2929786
            ],
            [
              -73.3806375,
              6.293338
            ],
            [
              -73.3808978,
              6.2935257
            ],
            [
              -73.3813606,
              6.2939167
            ],
            [
              -73.381755,
              6.2943301
            ],
            [
              -73.38209,
              6.2947703
            ],
            [
              -73.3822362,
              6.2950009
            ],
            [
              -73.3823963,
              6.2952939
            ],
            [
              -73.3826245,
              6.2958328
            ],
            [
              -73.3827586,
              6.2963009
            ],
            [
              -73.382807,
              6.2965517
            ],
            [
              -73.3828502,
              6.2969413
            ],
            [
              -73.3828542,
              6.2973543
            ],
            [
              -73.3828399,
              6.2975653
            ],
            [
              -73.382814,
              6.2977817
            ],
            [
              -73.3827443,
              6.2981515
            ],
            [
              -73.3826351,
              6.2985481
            ],
            [
              -73.3824787,
              6.2989787
            ],
            [
              -73.382265,
              6.2994526
            ],
            [
              -73.3820172,
              6.2999186
            ],
            [
              -73.3816976,
              6.300448
            ],
            [
              -73.3812277,
              6.3011503
            ],
            [
              -73.3798699,
              6.303064
            ],
            [
              -73.379254,
              6.3040151
            ],
            [
              -73.3789773,
              6.3044899
            ],
            [
              -73.3787361,
              6.3049404
            ],
            [
              -73.3785257,
              6.3053709
            ],
            [
              -73.3782914,
              6.3059049
            ],
            [
              -73.3780437,
              6.3065542
            ],
            [
              -73.3777459,
              6.307502
            ],
            [
              -73.3775089,
              6.3084683
            ],
            [
              -73.3773919,
              6.3090932
            ],
            [
              -73.377345,
              6.3093434
            ],
            [
              -73.3772286,
              6.3101875
            ],
            [
              -73.377158,
              6.310956
            ],
            [
              -73.3771303,
              6.3115776
            ],
            [
              -73.3771344,
              6.311867
            ],
            [
              -73.3772015,
              6.312167
            ],
            [
              -73.3779193,
              6.3124449
            ],
            [
              -73.3785812,
              6.3127316
            ],
            [
              -73.3791991,
              6.3130258
            ],
            [
              -73.3800755,
              6.3134854
            ],
            [
              -73.3817997,
              6.3144692
            ],
            [
              -73.3822824,
              6.3147176
            ],
            [
              -73.3828795,
              6.314967
            ],
            [
              -73.3832441,
              6.3150785
            ],
            [
              -73.3836164,
              6.3151575
            ],
            [
              -73.3841201,
              6.3152096
            ],
            [
              -73.3846023,
              6.3152039
            ],
            [
              -73.3851294,
              6.3151403
            ],
            [
              -73.3854901,
              6.3150664
            ],
            [
              -73.3859055,
              6.3149565
            ],
            [
              -73.3877419,
              6.3143523
            ],
            [
              -73.3881601,
              6.3142346
            ],
            [
              -73.3887001,
              6.3141148
            ],
            [
              -73.3891555,
              6.3140459
            ],
            [
              -73.3898498,
              6.314
            ],
            [
              -73.3903462,
              6.3140101
            ],
            [
              -73.3908379,
              6.3140538
            ],
            [
              -73.3913676,
              6.3141361
            ],
            [
              -73.3919419,
              6.3142633
            ],
            [
              -73.3925724,
              6.3144439
            ],
            [
              -73.3931163,
              6.31463
            ],
            [
              -73.3937286,
              6.3148681
            ],
            [
              -73.3943741,
              6.3151464
            ],
            [
              -73.3950163,
              6.3154454
            ],
            [
              -73.3962927,
              6.3160862
            ],
            [
              -73.3976125,
              6.3167921
            ],
            [
              -73.3998005,
              6.3180023
            ],
            [
              -73.400437,
              6.3183248
            ],
            [
              -73.4010809,
              6.3186135
            ],
            [
              -73.4016945,
              6.31884
            ],
            [
              -73.4022311,
              6.3189892
            ],
            [
              -73.4025686,
              6.3190558
            ],
            [
              -73.4028863,
              6.3190972
            ],
            [
              -73.4031888,
              6.319116
            ],
            [
              -73.40348,
              6.3191137
            ],
            [
              -73.4039302,
              6.3190676
            ],
            [
              -73.404355,
              6.3189717
            ],
            [
              -73.4046636,
              6.3188652
            ],
            [
              -73.4049193,
              6.3187494
            ],
            [
              -73.4053291,
              6.318502
            ],
            [
              -73.4055466,
              6.3183336
            ],
            [
              -73.4057734,
              6.3181254
            ],
            [
              -73.4060507,
              6.3178159
            ],
            [
              -73.4063498,
              6.3173941
            ],
            [
              -73.4064726,
              6.3171853
            ],
            [
              -73.406591,
              6.3169585
            ],
            [
              -73.4067844,
              6.3165188
            ],
            [
              -73.4069743,
              6.3159794
            ],
            [
              -73.407539,
              6.3139364
            ],
            [
              -73.4077911,
              6.3132223
            ],
            [
              -73.4079409,
              6.3128861
            ],
            [
              -73.4081675,
              6.3124674
            ],
            [
              -73.4084301,
              6.3120764
            ],
            [
              -73.4087149,
              6.3117287
            ],
            [
              -73.4087914,
              6.3116525
            ],
            [
              -73.4091457,
              6.3112997
            ],
            [
              -73.4094779,
              6.3110218
            ],
            [
              -73.4097966,
              6.3107848
            ],
            [
              -73.4101792,
              6.3105276
            ],
            [
              -73.4108908,
              6.3100987
            ],
            [
              -73.4122041,
              6.309364
            ],
            [
              -73.4132457,
              6.308739
            ],
            [
              -73.4136949,
              6.3084384
            ],
            [
              -73.4142857,
              6.3080047
            ],
            [
              -73.4146929,
              6.3076776
            ],
            [
              -73.4150871,
              6.3073364
            ],
            [
              -73.4157376,
              6.3067109
            ],
            [
              -73.4160622,
              6.306364
            ],
            [
              -73.4163568,
              6.306025
            ],
            [
              -73.4168694,
              6.3053692
            ],
            [
              -73.4170929,
              6.3050522
            ],
            [
              -73.4174858,
              6.3044406
            ],
            [
              -73.4178389,
              6.303828
            ],
            [
              -73.4184323,
              6.3027271
            ],
            [
              -73.4187864,
              6.3021357
            ],
            [
              -73.419114,
              6.3016812
            ],
            [
              -73.4195053,
              6.3012462
            ],
            [
              -73.4197514,
              6.3010172
            ],
            [
              -73.4200301,
              6.3007864
            ],
            [
              -73.4206312,
              6.3003505
            ],
            [
              -73.4218397,
              6.2995548
            ],
            [
              -73.4228049,
              6.2988964
            ],
            [
              -73.4233214,
              6.2985203
            ],
            [
              -73.4240486,
              6.2979561
            ],
            [
              -73.4248441,
              6.2972889
            ],
            [
              -73.4256647,
              6.2965455
            ],
            [
              -73.4261495,
              6.2960806
            ],
            [
              -73.4270936,
              6.2951209
            ],
            [
              -73.4276833,
              6.2944822
            ],
            [
              -73.4282643,
              6.293819
            ],
            [
              -73.4288346,
              6.2931313
            ],
            [
              -73.4293926,
              6.2924194
            ],
            [
              -73.4297908,
              6.2918857
            ],
            [
              -73.4305607,
              6.2907878
            ],
            [
              -73.4312974,
              6.2896479
            ],
            [
              -73.4319999,
              6.2884736
            ],
            [
              -73.4326549,
              6.2873035
            ],
            [
              -73.4341513,
              6.284509
            ],
            [
              -73.434535,
              6.2838636
            ],
            [
              -73.4347414,
              6.2835474
            ],
            [
              -73.4351345,
              6.2830096
            ],
            [
              -73.4353307,
              6.2827715
            ],
            [
              -73.4356936,
              6.282379
            ],
            [
              -73.4359448,
              6.2821399
            ],
            [
              -73.4363859,
              6.2817762
            ],
            [
              -73.4368814,
              6.2814367
            ],
            [
              -73.4380557,
              6.2807346
            ],
            [
              -73.4383791,
              6.2805149
            ],
            [
              -73.4386697,
              6.2802875
            ],
            [
              -73.4389548,
              6.2800255
            ],
            [
              -73.4392132,
              6.2797432
            ],
            [
              -73.4394122,
              6.2794867
            ],
            [
              -73.4396176,
              6.2791735
            ],
            [
              -73.4398319,
              6.2787744
            ],
            [
              -73.4399962,
              6.2783967
            ],
            [
              -73.4401358,
              6.2780032
            ],
            [
              -73.4402576,
              6.2775737
            ],
            [
              -73.4403459,
              6.2771828
            ],
            [
              -73.4404273,
              6.2767319
            ],
            [
              -73.4406854,
              6.2746904
            ],
            [
              -73.4408427,
              6.2737109
            ],
            [
              -73.440984,
              6.273067
            ],
            [
              -73.4412527,
              6.2721229
            ],
            [
              -73.4416149,
              6.271109
            ],
            [
              -73.441931,
              6.27033
            ],
            [
              -73.4432831,
              6.2672141
            ],
            [
              -73.4441751,
              6.2650408
            ],
            [
              -73.4446445,
              6.2637659
            ],
            [
              -73.4448757,
              6.263072
            ],
            [
              -73.4450677,
              6.2624421
            ],
            [
              -73.445375,
              6.2612623
            ],
            [
              -73.4454943,
              6.260704
            ],
            [
              -73.4456714,
              6.2596403
            ],
            [
              -73.4457258,
              6.259191
            ],
            [
              -73.4457963,
              6.2583241
            ],
            [
              -73.4458237,
              6.2573324
            ],
            [
              -73.4458161,
              6.2567671
            ],
            [
              -73.445769,
              6.2558249
            ],
            [
              -73.4456475,
              6.2544491
            ],
            [
              -73.4456267,
              6.2540847
            ],
            [
              -73.4456269,
              6.2540205
            ],
            [
              -73.4456279,
              6.2537292
            ],
            [
              -73.4456496,
              6.2534653
            ],
            [
              -73.4457036,
              6.2531621
            ],
            [
              -73.4457665,
              6.2529393
            ],
            [
              -73.4458872,
              6.2526333
            ],
            [
              -73.4459822,
              6.2524429
            ],
            [
              -73.4462294,
              6.2520413
            ],
            [
              -73.4465603,
              6.2516024
            ],
            [
              -73.4478202,
              6.2501431
            ],
            [
              -73.448285,
              6.2495457
            ],
            [
              -73.4486987,
              6.2489318
            ],
            [
              -73.4490043,
              6.2483792
            ],
            [
              -73.4492114,
              6.2478876
            ],
            [
              -73.4493295,
              6.2474673
            ],
            [
              -73.4493773,
              6.2471154
            ],
            [
              -73.4493743,
              6.24683
            ],
            [
              -73.4493196,
              6.2465212
            ],
            [
              -73.4492191,
              6.2462544
            ],
            [
              -73.4490418,
              6.245964
            ],
            [
              -73.4489299,
              6.2458248
            ],
            [
              -73.4486395,
              6.24553
            ],
            [
              -73.4475962,
              6.2446673
            ],
            [
              -73.4470419,
              6.2441722
            ],
            [
              -73.4465535,
              6.2436774
            ],
            [
              -73.446135,
              6.2431978
            ],
            [
              -73.4456245,
              6.2425214
            ],
            [
              -73.4453712,
              6.2421353
            ],
            [
              -73.4451312,
              6.2417268
            ],
            [
              -73.444914,
              6.2413092
            ],
            [
              -73.4447219,
              6.2408861
            ],
            [
              -73.4445564,
              6.2404611
            ],
            [
              -73.4444183,
              6.2400376
            ],
            [
              -73.4443353,
              6.2397231
            ],
            [
              -73.4443076,
              6.239618
            ],
            [
              -73.4442238,
              6.2392048
            ],
            [
              -73.4441664,
              6.2387999
            ],
            [
              -73.4441337,
              6.2383979
            ],
            [
              -73.4441258,
              6.238007
            ],
            [
              -73.4441418,
              6.2376178
            ],
            [
              -73.4441871,
              6.2371953
            ],
            [
              -73.4442521,
              6.2368237
            ],
            [
              -73.4443323,
              6.2364884
            ],
            [
              -73.4444354,
              6.2361491
            ],
            [
              -73.4445627,
              6.2358086
            ],
            [
              -73.4447881,
              6.2353256
            ],
            [
              -73.4450651,
              6.2348547
            ],
            [
              -73.4453917,
              6.234406
            ],
            [
              -73.4457628,
              6.2339896
            ],
            [
              -73.4461711,
              6.2336148
            ],
            [
              -73.4466071,
              6.2332887
            ],
            [
              -73.4470603,
              6.2330158
            ],
            [
              -73.4475205,
              6.2327973
            ],
            [
              -73.4480354,
              6.2326146
            ],
            [
              -73.448292,
              6.232546
            ],
            [
              -73.4486954,
              6.2324663
            ],
            [
              -73.4491025,
              6.2324166
            ],
            [
              -73.4505234,
              6.2323394
            ],
            [
              -73.4509945,
              6.2322923
            ]
          ]
        ]
      },
      "id": "relation/1315463"
    }
  ]
}