{
  "type": "FeatureCollection",
  "features": [
    {
      "type": "Feature",
      "properties": {
        "@id": "relation/1314974",
        "DANE:area": "74.00",
        "DANE:departamento": "68",
        "admin_level": "6",
        "boundary": "administrative",
        "clcfile": "MunicipiosDepartamentos/ADM_Municipios.shp",
        "divipola": "68533",
        "entidad_te": "Cabecera Municipal",
        "is_in:country": "Colombia",
        "is_in:state": "Santander",
        "name": "Páramo",
        "objectid": "3712",
        "source": "OCHA - SIGOT",
        "type": "boundary",
        "wikidata": "Q366923",
        "wikipedia": "es:Páramo (Santander)"
      },
      "geometry": {
        "type": "Polygon",
        "coordinates": [
          [
            [
              -73.2086997,
              6.4059887
            ],
            [
              -73.2078332,
              6.4049896
            ],
            [
              -73.2055522,
              6.402962
            ],
            [
              -73.2038857,
              6.4023211
            ],
            [
              -73.2019315,
              6.4017323
            ],
            [
              -73.2017428,
              6.4009307
            ],
            [
              -73.200486,
              6.3980399
            ],
            [
              -73.1994634,
              6.3949723
            ],
            [
              -73.1983075,
              6.3943301
            ],
            [
              -73.1980042,
              6.3939257
            ],
            [
              -73.1983234,
              6.3924667
            ],
            [
              -73.1981043,
              6.3912853
            ],
            [
              -73.1981043,
              6.3891865
            ],
            [
              -73.1982969,
              6.3882235
            ],
            [
              -73.1984161,
              6.3866548
            ],
            [
              -73.198092,
              6.3849048
            ],
            [
              -73.1976371,
              6.3839951
            ],
            [
              -73.1973746,
              6.3835358
            ],
            [
              -73.1970441,
              6.3831391
            ],
            [
              -73.1966772,
              6.3827722
            ],
            [
              -73.1964495,
              6.3823737
            ],
            [
              -73.1963349,
              6.3819153
            ],
            [
              -73.1963349,
              6.3813222
            ],
            [
              -73.1963979,
              6.380944
            ],
            [
              -73.1963979,
              6.380327
            ],
            [
              -73.1961275,
              6.3796509
            ],
            [
              -73.195759,
              6.3790368
            ],
            [
              -73.1954525,
              6.3773205
            ],
            [
              -73.1954525,
              6.3768069
            ],
            [
              -73.1953229,
              6.3763533
            ],
            [
              -73.1952676,
              6.3759666
            ],
            [
              -73.1953633,
              6.3756795
            ],
            [
              -73.1956637,
              6.3754392
            ],
            [
              -73.1959453,
              6.3749465
            ],
            [
              -73.1961414,
              6.3741618
            ],
            [
              -73.1961913,
              6.3739125
            ],
            [
              -73.1965522,
              6.3736547
            ],
            [
              -73.1970961,
              6.3734734
            ],
            [
              -73.1978148,
              6.373212
            ],
            [
              -73.1982988,
              6.3728663
            ],
            [
              -73.1987299,
              6.3722915
            ],
            [
              -73.1987299,
              6.370719
            ],
            [
              -73.1989091,
              6.370495
            ],
            [
              -73.1992089,
              6.3703951
            ],
            [
              -73.2006514,
              6.3703951
            ],
            [
              -73.2012257,
              6.3702515
            ],
            [
              -73.2015571,
              6.3699202
            ],
            [
              -73.2016245,
              6.3693809
            ],
            [
              -73.2018693,
              6.3688302
            ],
            [
              -73.2023071,
              6.3675167
            ],
            [
              -73.2032941,
              6.3658511
            ],
            [
              -73.2036861,
              6.3654591
            ],
            [
              -73.2041144,
              6.3653368
            ],
            [
              -73.2044557,
              6.3650807
            ],
            [
              -73.2045378,
              6.3643419
            ],
            [
              -73.2039778,
              6.3638519
            ],
            [
              -73.2035143,
              6.3632146
            ],
            [
              -73.2034602,
              6.3626741
            ],
            [
              -73.2037014,
              6.3620107
            ],
            [
              -73.2038312,
              6.3614916
            ],
            [
              -73.2039612,
              6.3607765
            ],
            [
              -73.2039612,
              6.3596034
            ],
            [
              -73.2037651,
              6.3588188
            ],
            [
              -73.2033726,
              6.3576415
            ],
            [
              -73.2027716,
              6.3569804
            ],
            [
              -73.2028186,
              6.3565573
            ],
            [
              -73.2030158,
              6.3563601
            ],
            [
              -73.2030158,
              6.3556753
            ],
            [
              -73.2028774,
              6.3553984
            ],
            [
              -73.2026377,
              6.3546193
            ],
            [
              -73.2026376,
              6.3540868
            ],
            [
              -73.2026976,
              6.3533672
            ],
            [
              -73.2028282,
              6.3530625
            ],
            [
              -73.2034603,
              6.3530625
            ],
            [
              -73.20397,
              6.3526984
            ],
            [
              -73.2044655,
              6.3520614
            ],
            [
              -73.2044655,
              6.3504593
            ],
            [
              -73.2039276,
              6.3500559
            ],
            [
              -73.2035725,
              6.3492274
            ],
            [
              -73.2033884,
              6.3486139
            ],
            [
              -73.2032035,
              6.347751
            ],
            [
              -73.2031398,
              6.3468585
            ],
            [
              -73.2028742,
              6.3460618
            ],
            [
              -73.2027007,
              6.3457726
            ],
            [
              -73.2027007,
              6.3449794
            ],
            [
              -73.2030094,
              6.3443001
            ],
            [
              -73.2031374,
              6.3435322
            ],
            [
              -73.203387,
              6.3427211
            ],
            [
              -73.2036429,
              6.3417614
            ],
            [
              -73.2039499,
              6.3394898
            ],
            [
              -73.2045065,
              6.3390445
            ],
            [
              -73.2053275,
              6.3386655
            ],
            [
              -73.2057303,
              6.3383299
            ],
            [
              -73.2061293,
              6.337931
            ],
            [
              -73.2066366,
              6.3371065
            ],
            [
              -73.2075456,
              6.3360691
            ],
            [
              -73.2056956,
              6.3348575
            ],
            [
              -73.2050137,
              6.3325064
            ],
            [
              -73.2036618,
              6.3306624
            ],
            [
              -73.2011377,
              6.3298321
            ],
            [
              -73.1987837,
              6.3295054
            ],
            [
              -73.1977795,
              6.3305183
            ],
            [
              -73.1969441,
              6.3316987
            ],
            [
              -73.195776,
              6.3337211
            ],
            [
              -73.1942677,
              6.3347361
            ],
            [
              -73.1926032,
              6.3358855
            ],
            [
              -73.1924448,
              6.336055
            ],
            [
              -73.1922511,
              6.3362513
            ],
            [
              -73.1921005,
              6.3363979
            ],
            [
              -73.1919214,
              6.3365654
            ],
            [
              -73.1917506,
              6.336718
            ],
            [
              -73.1915674,
              6.3368742
            ],
            [
              -73.1913817,
              6.3370255
            ],
            [
              -73.1911977,
              6.3371685
            ],
            [
              -73.1910131,
              6.3373059
            ],
            [
              -73.1908283,
              6.3374377
            ],
            [
              -73.1906433,
              6.3375641
            ],
            [
              -73.190458,
              6.3376848
            ],
            [
              -73.189931,
              6.3380081
            ],
            [
              -73.1897547,
              6.3381223
            ],
            [
              -73.1895846,
              6.3382427
            ],
            [
              -73.1894446,
              6.3383529
            ],
            [
              -73.1893107,
              6.3384696
            ],
            [
              -73.1891893,
              6.338586
            ],
            [
              -73.1890726,
              6.3387072
            ],
            [
              -73.1889571,
              6.3388352
            ],
            [
              -73.1888449,
              6.3389665
            ],
            [
              -73.1885798,
              6.3392979
            ],
            [
              -73.1881012,
              6.3399216
            ],
            [
              -73.187884,
              6.3401899
            ],
            [
              -73.1877718,
              6.340319
            ],
            [
              -73.1876587,
              6.3404404
            ],
            [
              -73.1875414,
              6.3405561
            ],
            [
              -73.1874191,
              6.3406648
            ],
            [
              -73.1873292,
              6.3407365
            ],
            [
              -73.1872362,
              6.3408035
            ],
            [
              -73.1871101,
              6.3408836
            ],
            [
              -73.1869791,
              6.3409552
            ],
            [
              -73.1868224,
              6.3410278
            ],
            [
              -73.1866609,
              6.3410899
            ],
            [
              -73.1864645,
              6.3411518
            ],
            [
              -73.1861759,
              6.341231
            ],
            [
              -73.1858732,
              6.3413246
            ],
            [
              -73.1856811,
              6.3413978
            ],
            [
              -73.1855433,
              6.3414582
            ],
            [
              -73.1854055,
              6.3415242
            ],
            [
              -73.1852694,
              6.3415944
            ],
            [
              -73.1850923,
              6.3416919
            ],
            [
              -73.1847443,
              6.3418995
            ],
            [
              -73.1845711,
              6.3420099
            ],
            [
              -73.1844012,
              6.3421241
            ],
            [
              -73.184236,
              6.3422431
            ],
            [
              -73.1840775,
              6.3423686
            ],
            [
              -73.1839278,
              6.3425025
            ],
            [
              -73.1838264,
              6.3426062
            ],
            [
              -73.1837318,
              6.342716
            ],
            [
              -73.183652,
              6.3428216
            ],
            [
              -73.1835782,
              6.3429319
            ],
            [
              -73.183466,
              6.3431263
            ],
            [
              -73.1833679,
              6.3433217
            ],
            [
              -73.1831778,
              6.3437257
            ],
            [
              -73.1830779,
              6.3439198
            ],
            [
              -73.1829953,
              6.3440606
            ],
            [
              -73.1829039,
              6.3441938
            ],
            [
              -73.1827711,
              6.3443495
            ],
            [
              -73.1826811,
              6.3444353
            ],
            [
              -73.1825846,
              6.344514
            ],
            [
              -73.1824279,
              6.3446192
            ],
            [
              -73.182318,
              6.3446804
            ],
            [
              -73.182204,
              6.3447356
            ],
            [
              -73.1820404,
              6.3448032
            ],
            [
              -73.1818715,
              6.3448623
            ],
            [
              -73.1816671,
              6.3449233
            ],
            [
              -73.1814373,
              6.3449822
            ],
            [
              -73.1812529,
              6.3450245
            ],
            [
              -73.1806928,
              6.3451372
            ],
            [
              -73.1803093,
              6.3452063
            ],
            [
              -73.179948,
              6.3452662
            ],
            [
              -73.1794771,
              6.3453325
            ],
            [
              -73.1791321,
              6.3453676
            ],
            [
              -73.1789645,
              6.3453796
            ],
            [
              -73.1786251,
              6.3453957
            ],
            [
              -73.1781097,
              6.3454052
            ],
            [
              -73.1777382,
              6.3454043
            ],
            [
              -73.1773674,
              6.3453946
            ],
            [
              -73.1769977,
              6.3453718
            ],
            [
              -73.1767392,
              6.3453455
            ],
            [
              -73.1765204,
              6.3453159
            ],
            [
              -73.1761285,
              6.3452505
            ],
            [
              -73.1756075,
              6.3451546
            ],
            [
              -73.1752279,
              6.345093
            ],
            [
              -73.1748122,
              6.345041
            ],
            [
              -73.1746295,
              6.3450233
            ],
            [
              -73.1742635,
              6.344996
            ],
            [
              -73.1738972,
              6.3449789
            ],
            [
              -73.1737141,
              6.3449744
            ],
            [
              -73.173384,
              6.3449746
            ],
            [
              -73.1730564,
              6.3449879
            ],
            [
              -73.1728941,
              6.3450006
            ],
            [
              -73.172729,
              6.3450187
            ],
            [
              -73.1725653,
              6.3450426
            ],
            [
              -73.1724248,
              6.3450685
            ],
            [
              -73.1722714,
              6.3450499
            ],
            [
              -73.1721098,
              6.3451486
            ],
            [
              -73.1719377,
              6.3452078
            ],
            [
              -73.1718201,
              6.3452559
            ],
            [
              -73.171705,
              6.3453094
            ],
            [
              -73.1715683,
              6.3453819
            ],
            [
              -73.1714351,
              6.3454607
            ],
            [
              -73.1708958,
              6.3458107
            ],
            [
              -73.1707171,
              6.3459134
            ],
            [
              -73.1701092,
              6.3462344
            ],
            [
              -73.1699363,
              6.3463377
            ],
            [
              -73.1698226,
              6.3464154
            ],
            [
              -73.1697145,
              6.3464999
            ],
            [
              -73.1695266,
              6.3466842
            ],
            [
              -73.1694196,
              6.3468136
            ],
            [
              -73.169301,
              6.3469846
            ],
            [
              -73.1692244,
              6.3471094
            ],
            [
              -73.1688932,
              6.3476923
            ],
            [
              -73.168826,
              6.3478014
            ],
            [
              -73.1687749,
              6.3478772
            ],
            [
              -73.1687295,
              6.3479445
            ],
            [
              -73.1686247,
              6.34808
            ],
            [
              -73.1685453,
              6.3481686
            ],
            [
              -73.1684605,
              6.348252
            ],
            [
              -73.1683204,
              6.3483699
            ],
            [
              -73.1681702,
              6.348477
            ],
            [
              -73.1680541,
              6.34855
            ],
            [
              -73.1679344,
              6.3486187
            ],
            [
              -73.167746,
              6.348717
            ],
            [
              -73.1675525,
              6.3488092
            ],
            [
              -73.1673554,
              6.3488974
            ],
            [
              -73.1664322,
              6.3492871
            ],
            [
              -73.1660722,
              6.3494447
            ],
            [
              -73.1657105,
              6.3496171
            ],
            [
              -73.1654534,
              6.3497547
            ],
            [
              -73.1652779,
              6.3498597
            ],
            [
              -73.1650992,
              6.3499776
            ],
            [
              -73.1649653,
              6.3500725
            ],
            [
              -73.1647048,
              6.3502724
            ],
            [
              -73.1645271,
              6.3504203
            ],
            [
              -73.1643867,
              6.3505452
            ],
            [
              -73.1642508,
              6.3506745
            ],
            [
              -73.1641337,
              6.3507945
            ],
            [
              -73.1640214,
              6.3509188
            ],
            [
              -73.1638885,
              6.3510809
            ],
            [
              -73.1638136,
              6.3511811
            ],
            [
              -73.163742,
              6.3512836
            ],
            [
              -73.1636568,
              6.3514158
            ],
            [
              -73.1635767,
              6.3515514
            ],
            [
              -73.163452,
              6.3517904
            ],
            [
              -73.1633798,
              6.3519477
            ],
            [
              -73.1633133,
              6.3521078
            ],
            [
              -73.1632071,
              6.3522557
            ],
            [
              -73.1632037,
              6.3524181
            ],
            [
              -73.1631593,
              6.3525673
            ],
            [
              -73.1630732,
              6.3529062
            ],
            [
              -73.1629337,
              6.3535224
            ],
            [
              -73.1628829,
              6.3537173
            ],
            [
              -73.1628177,
              6.3539285
            ],
            [
              -73.1627756,
              6.3540453
            ],
            [
              -73.1627291,
              6.3541602
            ],
            [
              -73.1626387,
              6.3543511
            ],
            [
              -73.1626202,
              6.3543844
            ],
            [
              -73.1625751,
              6.3544653
            ],
            [
              -73.1625467,
              6.3545191
            ],
            [
              -73.1625056,
              6.3545761
            ],
            [
              -73.1624314,
              6.3546817
            ],
            [
              -73.1623514,
              6.3547836
            ],
            [
              -73.162252,
              6.3548961
            ],
            [
              -73.1621451,
              6.3550032
            ],
            [
              -73.1620478,
              6.3550905
            ],
            [
              -73.1619453,
              6.3551735
            ],
            [
              -73.1618115,
              6.3552705
            ],
            [
              -73.1616705,
              6.3553609
            ],
            [
              -73.1615525,
              6.3554283
            ],
            [
              -73.1614303,
              6.3554912
            ],
            [
              -73.1613627,
              6.3555222
            ],
            [
              -73.1612869,
              6.3555569
            ],
            [
              -73.161139,
              6.3556162
            ],
            [
              -73.1609835,
              6.3556701
            ],
            [
              -73.1608248,
              6.3557168
            ],
            [
              -73.1606847,
              6.3557513
            ],
            [
              -73.1605437,
              6.3557798
            ],
            [
              -73.1603175,
              6.3558129
            ],
            [
              -73.1600855,
              6.3558327
            ],
            [
              -73.159877,
              6.3558402
            ],
            [
              -73.159622,
              6.3558388
            ],
            [
              -73.1595077,
              6.3560749
            ],
            [
              -73.1596394,
              6.3566428
            ],
            [
              -73.1598682,
              6.3573726
            ],
            [
              -73.1600608,
              6.3578517
            ],
            [
              -73.1602944,
              6.3583464
            ],
            [
              -73.1606738,
              6.3590495
            ],
            [
              -73.1612874,
              6.3601175
            ],
            [
              -73.1616322,
              6.3607519
            ],
            [
              -73.16203,
              6.3615661
            ],
            [
              -73.1622265,
              6.3620146
            ],
            [
              -73.1625088,
              6.3627287
            ],
            [
              -73.1627983,
              6.3635651
            ],
            [
              -73.1630308,
              6.3643249
            ],
            [
              -73.1632443,
              6.3650934
            ],
            [
              -73.1636079,
              6.3665496
            ],
            [
              -73.1640587,
              6.3686089
            ],
            [
              -73.16438,
              6.3703306
            ],
            [
              -73.1644905,
              6.3710553
            ],
            [
              -73.164618,
              6.3718914
            ],
            [
              -73.1647247,
              6.3728421
            ],
            [
              -73.1647874,
              6.3734008
            ],
            [
              -73.1648632,
              6.3744631
            ],
            [
              -73.1648961,
              6.3754737
            ],
            [
              -73.1648967,
              6.3759666
            ],
            [
              -73.1648667,
              6.3769079
            ],
            [
              -73.1647961,
              6.3778088
            ],
            [
              -73.1646862,
              6.3786707
            ],
            [
              -73.1645388,
              6.3794963
            ],
            [
              -73.1643558,
              6.380288
            ],
            [
              -73.1641862,
              6.3808964
            ],
            [
              -73.163997,
              6.3814868
            ],
            [
              -73.1637896,
              6.3820617
            ],
            [
              -73.1635671,
              6.3826203
            ],
            [
              -73.1632194,
              6.3834134
            ],
            [
              -73.161993,
              6.3860135
            ],
            [
              -73.1615652,
              6.3870206
            ],
            [
              -73.1611461,
              6.3881469
            ],
            [
              -73.1609368,
              6.3887889
            ],
            [
              -73.160744,
              6.3894487
            ],
            [
              -73.1605695,
              6.3901259
            ],
            [
              -73.1604143,
              6.3908205
            ],
            [
              -73.1602797,
              6.3915315
            ],
            [
              -73.1601669,
              6.3922583
            ],
            [
              -73.1600766,
              6.3929997
            ],
            [
              -73.1600093,
              6.3937593
            ],
            [
              -73.1599665,
              6.394531
            ],
            [
              -73.1599485,
              6.3953129
            ],
            [
              -73.1599557,
              6.3961023
            ],
            [
              -73.1599877,
              6.3968895
            ],
            [
              -73.1600427,
              6.3976618
            ],
            [
              -73.1601218,
              6.3984438
            ],
            [
              -73.1602241,
              6.3992263
            ],
            [
              -73.1603485,
              6.4000053
            ],
            [
              -73.1604923,
              6.4007687
            ],
            [
              -73.1606509,
              6.401502
            ],
            [
              -73.1608166,
              6.4021828
            ],
            [
              -73.1609776,
              6.4027786
            ],
            [
              -73.1611612,
              6.4033828
            ],
            [
              -73.1610651,
              6.4051649
            ],
            [
              -73.1608235,
              6.4063788
            ],
            [
              -73.1606223,
              6.4075955
            ],
            [
              -73.1604615,
              6.4088149
            ],
            [
              -73.1603467,
              6.4099688
            ],
            [
              -73.1602679,
              6.4111252
            ],
            [
              -73.1602239,
              6.4123485
            ],
            [
              -73.1602356,
              6.4134757
            ],
            [
              -73.1602205,
              6.4137477
            ],
            [
              -73.1601888,
              6.4140085
            ],
            [
              -73.160117,
              6.4143769
            ],
            [
              -73.1600085,
              6.4147838
            ],
            [
              -73.1595842,
              6.4160566
            ],
            [
              -73.1594532,
              6.4164887
            ],
            [
              -73.1593583,
              6.4168798
            ],
            [
              -73.1593029,
              6.4172222
            ],
            [
              -73.1592685,
              6.4176372
            ],
            [
              -73.1592606,
              6.4181103
            ],
            [
              -73.1593231,
              6.4196249
            ],
            [
              -73.1593309,
              6.4201238
            ],
            [
              -73.1593142,
              6.4205611
            ],
            [
              -73.1592713,
              6.4209479
            ],
            [
              -73.1592255,
              6.4211929
            ],
            [
              -73.1591662,
              6.4214224
            ],
            [
              -73.1590928,
              6.421638
            ],
            [
              -73.159005,
              6.4218407
            ],
            [
              -73.1589071,
              6.4220235
            ],
            [
              -73.1587954,
              6.4221958
            ],
            [
              -73.1584665,
              6.4225994
            ],
            [
              -73.158392,
              6.4227387
            ],
            [
              -73.15833,
              6.422893
            ],
            [
              -73.1582719,
              6.4231145
            ],
            [
              -73.1582442,
              6.4233489
            ],
            [
              -73.1582468,
              6.4235963
            ],
            [
              -73.1582798,
              6.4238565
            ],
            [
              -73.1578593,
              6.4239701
            ],
            [
              -73.1571432,
              6.4243198
            ],
            [
              -73.156841,
              6.4250675
            ],
            [
              -73.1568346,
              6.4260953
            ],
            [
              -73.156752,
              6.4270506
            ],
            [
              -73.1565986,
              6.4279416
            ],
            [
              -73.156438,
              6.4288315
            ],
            [
              -73.1561111,
              6.4306104
            ],
            [
              -73.1559502,
              6.4315001
            ],
            [
              -73.1557945,
              6.4323907
            ],
            [
              -73.1556469,
              6.4332826
            ],
            [
              -73.1555096,
              6.434176
            ],
            [
              -73.1553806,
              6.4350707
            ],
            [
              -73.1552576,
              6.4359663
            ],
            [
              -73.1551392,
              6.4368626
            ],
            [
              -73.1550242,
              6.4377595
            ],
            [
              -73.1549116,
              6.4386567
            ],
            [
              -73.1546882,
              6.4404514
            ],
            [
              -73.1545751,
              6.4413485
            ],
            [
              -73.154465,
              6.4422485
            ],
            [
              -73.1539261,
              6.4429046
            ],
            [
              -73.1532037,
              6.4434513
            ],
            [
              -73.1524652,
              6.4439879
            ],
            [
              -73.1517322,
              6.4445313
            ],
            [
              -73.1510261,
              6.4450986
            ],
            [
              -73.1503683,
              6.445707
            ],
            [
              -73.1498086,
              6.4463988
            ],
            [
              -73.1493583,
              6.447186
            ],
            [
              -73.1489386,
              6.4480015
            ],
            [
              -73.1484744,
              6.4487816
            ],
            [
              -73.1479893,
              6.4495463
            ],
            [
              -73.1474985,
              6.4503079
            ],
            [
              -73.146993,
              6.4510579
            ],
            [
              -73.1464637,
              6.4517881
            ],
            [
              -73.1458713,
              6.4524697
            ],
            [
              -73.1452052,
              6.4530866
            ],
            [
              -73.144446,
              6.4535716
            ],
            [
              -73.1438552,
              6.4542333
            ],
            [
              -73.1438301,
              6.4551434
            ],
            [
              -73.1438757,
              6.4560518
            ],
            [
              -73.1435775,
              6.4568891
            ],
            [
              -73.1430154,
              6.4575971
            ],
            [
              -73.1424241,
              6.4582809
            ],
            [
              -73.1418137,
              6.4589477
            ],
            [
              -73.1411878,
              6.4596
            ],
            [
              -73.1405503,
              6.460241
            ],
            [
              -73.1399019,
              6.4608709
            ],
            [
              -73.1392461,
              6.4614931
            ],
            [
              -73.1385845,
              6.4621092
            ],
            [
              -73.1379197,
              6.4627218
            ],
            [
              -73.1372529,
              6.4633322
            ],
            [
              -73.1365868,
              6.4639434
            ],
            [
              -73.1359225,
              6.4645564
            ],
            [
              -73.1352612,
              6.4651728
            ],
            [
              -73.1345703,
              6.465755
            ],
            [
              -73.1338764,
              6.4663452
            ],
            [
              -73.1330753,
              6.4666419
            ],
            [
              -73.1322005,
              6.4668671
            ],
            [
              -73.1313448,
              6.4671137
            ],
            [
              -73.1306634,
              6.4677146
            ],
            [
              -73.1299804,
              6.4683072
            ],
            [
              -73.1292404,
              6.4688261
            ],
            [
              -73.1284031,
              6.4691603
            ],
            [
              -73.1275086,
              6.4692956
            ],
            [
              -73.1266121,
              6.4694159
            ],
            [
              -73.1257497,
              6.4696822
            ],
            [
              -73.124943,
              6.4700898
            ],
            [
              -73.1237164,
              6.4711672
            ],
            [
              -73.1234482,
              6.4720307
            ],
            [
              -73.123182,
              6.4728952
            ],
            [
              -73.1228321,
              6.4737336
            ],
            [
              -73.1221558,
              6.474319
            ],
            [
              -73.1213478,
              6.4747122
            ],
            [
              -73.1204438,
              6.4747016
            ],
            [
              -73.1195635,
              6.4747819
            ],
            [
              -73.1188637,
              6.4753489
            ],
            [
              -73.1182697,
              6.4760303
            ],
            [
              -73.1176877,
              6.476727
            ],
            [
              -73.1171149,
              6.4774269
            ],
            [
              -73.1167809,
              6.4782585
            ],
            [
              -73.1164806,
              6.4791086
            ],
            [
              -73.1162009,
              6.4799701
            ],
            [
              -73.1159313,
              6.4808372
            ],
            [
              -73.115408,
              6.4824844
            ],
            [
              -73.1156426,
              6.4833538
            ],
            [
              -73.115893,
              6.4842223
            ],
            [
              -73.1162185,
              6.4850642
            ],
            [
              -73.1165887,
              6.4858903
            ],
            [
              -73.1169099,
              6.4867345
            ],
            [
              -73.1172164,
              6.4875848
            ],
            [
              -73.1175428,
              6.4884279
            ],
            [
              -73.1178686,
              6.4892713
            ],
            [
              -73.1181957,
              6.4901142
            ],
            [
              -73.1185243,
              6.4909564
            ],
            [
              -73.1188579,
              6.4917967
            ],
            [
              -73.1191965,
              6.4926351
            ],
            [
              -73.1195422,
              6.4934704
            ],
            [
              -73.1199016,
              6.4943003
            ],
            [
              -73.1203475,
              6.4950861
            ],
            [
              -73.1209018,
              6.4958002
            ],
            [
              -73.1214988,
              6.4964792
            ],
            [
              -73.1221111,
              6.4971444
            ],
            [
              -73.1227301,
              6.4978033
            ],
            [
              -73.1233502,
              6.4984629
            ],
            [
              -73.1237168,
              6.4992848
            ],
            [
              -73.1237936,
              6.4993557
            ],
            [
              -73.1241509,
              6.499139
            ],
            [
              -73.1250601,
              6.4988824
            ],
            [
              -73.1259185,
              6.4985755
            ],
            [
              -73.1268275,
              6.4982684
            ],
            [
              -73.1276349,
              6.4978605
            ],
            [
              -73.1284931,
              6.4975029
            ],
            [
              -73.1294531,
              6.4972967
            ],
            [
              -73.1303113,
              6.4969392
            ],
            [
              -73.1310677,
              6.4964304
            ],
            [
              -73.1319775,
              6.4963255
            ],
            [
              -73.1329374,
              6.4961193
            ],
            [
              -73.1339482,
              6.4959635
            ],
            [
              -73.1348573,
              6.4957069
            ],
            [
              -73.1357157,
              6.4954
            ],
            [
              -73.1368267,
              6.4950414
            ],
            [
              -73.1376849,
              6.4946839
            ],
            [
              -73.1385939,
              6.4943767
            ],
            [
              -73.139554,
              6.4942211
            ],
            [
              -73.1405148,
              6.4942172
            ],
            [
              -73.1414753,
              6.4941627
            ],
            [
              -73.1424352,
              6.4939565
            ],
            [
              -73.143396,
              6.4939525
            ],
            [
              -73.1443569,
              6.4939992
            ],
            [
              -73.1462784,
              6.4939913
            ],
            [
              -73.1471888,
              6.4940382
            ],
            [
              -73.148099,
              6.4940345
            ],
            [
              -73.1488729,
              6.4941417
            ],
            [
              -73.1489697,
              6.4936295
            ],
            [
              -73.1489651,
              6.4933136
            ],
            [
              -73.149108,
              6.4928667
            ],
            [
              -73.1491798,
              6.4926643
            ],
            [
              -73.1490491,
              6.4920089
            ],
            [
              -73.1489992,
              6.4915124
            ],
            [
              -73.1489668,
              6.4904254
            ],
            [
              -73.1483889,
              6.4893704
            ],
            [
              -73.1480661,
              6.4874528
            ],
            [
              -73.1478975,
              6.4863378
            ],
            [
              -73.1478891,
              6.4859454
            ],
            [
              -73.1478466,
              6.4856095
            ],
            [
              -73.1481601,
              6.4840457
            ],
            [
              -73.1489072,
              6.4826156
            ],
            [
              -73.149358,
              6.4819416
            ],
            [
              -73.1497117,
              6.4811468
            ],
            [
              -73.1501767,
              6.4808108
            ],
            [
              -73.1508386,
              6.4808569
            ],
            [
              -73.1516791,
              6.4797653
            ],
            [
              -73.1518712,
              6.478382
            ],
            [
              -73.1539121,
              6.4750534
            ],
            [
              -73.1544887,
              6.4747427
            ],
            [
              -73.1548917,
              6.4739825
            ],
            [
              -73.1557873,
              6.472614
            ],
            [
              -73.156813,
              6.4708757
            ],
            [
              -73.1573347,
              6.469452
            ],
            [
              -73.1577933,
              6.4685427
            ],
            [
              -73.1590526,
              6.4677562
            ],
            [
              -73.1593336,
              6.4675125
            ],
            [
              -73.1599398,
              6.4671752
            ],
            [
              -73.1611856,
              6.4663426
            ],
            [
              -73.1628649,
              6.4653616
            ],
            [
              -73.1645953,
              6.465172
            ],
            [
              -73.1656301,
              6.4652833
            ],
            [
              -73.1671566,
              6.4650882
            ],
            [
              -73.168051,
              6.4648128
            ],
            [
              -73.1688832,
              6.4644148
            ],
            [
              -73.1723665,
              6.4638934
            ],
            [
              -73.1757343,
              6.4648206
            ],
            [
              -73.1757908,
              6.4642148
            ],
            [
              -73.175744,
              6.4638574
            ],
            [
              -73.1762372,
              6.4628394
            ],
            [
              -73.1773933,
              6.4610239
            ],
            [
              -73.1781116,
              6.4595734
            ],
            [
              -73.1783253,
              6.4585881
            ],
            [
              -73.1783756,
              6.4583563
            ],
            [
              -73.1782634,
              6.4569977
            ],
            [
              -73.1780044,
              6.4554134
            ],
            [
              -73.1780499,
              6.4551962
            ],
            [
              -73.1781728,
              6.4550301
            ],
            [
              -73.178944,
              6.4547731
            ],
            [
              -73.1791986,
              6.4547771
            ],
            [
              -73.1802442,
              6.4547116
            ],
            [
              -73.1823314,
              6.4548101
            ],
            [
              -73.1840678,
              6.454674
            ],
            [
              -73.1852764,
              6.4543708
            ],
            [
              -73.1856201,
              6.4541943
            ],
            [
              -73.1859364,
              6.4540318
            ],
            [
              -73.1862898,
              6.4538035
            ],
            [
              -73.1872856,
              6.4524361
            ],
            [
              -73.1881884,
              6.4519355
            ],
            [
              -73.1893566,
              6.4517621
            ],
            [
              -73.1900519,
              6.4517124
            ],
            [
              -73.1905049,
              6.4514853
            ],
            [
              -73.1908659,
              6.451051
            ],
            [
              -73.192357,
              6.4471534
            ],
            [
              -73.1931585,
              6.4458414
            ],
            [
              -73.1939702,
              6.4451644
            ],
            [
              -73.1950812,
              6.444905
            ],
            [
              -73.1948214,
              6.441649
            ],
            [
              -73.1947595,
              6.4414832
            ],
            [
              -73.1943912,
              6.4411135
            ],
            [
              -73.1942094,
              6.4408873
            ],
            [
              -73.193264,
              6.4386609
            ],
            [
              -73.1931344,
              6.4384133
            ],
            [
              -73.1925534,
              6.4375389
            ],
            [
              -73.1925465,
              6.4375252
            ],
            [
              -73.1931004,
              6.4363736
            ],
            [
              -73.1935939,
              6.4355432
            ],
            [
              -73.1943368,
              6.4349602
            ],
            [
              -73.1951633,
              6.4345425
            ],
            [
              -73.1959059,
              6.4338767
            ],
            [
              -73.1967317,
              6.4332934
            ],
            [
              -73.1973915,
              6.4326279
            ],
            [
              -73.1982176,
              6.4321274
            ],
            [
              -73.199044,
              6.4317097
            ],
            [
              -73.1997038,
              6.4310442
            ],
            [
              -73.2005299,
              6.4305437
            ],
            [
              -73.2011893,
              6.4297954
            ],
            [
              -73.2013057,
              6.4292274
            ],
            [
              -73.2010715,
              6.4289541
            ],
            [
              -73.200835,
              6.4284836
            ],
            [
              -73.2007816,
              6.4280133
            ],
            [
              -73.2008503,
              6.4274461
            ],
            [
              -73.2013775,
              6.4257551
            ],
            [
              -73.2020259,
              6.4238067
            ],
            [
              -73.2021858,
              6.4234792
            ],
            [
              -73.2024983,
              6.4230729
            ],
            [
              -73.2029941,
              6.4225052
            ],
            [
              -73.2032764,
              6.4219361
            ],
            [
              -73.2034297,
              6.4214764
            ],
            [
              -73.2034906,
              6.4208707
            ],
            [
              -73.2034442,
              6.4203101
            ],
            [
              -73.2032917,
              6.4195854
            ],
            [
              -73.2026659,
              6.4175669
            ],
            [
              -73.2026201,
              6.4172595
            ],
            [
              -73.2026513,
              6.4168707
            ],
            [
              -73.2027195,
              6.4166358
            ],
            [
              -73.2030482,
              6.4159774
            ],
            [
              -73.2040777,
              6.4145066
            ],
            [
              -73.2045208,
              6.4137038
            ],
            [
              -73.2049938,
              6.4126207
            ],
            [
              -73.2051155,
              6.4121508
            ],
            [
              -73.2051387,
              6.4117711
            ],
            [
              -73.2050852,
              6.411337
            ],
            [
              -73.2048561,
              6.4105308
            ],
            [
              -73.2045893,
              6.4099517
            ],
            [
              -73.2044163,
              6.4096521
            ],
            [
              -73.2045816,
              6.4090703
            ],
            [
              -73.2050737,
              6.4079085
            ],
            [
              -73.2058152,
              6.4069941
            ],
            [
              -73.2068065,
              6.4064101
            ],
            [
              -73.2075505,
              6.4060756
            ],
            [
              -73.2086997,
              6.4059887
            ]
          ]
        ]
      },
      "id": "relation/1314974"
    }
  ]
}