{
  "type": "FeatureCollection",
  "features": [
    {
      "type": "Feature",
      "properties": {
        "@id": "relation/1315462",
        "DANE:area": "27.00",
        "DANE:departamento": "68",
        "admin_level": "6",
        "alt_name": "Guepsa",
        "boundary": "administrative",
        "clcfile": "MunicipiosDepartamentos/ADM_Municipios.shp",
        "divipola": "68327",
        "entidad_te": "Cabecera Municipal",
        "is_in:country": "Colombia",
        "is_in:state": "Santander",
        "name": "Güepsa",
        "objectid": "3730",
        "source": "OCHA - SIGOT",
        "type": "boundary",
        "wikidata": "Q1560045",
        "wikipedia": "es:Güepsa"
      },
      "geometry": {
        "type": "Polygon",
        "coordinates": [
          [
            [
              -73.5950023,
              6.0191526
            ],
            [
              -73.5953652,
              6.0185957
            ],
            [
              -73.5957189,
              6.0180002
            ],
            [
              -73.5966587,
              6.0163435
            ],
            [
              -73.5969525,
              6.0158712
            ],
            [
              -73.5972255,
              6.0154697
            ],
            [
              -73.5974939,
              6.0151116
            ],
            [
              -73.5977584,
              6.0147928
            ],
            [
              -73.5980764,
              6.0144496
            ],
            [
              -73.5984129,
              6.0141287
            ],
            [
              -73.5988649,
              6.0137578
            ],
            [
              -73.5992487,
              6.0134918
            ],
            [
              -73.5995961,
              6.0132858
            ],
            [
              -73.599923,
              6.0131193
            ],
            [
              -73.6002061,
              6.0129942
            ],
            [
              -73.6008201,
              6.0127718
            ],
            [
              -73.6025341,
              6.0123007
            ],
            [
              -73.6031757,
              6.0121023
            ],
            [
              -73.6039465,
              6.0118048
            ],
            [
              -73.6043425,
              6.0116207
            ],
            [
              -73.6047249,
              6.0114208
            ],
            [
              -73.6051237,
              6.0111882
            ],
            [
              -73.6055433,
              6.0109168
            ],
            [
              -73.6059914,
              6.0105981
            ],
            [
              -73.6063949,
              6.0102876
            ],
            [
              -73.6073736,
              6.0094632
            ],
            [
              -73.6090674,
              6.0079769
            ],
            [
              -73.6097276,
              6.0074453
            ],
            [
              -73.6103262,
              6.0070074
            ],
            [
              -73.6109333,
              6.0066121
            ],
            [
              -73.6115115,
              6.0062818
            ],
            [
              -73.6122454,
              6.0059228
            ],
            [
              -73.6127213,
              6.0057218
            ],
            [
              -73.6132048,
              6.0055402
            ],
            [
              -73.6137315,
              6.0053668
            ],
            [
              -73.614248,
              6.0052197
            ],
            [
              -73.6147531,
              6.005097
            ],
            [
              -73.6157315,
              6.0049153
            ],
            [
              -73.6162028,
              6.0048528
            ],
            [
              -73.6170502,
              6.0047786
            ],
            [
              -73.6172259,
              6.0047704
            ],
            [
              -73.6176738,
              6.0044664
            ],
            [
              -73.6180111,
              6.0041486
            ],
            [
              -73.6181083,
              6.004057
            ],
            [
              -73.6188982,
              6.0032588
            ],
            [
              -73.6190161,
              6.0023414
            ],
            [
              -73.6191949,
              6.0014238
            ],
            [
              -73.6186898,
              5.9978201
            ],
            [
              -73.617894,
              5.9973348
            ],
            [
              -73.6172196,
              5.9967267
            ],
            [
              -73.6170322,
              5.9958108
            ],
            [
              -73.617028,
              5.994894
            ],
            [
              -73.6173903,
              5.9940367
            ],
            [
              -73.6195804,
              5.9923763
            ],
            [
              -73.6189582,
              5.9923833
            ],
            [
              -73.6185184,
              5.9924378
            ],
            [
              -73.6180894,
              5.9925761
            ],
            [
              -73.6174302,
              5.992768
            ],
            [
              -73.6170112,
              5.9927804
            ],
            [
              -73.6165607,
              5.9928035
            ],
            [
              -73.6158796,
              5.9928067
            ],
            [
              -73.6149575,
              5.99279
            ],
            [
              -73.6142555,
              5.9927932
            ],
            [
              -73.6136374,
              5.9928171
            ],
            [
              -73.6132188,
              5.9929239
            ],
            [
              -73.6128943,
              5.9930093
            ],
            [
              -73.6126184,
              5.9932721
            ],
            [
              -73.612498,
              5.9934367
            ],
            [
              -73.6123654,
              5.9935715
            ],
            [
              -73.6122145,
              5.9936801
            ],
            [
              -73.6120737,
              5.9937429
            ],
            [
              -73.6118948,
              5.9937815
            ],
            [
              -73.6116883,
              5.9937909
            ],
            [
              -73.6114599,
              5.9937708
            ],
            [
              -73.6112245,
              5.9937223
            ],
            [
              -73.6110306,
              5.99366
            ],
            [
              -73.6108556,
              5.9935781
            ],
            [
              -73.6106881,
              5.9934716
            ],
            [
              -73.6105305,
              5.9933412
            ],
            [
              -73.6103823,
              5.9931866
            ],
            [
              -73.610244,
              5.993008
            ],
            [
              -73.6101157,
              5.9928055
            ],
            [
              -73.6099972,
              5.9925791
            ],
            [
              -73.6097802,
              5.992612
            ],
            [
              -73.6095757,
              5.9926652
            ],
            [
              -73.6093837,
              5.9927388
            ],
            [
              -73.6092044,
              5.9928329
            ],
            [
              -73.6090406,
              5.9929593
            ],
            [
              -73.6087658,
              5.993274
            ],
            [
              -73.6086395,
              5.9933903
            ],
            [
              -73.6084991,
              5.9934756
            ],
            [
              -73.6080841,
              5.9936703
            ],
            [
              -73.6079077,
              5.993794
            ],
            [
              -73.6077316,
              5.9939435
            ],
            [
              -73.6074684,
              5.9942168
            ],
            [
              -73.6072145,
              5.9945413
            ],
            [
              -73.6070958,
              5.9947566
            ],
            [
              -73.6068951,
              5.9952553
            ],
            [
              -73.606792,
              5.9954618
            ],
            [
              -73.6067143,
              5.995577
            ],
            [
              -73.6065799,
              5.9957366
            ],
            [
              -73.6064948,
              5.9958245
            ],
            [
              -73.6064184,
              5.9958843
            ],
            [
              -73.606374,
              5.9959037
            ],
            [
              -73.6063129,
              5.9959997
            ],
            [
              -73.6060518,
              5.9963259
            ],
            [
              -73.605758,
              5.9966195
            ],
            [
              -73.6053991,
              5.9968477
            ],
            [
              -73.6046162,
              5.9971735
            ],
            [
              -73.6037682,
              5.9973034
            ],
            [
              -73.6028551,
              5.9973679
            ],
            [
              -73.6023984,
              5.9974654
            ],
            [
              -73.6019418,
              5.9975956
            ],
            [
              -73.6015178,
              5.9976932
            ],
            [
              -73.6006697,
              5.9979537
            ],
            [
              -73.6002457,
              5.9980512
            ],
            [
              -73.5997891,
              5.9980835
            ],
            [
              -73.5989412,
              5.9980827
            ],
            [
              -73.5984846,
              5.9981803
            ],
            [
              -73.5980606,
              5.9982126
            ],
            [
              -73.5976367,
              5.9982122
            ],
            [
              -73.5972128,
              5.9981465
            ],
            [
              -73.5968216,
              5.9980156
            ],
            [
              -73.5959739,
              5.9978843
            ],
            [
              -73.595126,
              5.9978835
            ],
            [
              -73.5946694,
              5.9979811
            ],
            [
              -73.5943105,
              5.9981766
            ],
            [
              -73.5939191,
              5.9983069
            ],
            [
              -73.5935276,
              5.9984698
            ],
            [
              -73.593071,
              5.9985347
            ],
            [
              -73.592647,
              5.9985669
            ],
            [
              -73.5921905,
              5.9985992
            ],
            [
              -73.5913426,
              5.9985984
            ],
            [
              -73.5904948,
              5.9985324
            ],
            [
              -73.5900382,
              5.998532
            ],
            [
              -73.5896144,
              5.9984336
            ],
            [
              -73.5891579,
              5.9984006
            ],
            [
              -73.5882447,
              5.9984651
            ],
            [
              -73.5881774,
              5.9984702
            ],
            [
              -73.5879142,
              5.998362
            ],
            [
              -73.5875601,
              5.9982359
            ],
            [
              -73.5875275,
              5.9982359
            ],
            [
              -73.5872332,
              5.9981676
            ],
            [
              -73.586926,
              5.9979936
            ],
            [
              -73.5867534,
              5.9986706
            ],
            [
              -73.5865632,
              5.9995033
            ],
            [
              -73.5864462,
              6.000114
            ],
            [
              -73.5863309,
              6.000825
            ],
            [
              -73.586052,
              6.0028083
            ],
            [
              -73.5859472,
              6.0034302
            ],
            [
              -73.5858406,
              6.0039507
            ],
            [
              -73.585729,
              6.0044005
            ],
            [
              -73.5859698,
              6.0050259
            ],
            [
              -73.5854288,
              6.0053085
            ],
            [
              -73.5852629,
              6.0056942
            ],
            [
              -73.5849648,
              6.0062671
            ],
            [
              -73.5846831,
              6.0067173
            ],
            [
              -73.5845117,
              6.0069626
            ],
            [
              -73.5841311,
              6.007457
            ],
            [
              -73.5837206,
              6.0079414
            ],
            [
              -73.5824561,
              6.0095393
            ],
            [
              -73.5819894,
              6.0098007
            ],
            [
              -73.5816783,
              6.0100408
            ],
            [
              -73.5816085,
              6.0104996
            ],
            [
              -73.5818231,
              6.010825
            ],
            [
              -73.5818392,
              6.010809
            ],
            [
              -73.5819894,
              6.0110117
            ],
            [
              -73.5820592,
              6.0111931
            ],
            [
              -73.5820323,
              6.0117373
            ],
            [
              -73.5817909,
              6.0119293
            ],
            [
              -73.5808843,
              6.0121534
            ],
            [
              -73.5801441,
              6.0124415
            ],
            [
              -73.5749678,
              6.0137946
            ],
            [
              -73.5744975,
              6.0139071
            ],
            [
              -73.5732091,
              6.0141986
            ],
            [
              -73.5726186,
              6.0142439
            ],
            [
              -73.5719492,
              6.0143848
            ],
            [
              -73.5713427,
              6.0145531
            ],
            [
              -73.5707895,
              6.0147539
            ],
            [
              -73.5701859,
              6.0150154
            ],
            [
              -73.5698274,
              6.0151797
            ],
            [
              -73.5693991,
              6.0156317
            ],
            [
              -73.5669644,
              6.016798
            ],
            [
              -73.5661018,
              6.0173498
            ],
            [
              -73.5653907,
              6.0178036
            ],
            [
              -73.5650593,
              6.0180644
            ],
            [
              -73.5646801,
              6.0183982
            ],
            [
              -73.5642335,
              6.0188477
            ],
            [
              -73.5639439,
              6.0191765
            ],
            [
              -73.563538,
              6.0196768
            ],
            [
              -73.5631129,
              6.0202513
            ],
            [
              -73.561729,
              6.0222232
            ],
            [
              -73.5602095,
              6.0242874
            ],
            [
              -73.559768,
              6.0249685
            ],
            [
              -73.5595386,
              6.0253708
            ],
            [
              -73.5593409,
              6.025759
            ],
            [
              -73.5590536,
              6.0264119
            ],
            [
              -73.5585173,
              6.0277878
            ],
            [
              -73.5583802,
              6.0280975
            ],
            [
              -73.5581031,
              6.0286184
            ],
            [
              -73.557843,
              6.0289968
            ],
            [
              -73.5576461,
              6.02923
            ],
            [
              -73.557305,
              6.0295555
            ],
            [
              -73.5570286,
              6.0297656
            ],
            [
              -73.5566981,
              6.0299712
            ],
            [
              -73.5562996,
              6.03017
            ],
            [
              -73.5558166,
              6.0303581
            ],
            [
              -73.5553092,
              6.0305105
            ],
            [
              -73.5546947,
              6.030651
            ],
            [
              -73.5540462,
              6.0307639
            ],
            [
              -73.5508591,
              6.0311652
            ],
            [
              -73.549718,
              6.0313608
            ],
            [
              -73.548435,
              6.0316095
            ],
            [
              -73.547845,
              6.0318437
            ],
            [
              -73.5474891,
              6.0322097
            ],
            [
              -73.5460079,
              6.0333241
            ],
            [
              -73.543945,
              6.0348156
            ],
            [
              -73.5427004,
              6.0353384
            ],
            [
              -73.5410482,
              6.0365494
            ],
            [
              -73.5406458,
              6.0371469
            ],
            [
              -73.5399281,
              6.0371216
            ],
            [
              -73.5395637,
              6.0377143
            ],
            [
              -73.5392754,
              6.0382384
            ],
            [
              -73.5385343,
              6.0396789
            ],
            [
              -73.538125,
              6.0404036
            ],
            [
              -73.5377291,
              6.0410266
            ],
            [
              -73.5370643,
              6.042014
            ],
            [
              -73.5373333,
              6.0421674
            ],
            [
              -73.5378588,
              6.0424649
            ],
            [
              -73.5384597,
              6.0428557
            ],
            [
              -73.5391728,
              6.0432461
            ],
            [
              -73.5397743,
              6.0437868
            ],
            [
              -73.5404129,
              6.0442337
            ],
            [
              -73.5411071,
              6.0445679
            ],
            [
              -73.5414254,
              6.0446125
            ],
            [
              -73.5414566,
              6.0445946
            ],
            [
              -73.54153,
              6.0445647
            ],
            [
              -73.5416066,
              6.0445477
            ],
            [
              -73.5416862,
              6.0445409
            ],
            [
              -73.5417683,
              6.0445416
            ],
            [
              -73.541852,
              6.0445478
            ],
            [
              -73.5419369,
              6.0445577
            ],
            [
              -73.5421089,
              6.0445845
            ],
            [
              -73.5422824,
              6.0446162
            ],
            [
              -73.5429791,
              6.0447494
            ],
            [
              -73.5437623,
              6.0448924
            ],
            [
              -73.5439353,
              6.0449253
            ],
            [
              -73.5441067,
              6.0449614
            ],
            [
              -73.5441913,
              6.0449816
            ],
            [
              -73.5442746,
              6.0450041
            ],
            [
              -73.5443563,
              6.0450298
            ],
            [
              -73.5444356,
              6.0450599
            ],
            [
              -73.5445118,
              6.0450959
            ],
            [
              -73.5445831,
              6.0451382
            ],
            [
              -73.5446516,
              6.045186
            ],
            [
              -73.5447181,
              6.0452372
            ],
            [
              -73.5449144,
              6.045396
            ],
            [
              -73.5449811,
              6.0454455
            ],
            [
              -73.5450499,
              6.0454903
            ],
            [
              -73.5451218,
              6.0455284
            ],
            [
              -73.5452006,
              6.045559
            ],
            [
              -73.5452829,
              6.0455819
            ],
            [
              -73.5453677,
              6.0455993
            ],
            [
              -73.5454544,
              6.0456126
            ],
            [
              -73.5455423,
              6.0456232
            ],
            [
              -73.5456311,
              6.0456317
            ],
            [
              -73.5458103,
              6.0456452
            ],
            [
              -73.5467134,
              6.045698
            ],
            [
              -73.5478864,
              6.0457691
            ],
            [
              -73.5487004,
              6.0458151
            ],
            [
              -73.5489709,
              6.0458333
            ],
            [
              -73.5490604,
              6.0458413
            ],
            [
              -73.549149,
              6.0458512
            ],
            [
              -73.5492366,
              6.0458639
            ],
            [
              -73.5493225,
              6.0458805
            ],
            [
              -73.549406,
              6.0459028
            ],
            [
              -73.5494863,
              6.0459329
            ],
            [
              -73.5495604,
              6.0459716
            ],
            [
              -73.5496314,
              6.0460181
            ],
            [
              -73.5497001,
              6.0460704
            ],
            [
              -73.5497674,
              6.0461272
            ],
            [
              -73.5498339,
              6.0461873
            ],
            [
              -73.549966,
              6.0463147
            ],
            [
              -73.5500992,
              6.0464492
            ],
            [
              -73.5506935,
              6.0470637
            ],
            [
              -73.5507485,
              6.0471184
            ],
            [
              -73.5514008,
              6.0475209
            ],
            [
              -73.5523898,
              6.047887
            ],
            [
              -73.5531329,
              6.0484396
            ],
            [
              -73.5537537,
              6.0492399
            ],
            [
              -73.5546836,
              6.0501624
            ],
            [
              -73.5562918,
              6.050989
            ],
            [
              -73.5572794,
              6.0510154
            ],
            [
              -73.5582996,
              6.0514432
            ],
            [
              -73.5590735,
              6.0519956
            ],
            [
              -73.559663,
              6.0527034
            ],
            [
              -73.5602219,
              6.053473
            ],
            [
              -73.5609978,
              6.0544579
            ],
            [
              -73.5615876,
              6.0552274
            ],
            [
              -73.562517,
              6.0560263
            ],
            [
              -73.5633839,
              6.056671
            ],
            [
              -73.565456,
              6.0577117
            ],
            [
              -73.5670642,
              6.0585074
            ],
            [
              -73.5685807,
              6.0594888
            ],
            [
              -73.5693236,
              6.0600105
            ],
            [
              -73.5700667,
              6.0605631
            ],
            [
              -73.5703316,
              6.0609517
            ],
            [
              -73.5703424,
              6.0609691
            ],
            [
              -73.5705252,
              6.0612103
            ],
            [
              -73.570639,
              6.0613647
            ],
            [
              -73.5707486,
              6.0615215
            ],
            [
              -73.5707998,
              6.0615998
            ],
            [
              -73.5708474,
              6.0616781
            ],
            [
              -73.5708906,
              6.0617566
            ],
            [
              -73.5709281,
              6.0618357
            ],
            [
              -73.5709585,
              6.0619162
            ],
            [
              -73.5709811,
              6.0620014
            ],
            [
              -73.5709966,
              6.0620881
            ],
            [
              -73.5710069,
              6.0621757
            ],
            [
              -73.5710135,
              6.0622639
            ],
            [
              -73.5710174,
              6.0623525
            ],
            [
              -73.5710195,
              6.0624412
            ],
            [
              -73.5710203,
              6.0626189
            ],
            [
              -73.5710147,
              6.0632388
            ],
            [
              -73.571017,
              6.0634142
            ],
            [
              -73.5710205,
              6.0635011
            ],
            [
              -73.5710264,
              6.0635873
            ],
            [
              -73.5710357,
              6.0636724
            ],
            [
              -73.5710497,
              6.0637561
            ],
            [
              -73.5710702,
              6.0638378
            ],
            [
              -73.571098,
              6.0639161
            ],
            [
              -73.571132,
              6.0639924
            ],
            [
              -73.5711707,
              6.0640673
            ],
            [
              -73.5712127,
              6.0641413
            ],
            [
              -73.5712571,
              6.0642144
            ],
            [
              -73.5713033,
              6.0642871
            ],
            [
              -73.5713987,
              6.0644315
            ],
            [
              -73.5716929,
              6.0648622
            ],
            [
              -73.5717897,
              6.0650062
            ],
            [
              -73.5718831,
              6.0651512
            ],
            [
              -73.5719275,
              6.0652244
            ],
            [
              -73.5719695,
              6.0652983
            ],
            [
              -73.5720081,
              6.0653732
            ],
            [
              -73.5720421,
              6.0654495
            ],
            [
              -73.5720699,
              6.0655277
            ],
            [
              -73.5720903,
              6.0656095
            ],
            [
              -73.5721043,
              6.0656931
            ],
            [
              -73.5721135,
              6.0657782
            ],
            [
              -73.5721194,
              6.0658643
            ],
            [
              -73.5721228,
              6.0659511
            ],
            [
              -73.572125,
              6.0661262
            ],
            [
              -73.5721188,
              6.0667431
            ],
            [
              -73.57212,
              6.0670065
            ],
            [
              -73.5721228,
              6.0670938
            ],
            [
              -73.5721275,
              6.0671805
            ],
            [
              -73.572135,
              6.0672667
            ],
            [
              -73.5721464,
              6.0673519
            ],
            [
              -73.572163,
              6.0674359
            ],
            [
              -73.572186,
              6.0675187
            ],
            [
              -73.5722142,
              6.0676003
            ],
            [
              -73.5722462,
              6.067681
            ],
            [
              -73.5722809,
              6.067761
            ],
            [
              -73.5723175,
              6.0678406
            ],
            [
              -73.5724705,
              6.0681577
            ],
            [
              -73.5725444,
              6.0683172
            ],
            [
              -73.5725787,
              6.0683978
            ],
            [
              -73.5726103,
              6.0684791
            ],
            [
              -73.5726382,
              6.0685616
            ],
            [
              -73.5726616,
              6.0686463
            ],
            [
              -73.5726812,
              6.0687322
            ],
            [
              -73.572698,
              6.0688189
            ],
            [
              -73.5727259,
              6.068994
            ],
            [
              -73.5727608,
              6.0692589
            ],
            [
              -73.5728244,
              6.0697907
            ],
            [
              -73.5728577,
              6.0700561
            ],
            [
              -73.5728825,
              6.0702318
            ],
            [
              -73.5729115,
              6.0704053
            ],
            [
              -73.5729287,
              6.0704907
            ],
            [
              -73.5729485,
              6.0705746
            ],
            [
              -73.5729719,
              6.0706566
            ],
            [
              -73.573,
              6.0707359
            ],
            [
              -73.573029,
              6.070803
            ],
            [
              -73.5730907,
              6.0709335
            ],
            [
              -73.5731184,
              6.070999
            ],
            [
              -73.5731404,
              6.071066
            ],
            [
              -73.573156,
              6.071145
            ],
            [
              -73.5731631,
              6.0712266
            ],
            [
              -73.5731639,
              6.0713102
            ],
            [
              -73.57316,
              6.0713951
            ],
            [
              -73.5731528,
              6.0714812
            ],
            [
              -73.5731432,
              6.071568
            ],
            [
              -73.5731194,
              6.0717431
            ],
            [
              -73.5730236,
              6.0723604
            ],
            [
              -73.5730019,
              6.072535
            ],
            [
              -73.5729944,
              6.0726212
            ],
            [
              -73.5729907,
              6.0727062
            ],
            [
              -73.5729922,
              6.0727895
            ],
            [
              -73.573001,
              6.0728703
            ],
            [
              -73.5730197,
              6.0729479
            ],
            [
              -73.5730505,
              6.0730215
            ],
            [
              -73.5730913,
              6.0730918
            ],
            [
              -73.5731393,
              6.0731598
            ],
            [
              -73.5731924,
              6.073226
            ],
            [
              -73.5732493,
              6.0732911
            ],
            [
              -73.5733696,
              6.0734192
            ],
            [
              -73.5736213,
              6.0736718
            ],
            [
              -73.5738765,
              6.0739206
            ],
            [
              -73.5740056,
              6.0740403
            ],
            [
              -73.5740712,
              6.0740974
            ],
            [
              -73.574138,
              6.0741516
            ],
            [
              -73.5742063,
              6.0742018
            ],
            [
              -73.5742769,
              6.0742464
            ],
            [
              -73.5743505,
              6.0742837
            ],
            [
              -73.574419,
              6.0743094
            ],
            [
              -73.5744897,
              6.0743298
            ],
            [
              -73.5747059,
              6.0743808
            ],
            [
              -73.5747766,
              6.0744011
            ],
            [
              -73.5748451,
              6.0744268
            ],
            [
              -73.5749198,
              6.0744646
            ],
            [
              -73.5749913,
              6.0745101
            ],
            [
              -73.5750605,
              6.0745611
            ],
            [
              -73.5751279,
              6.0746164
            ],
            [
              -73.575194,
              6.0746746
            ],
            [
              -73.575259,
              6.0747351
            ],
            [
              -73.575323,
              6.0747973
            ],
            [
              -73.5754482,
              6.0749255
            ],
            [
              -73.575509,
              6.0749914
            ],
            [
              -73.5755681,
              6.0750587
            ],
            [
              -73.5756248,
              6.0751278
            ],
            [
              -73.5756785,
              6.0751992
            ],
            [
              -73.5757272,
              6.0752717
            ],
            [
              -73.575773,
              6.0753464
            ],
            [
              -73.5758166,
              6.0754226
            ],
            [
              -73.5758995,
              6.075578
            ],
            [
              -73.5759793,
              6.0757356
            ],
            [
              -73.5764458,
              6.0766883
            ],
            [
              -73.5766042,
              6.0770037
            ],
            [
              -73.5766873,
              6.0771587
            ],
            [
              -73.576731,
              6.0772346
            ],
            [
              -73.5767769,
              6.077309
            ],
            [
              -73.5768258,
              6.0773813
            ],
            [
              -73.5768786,
              6.0774514
            ],
            [
              -73.5769345,
              6.0775193
            ],
            [
              -73.5769926,
              6.0775858
            ],
            [
              -73.577113,
              6.0777157
            ],
            [
              -73.5772365,
              6.0778438
            ],
            [
              -73.5775493,
              6.0781621
            ],
            [
              -73.5782007,
              6.0788152
            ],
            [
              -73.5790285,
              6.079242
            ],
            [
              -73.5792816,
              6.0788683
            ],
            [
              -73.5795938,
              6.0784514
            ],
            [
              -73.5799584,
              6.0780027
            ],
            [
              -73.5814512,
              6.0762793
            ],
            [
              -73.5820692,
              6.0754959
            ],
            [
              -73.582343,
              6.0751102
            ],
            [
              -73.5825809,
              6.0747475
            ],
            [
              -73.5828437,
              6.0743082
            ],
            [
              -73.5831537,
              6.0737231
            ],
            [
              -73.5834428,
              6.0730905
            ],
            [
              -73.5837107,
              6.0724007
            ],
            [
              -73.5839584,
              6.0716401
            ],
            [
              -73.5841717,
              6.0708571
            ],
            [
              -73.5842777,
              6.0704129
            ],
            [
              -73.58456,
              6.069029
            ],
            [
              -73.5850302,
              6.0664293
            ],
            [
              -73.5851922,
              6.0656504
            ],
            [
              -73.5853552,
              6.064965
            ],
            [
              -73.5855684,
              6.0641977
            ],
            [
              -73.5857965,
              6.0635039
            ],
            [
              -73.5860419,
              6.0628676
            ],
            [
              -73.5863047,
              6.0622793
            ],
            [
              -73.5865669,
              6.0617639
            ],
            [
              -73.5868444,
              6.0612774
            ],
            [
              -73.5871297,
              6.060825
            ],
            [
              -73.5874483,
              6.0603632
            ],
            [
              -73.5881124,
              6.0594978
            ],
            [
              -73.5898886,
              6.0573861
            ],
            [
              -73.590358,
              6.0567928
            ],
            [
              -73.5907576,
              6.0562506
            ],
            [
              -73.5910338,
              6.0558492
            ],
            [
              -73.5913719,
              6.0553209
            ],
            [
              -73.5916725,
              6.0548103
            ],
            [
              -73.5919525,
              6.0542913
            ],
            [
              -73.5922066,
              6.0537749
            ],
            [
              -73.592438,
              6.0532564
            ],
            [
              -73.5926458,
              6.0527385
            ],
            [
              -73.5929685,
              6.0517891
            ],
            [
              -73.5931437,
              6.0511528
            ],
            [
              -73.5932731,
              6.0505847
            ],
            [
              -73.5933781,
              6.0500123
            ],
            [
              -73.593458,
              6.0494424
            ],
            [
              -73.5935139,
              6.0488684
            ],
            [
              -73.5935453,
              6.0482905
            ],
            [
              -73.5935519,
              6.0477089
            ],
            [
              -73.5935331,
              6.0471256
            ],
            [
              -73.5934884,
              6.0465393
            ],
            [
              -73.5934169,
              6.0459505
            ],
            [
              -73.5933175,
              6.0453599
            ],
            [
              -73.593189,
              6.0447685
            ],
            [
              -73.5930298,
              6.0441772
            ],
            [
              -73.5928383,
              6.0435875
            ],
            [
              -73.5926125,
              6.0430011
            ],
            [
              -73.5923546,
              6.0424227
            ],
            [
              -73.591737,
              6.0411551
            ],
            [
              -73.5914614,
              6.0405647
            ],
            [
              -73.5912194,
              6.0399942
            ],
            [
              -73.5910137,
              6.0394389
            ],
            [
              -73.5908447,
              6.0388944
            ],
            [
              -73.590711,
              6.0383567
            ],
            [
              -73.5906288,
              6.037932
            ],
            [
              -73.5905661,
              6.0375066
            ],
            [
              -73.5904941,
              6.0366554
            ],
            [
              -73.5904784,
              6.0361134
            ],
            [
              -73.5904686,
              6.0344317
            ],
            [
              -73.59042,
              6.0336008
            ],
            [
              -73.5903254,
              6.0327937
            ],
            [
              -73.5899345,
              6.0304885
            ],
            [
              -73.5898632,
              6.0299786
            ],
            [
              -73.5897935,
              6.0292588
            ],
            [
              -73.5897672,
              6.028421
            ],
            [
              -73.5897797,
              6.0279543
            ],
            [
              -73.5898562,
              6.0270988
            ],
            [
              -73.5899201,
              6.0266828
            ],
            [
              -73.5900003,
              6.0262781
            ],
            [
              -73.590131,
              6.0257588
            ],
            [
              -73.5902863,
              6.0252672
            ],
            [
              -73.5904628,
              6.0248057
            ],
            [
              -73.5906573,
              6.0243751
            ],
            [
              -73.590866,
              6.0239759
            ],
            [
              -73.5910861,
              6.0236064
            ],
            [
              -73.5913147,
              6.0232648
            ],
            [
              -73.5917218,
              6.0227344
            ],
            [
              -73.5920211,
              6.0223905
            ],
            [
              -73.5925707,
              6.0218216
            ],
            [
              -73.5937223,
              6.0206964
            ],
            [
              -73.5941156,
              6.0202781
            ],
            [
              -73.5944772,
              6.0198553
            ],
            [
              -73.5950023,
              6.0191526
            ]
          ]
        ]
      },
      "id": "relation/1315462"
    }
  ]
}