{
  "type": "FeatureCollection",
  "features": [
    {
      "type": "Feature",
      "properties": {
        "@id": "relation/1315458",
        "DANE:area": "62.00",
        "DANE:departamento": "68",
        "admin_level": "6",
        "boundary": "administrative",
        "clcfile": "MunicipiosDepartamentos/ADM_Municipios.shp",
        "divipola": "68524",
        "entidad_te": "Cabecera Municipal",
        "is_in:country": "Colombia",
        "is_in:state": "Santander",
        "name": "Palmas del Socorro",
        "objectid": "3741",
        "source": "OCHA - SIGOT",
        "type": "boundary",
        "wikidata": "Q1656731",
        "wikipedia": "es:Palmas del Socorro"
      },
      "geometry": {
        "type": "Polygon",
        "coordinates": [
          [
            [
              -73.3319888,
              6.3714623
            ],
            [
              -73.3313976,
              6.3706476
            ],
            [
              -73.331094,
              6.3702152
            ],
            [
              -73.3307667,
              6.3697044
            ],
            [
              -73.3305467,
              6.369339
            ],
            [
              -73.3301431,
              6.368653
            ],
            [
              -73.33004,
              6.3684891
            ],
            [
              -73.3299253,
              6.3683171
            ],
            [
              -73.3296876,
              6.3679863
            ],
            [
              -73.3294425,
              6.3676696
            ],
            [
              -73.3291921,
              6.3673648
            ],
            [
              -73.3288093,
              6.3669242
            ],
            [
              -73.3284044,
              6.3664795
            ],
            [
              -73.32811,
              6.3661672
            ],
            [
              -73.3278239,
              6.3658711
            ],
            [
              -73.3274524,
              6.3654992
            ],
            [
              -73.3272495,
              6.3653038
            ],
            [
              -73.327023,
              6.365093
            ],
            [
              -73.3266411,
              6.3647533
            ],
            [
              -73.3263414,
              6.3645031
            ],
            [
              -73.3261889,
              6.3643815
            ],
            [
              -73.3258778,
              6.3641471
            ],
            [
              -73.3257263,
              6.3640409
            ],
            [
              -73.3255726,
              6.3639385
            ],
            [
              -73.3254164,
              6.3638401
            ],
            [
              -73.3252578,
              6.3637464
            ],
            [
              -73.3250962,
              6.3636582
            ],
            [
              -73.3249111,
              6.3635667
            ],
            [
              -73.3247224,
              6.3634829
            ],
            [
              -73.3244615,
              6.3633814
            ],
            [
              -73.3242581,
              6.3633138
            ],
            [
              -73.3240683,
              6.3632599
            ],
            [
              -73.3238764,
              6.3632121
            ],
            [
              -73.3231056,
              6.3630461
            ],
            [
              -73.3227348,
              6.3629537
            ],
            [
              -73.3225525,
              6.3629003
            ],
            [
              -73.3223732,
              6.3628409
            ],
            [
              -73.3221892,
              6.3627704
            ],
            [
              -73.3220106,
              6.3626906
            ],
            [
              -73.3218522,
              6.3626078
            ],
            [
              -73.3217011,
              6.3625144
            ],
            [
              -73.3215994,
              6.3624409
            ],
            [
              -73.3215021,
              6.3623615
            ],
            [
              -73.321351,
              6.3622213
            ],
            [
              -73.3210567,
              6.3619288
            ],
            [
              -73.3209025,
              6.3617891
            ],
            [
              -73.3207428,
              6.3616636
            ],
            [
              -73.3205742,
              6.3615506
            ],
            [
              -73.3203972,
              6.3614527
            ],
            [
              -73.32028,
              6.3613998
            ],
            [
              -73.3201594,
              6.3613559
            ],
            [
              -73.3199721,
              6.3613095
            ],
            [
              -73.3197784,
              6.3612889
            ],
            [
              -73.3195986,
              6.3612949
            ],
            [
              -73.3194165,
              6.3613237
            ],
            [
              -73.3192989,
              6.3613537
            ],
            [
              -73.3191812,
              6.3613917
            ],
            [
              -73.319032,
              6.3614499
            ],
            [
              -73.3188839,
              6.3615174
            ],
            [
              -73.3187393,
              6.3615917
            ],
            [
              -73.3185981,
              6.3616711
            ],
            [
              -73.3183875,
              6.3618006
            ],
            [
              -73.3182316,
              6.3619043
            ],
            [
              -73.3179751,
              6.3620817
            ],
            [
              -73.3176652,
              6.3622896
            ],
            [
              -73.3175131,
              6.3623869
            ],
            [
              -73.3173479,
              6.3624864
            ],
            [
              -73.3171741,
              6.3625837
            ],
            [
              -73.3169944,
              6.3626749
            ],
            [
              -73.3168063,
              6.3627589
            ],
            [
              -73.3166158,
              6.3628321
            ],
            [
              -73.3164242,
              6.3628931
            ],
            [
              -73.3162323,
              6.3629404
            ],
            [
              -73.3160391,
              6.3629726
            ],
            [
              -73.3158469,
              6.3629888
            ],
            [
              -73.3156684,
              6.3629894
            ],
            [
              -73.315492,
              6.3629767
            ],
            [
              -73.3153223,
              6.3629526
            ],
            [
              -73.3151551,
              6.3629186
            ],
            [
              -73.3149902,
              6.3628759
            ],
            [
              -73.3148096,
              6.3628195
            ],
            [
              -73.3146324,
              6.3627541
            ],
            [
              -73.3144276,
              6.3626655
            ],
            [
              -73.3142273,
              6.3625673
            ],
            [
              -73.3140308,
              6.3624615
            ],
            [
              -73.3138378,
              6.3623494
            ],
            [
              -73.3136521,
              6.3622343
            ],
            [
              -73.3134688,
              6.3621154
            ],
            [
              -73.3129284,
              6.3617453
            ],
            [
              -73.3123975,
              6.3613671
            ],
            [
              -73.3092051,
              6.3590647
            ],
            [
              -73.3089041,
              6.3587929
            ],
            [
              -73.3087987,
              6.3584841
            ],
            [
              -73.3086629,
              6.3581027
            ],
            [
              -73.3084257,
              6.3574682
            ],
            [
              -73.3083421,
              6.3572567
            ],
            [
              -73.3082001,
              6.3569154
            ],
            [
              -73.3078491,
              6.3561103
            ],
            [
              -73.3077255,
              6.3557958
            ],
            [
              -73.3076563,
              6.3556025
            ],
            [
              -73.3075857,
              6.3553874
            ],
            [
              -73.3075306,
              6.3552037
            ],
            [
              -73.3074457,
              6.3548872
            ],
            [
              -73.3073668,
              6.3545452
            ],
            [
              -73.3073238,
              6.3543354
            ],
            [
              -73.30725,
              6.3539236
            ],
            [
              -73.3071928,
              6.3535276
            ],
            [
              -73.3071062,
              6.3527744
            ],
            [
              -73.307053,
              6.3523528
            ],
            [
              -73.3070207,
              6.3521419
            ],
            [
              -73.3069834,
              6.3519343
            ],
            [
              -73.3069404,
              6.3517294
            ],
            [
              -73.3069,
              6.3515626
            ],
            [
              -73.3068546,
              6.3513973
            ],
            [
              -73.3067709,
              6.3511345
            ],
            [
              -73.3067022,
              6.350946
            ],
            [
              -73.3066444,
              6.3508012
            ],
            [
              -73.3065163,
              6.3505129
            ],
            [
              -73.306446,
              6.3503695
            ],
            [
              -73.3062989,
              6.3500927
            ],
            [
              -73.3059786,
              6.3495338
            ],
            [
              -73.305887,
              6.3493645
            ],
            [
              -73.3058008,
              6.349193
            ],
            [
              -73.3057176,
              6.3490107
            ],
            [
              -73.3056165,
              6.3487706
            ],
            [
              -73.3051753,
              6.3495476
            ],
            [
              -73.3045633,
              6.350842
            ],
            [
              -73.3039494,
              6.3516871
            ],
            [
              -73.3030524,
              6.3519718
            ],
            [
              -73.3020424,
              6.3520885
            ],
            [
              -73.3001337,
              6.3520967
            ],
            [
              -73.2991249,
              6.3524942
            ],
            [
              -73.2982277,
              6.3527227
            ],
            [
              -73.2974437,
              6.3531754
            ],
            [
              -73.2966071,
              6.3544708
            ],
            [
              -73.2966196,
              6.3573914
            ],
            [
              -73.2965124,
              6.3585714
            ],
            [
              -73.2964064,
              6.3600322
            ],
            [
              -73.2964105,
              6.360987
            ],
            [
              -73.2963021,
              6.3618861
            ],
            [
              -73.2958573,
              6.362899
            ],
            [
              -73.2957503,
              6.3641351
            ],
            [
              -73.2957667,
              6.3679544
            ],
            [
              -73.2956011,
              6.3686179
            ],
            [
              -73.2955533,
              6.369355
            ],
            [
              -73.2955711,
              6.369835
            ],
            [
              -73.2955533,
              6.3698334
            ],
            [
              -73.2949996,
              6.3698046
            ],
            [
              -73.2932685,
              6.3697712
            ],
            [
              -73.2922834,
              6.3696973
            ],
            [
              -73.2881523,
              6.3691206
            ],
            [
              -73.2871362,
              6.3689457
            ],
            [
              -73.2867387,
              6.3688573
            ],
            [
              -73.2863043,
              6.3689146
            ],
            [
              -73.286139,
              6.3689258
            ],
            [
              -73.2858485,
              6.3690395
            ],
            [
              -73.2852749,
              6.3692669
            ],
            [
              -73.2849088,
              6.3694068
            ],
            [
              -73.2845047,
              6.3695523
            ],
            [
              -73.2842858,
              6.3696257
            ],
            [
              -73.2840683,
              6.3696935
            ],
            [
              -73.2838522,
              6.3697543
            ],
            [
              -73.2836373,
              6.3698063
            ],
            [
              -73.2834275,
              6.3698475
            ],
            [
              -73.2827604,
              6.369947
            ],
            [
              -73.2825513,
              6.3699852
            ],
            [
              -73.2823441,
              6.3700289
            ],
            [
              -73.2820089,
              6.3701109
            ],
            [
              -73.2816554,
              6.3702107
            ],
            [
              -73.2813057,
              6.37032
            ],
            [
              -73.2804357,
              6.3706152
            ],
            [
              -73.280147,
              6.370709
            ],
            [
              -73.2797996,
              6.3708121
            ],
            [
              -73.2795856,
              6.3708683
            ],
            [
              -73.2793699,
              6.3709194
            ],
            [
              -73.2789427,
              6.3710062
            ],
            [
              -73.2785069,
              6.3710805
            ],
            [
              -73.2778346,
              6.3711776
            ],
            [
              -73.2773722,
              6.3712349
            ],
            [
              -73.2768384,
              6.3712877
            ],
            [
              -73.2764332,
              6.3713174
            ],
            [
              -73.2761235,
              6.3713333
            ],
            [
              -73.2753379,
              6.3713597
            ],
            [
              -73.2751906,
              6.3713795
            ],
            [
              -73.2750802,
              6.371274
            ],
            [
              -73.2749447,
              6.3711694
            ],
            [
              -73.274778,
              6.3710516
            ],
            [
              -73.2745846,
              6.3709241
            ],
            [
              -73.2743785,
              6.3707968
            ],
            [
              -73.2741651,
              6.3706736
            ],
            [
              -73.2740091,
              6.3705893
            ],
            [
              -73.2738514,
              6.3705094
            ],
            [
              -73.2736894,
              6.3704331
            ],
            [
              -73.2735266,
              6.370362
            ],
            [
              -73.2732674,
              6.3702591
            ],
            [
              -73.2731023,
              6.370199
            ],
            [
              -73.272773,
              6.3700898
            ],
            [
              -73.2725896,
              6.3700346
            ],
            [
              -73.2724066,
              6.3699832
            ],
            [
              -73.2720356,
              6.3698887
            ],
            [
              -73.2716091,
              6.3697958
            ],
            [
              -73.2713961,
              6.3697553
            ],
            [
              -73.2710821,
              6.3697028
            ],
            [
              -73.2707017,
              6.36965
            ],
            [
              -73.2704783,
              6.3696246
            ],
            [
              -73.2702081,
              6.3695997
            ],
            [
              -73.2698557,
              6.3695788
            ],
            [
              -73.2695032,
              6.3695723
            ],
            [
              -73.2692848,
              6.3695766
            ],
            [
              -73.2686303,
              6.3696081
            ],
            [
              -73.2684218,
              6.3696124
            ],
            [
              -73.2682149,
              6.3696075
            ],
            [
              -73.2679927,
              6.3695899
            ],
            [
              -73.2677711,
              6.3695592
            ],
            [
              -73.2675536,
              6.3695159
            ],
            [
              -73.2673957,
              6.3694762
            ],
            [
              -73.2672386,
              6.3694304
            ],
            [
              -73.2669705,
              6.3693389
            ],
            [
              -73.2664732,
              6.369142
            ],
            [
              -73.2663192,
              6.3690848
            ],
            [
              -73.266173,
              6.3690382
            ],
            [
              -73.2660239,
              6.3690004
            ],
            [
              -73.2658022,
              6.3689644
            ],
            [
              -73.2655862,
              6.3689499
            ],
            [
              -73.2653698,
              6.3689485
            ],
            [
              -73.2648763,
              6.3689575
            ],
            [
              -73.2647029,
              6.3689525
            ],
            [
              -73.2645245,
              6.368926
            ],
            [
              -73.2642352,
              6.3689787
            ],
            [
              -73.2638267,
              6.3690601
            ],
            [
              -73.263432,
              6.369124
            ],
            [
              -73.2632325,
              6.3691497
            ],
            [
              -73.2630298,
              6.3691705
            ],
            [
              -73.2628551,
              6.369184
            ],
            [
              -73.262507,
              6.3691994
            ],
            [
              -73.2622102,
              6.3692021
            ],
            [
              -73.2620906,
              6.3692432
            ],
            [
              -73.2619559,
              6.3691915
            ],
            [
              -73.261203,
              6.3691813
            ],
            [
              -73.2609662,
              6.3691813
            ],
            [
              -73.2607438,
              6.3691871
            ],
            [
              -73.26039,
              6.3692103
            ],
            [
              -73.2597963,
              6.3692818
            ],
            [
              -73.2596424,
              6.3692958
            ],
            [
              -73.2594878,
              6.369305
            ],
            [
              -73.2593212,
              6.36931
            ],
            [
              -73.2591542,
              6.3693108
            ],
            [
              -73.2588199,
              6.369304
            ],
            [
              -73.257792,
              6.3692578
            ],
            [
              -73.2572051,
              6.3692386
            ],
            [
              -73.2567356,
              6.3692339
            ],
            [
              -73.256056,
              6.3692387
            ],
            [
              -73.2556507,
              6.3692366
            ],
            [
              -73.2544456,
              6.3692043
            ],
            [
              -73.254098,
              6.369198
            ],
            [
              -73.253727,
              6.3691967
            ],
            [
              -73.2534009,
              6.3692032
            ],
            [
              -73.2532167,
              6.369211
            ],
            [
              -73.2529158,
              6.3692314
            ],
            [
              -73.2527193,
              6.3692504
            ],
            [
              -73.2525226,
              6.3692743
            ],
            [
              -73.2521798,
              6.3693289
            ],
            [
              -73.2519906,
              6.3693663
            ],
            [
              -73.2518011,
              6.3694086
            ],
            [
              -73.2514947,
              6.3694869
            ],
            [
              -73.2512021,
              6.3695712
            ],
            [
              -73.25089,
              6.3696695
            ],
            [
              -73.2501183,
              6.3699279
            ],
            [
              -73.2496404,
              6.3700826
            ],
            [
              -73.2490394,
              6.3702679
            ],
            [
              -73.2487325,
              6.3703554
            ],
            [
              -73.2482489,
              6.370537
            ],
            [
              -73.2474819,
              6.3708744
            ],
            [
              -73.2467152,
              6.371262
            ],
            [
              -73.2463992,
              6.3715976
            ],
            [
              -73.2456328,
              6.3720687
            ],
            [
              -73.2450501,
              6.3725224
            ],
            [
              -73.2444332,
              6.3728091
            ],
            [
              -73.2434814,
              6.3728799
            ],
            [
              -73.242997,
              6.3728987
            ],
            [
              -73.2421787,
              6.3729355
            ],
            [
              -73.242108,
              6.3730662
            ],
            [
              -73.2412389,
              6.3748889
            ],
            [
              -73.240586,
              6.3759117
            ],
            [
              -73.2401822,
              6.3764767
            ],
            [
              -73.2393538,
              6.3774576
            ],
            [
              -73.2380973,
              6.3790237
            ],
            [
              -73.2367153,
              6.3805896
            ],
            [
              -73.2355195,
              6.3834102
            ],
            [
              -73.2350774,
              6.385354
            ],
            [
              -73.2345726,
              6.3872976
            ],
            [
              -73.2336911,
              6.3895543
            ],
            [
              -73.2328737,
              6.3909956
            ],
            [
              -73.2316735,
              6.396388
            ],
            [
              -73.2303514,
              6.3996475
            ],
            [
              -73.2277254,
              6.4040678
            ],
            [
              -73.2276105,
              6.4047192
            ],
            [
              -73.2275431,
              6.4049389
            ],
            [
              -73.2273989,
              6.4053997
            ],
            [
              -73.227299,
              6.405707
            ],
            [
              -73.2271548,
              6.4061035
            ],
            [
              -73.2269404,
              6.4066366
            ],
            [
              -73.2268873,
              6.406746
            ],
            [
              -73.2267618,
              6.4070045
            ],
            [
              -73.2266191,
              6.4074272
            ],
            [
              -73.2266433,
              6.4075391
            ],
            [
              -73.2265218,
              6.4076666
            ],
            [
              -73.226414,
              6.407949
            ],
            [
              -73.2260189,
              6.4089459
            ],
            [
              -73.2265688,
              6.4088076
            ],
            [
              -73.2271942,
              6.4087124
            ],
            [
              -73.2276322,
              6.4086219
            ],
            [
              -73.2278904,
              6.4085724
            ],
            [
              -73.2281277,
              6.4085269
            ],
            [
              -73.2298363,
              6.4083022
            ],
            [
              -73.232075,
              6.4089556
            ],
            [
              -73.2327417,
              6.4099469
            ],
            [
              -73.2330619,
              6.41062
            ],
            [
              -73.2342211,
              6.411257
            ],
            [
              -73.2350983,
              6.4116755
            ],
            [
              -73.2354493,
              6.4118874
            ],
            [
              -73.2359072,
              6.4123301
            ],
            [
              -73.2364033,
              6.4129378
            ],
            [
              -73.2367079,
              6.4132277
            ],
            [
              -73.2370973,
              6.4134374
            ],
            [
              -73.2374327,
              6.4135283
            ],
            [
              -73.2380585,
              6.4136051
            ],
            [
              -73.2391418,
              6.4136882
            ],
            [
              -73.2409505,
              6.413768
            ],
            [
              -73.2420035,
              6.4137573
            ],
            [
              -73.2432769,
              6.4136396
            ],
            [
              -73.2442226,
              6.413588
            ],
            [
              -73.2452304,
              6.4136191
            ],
            [
              -73.2462527,
              6.4136942
            ],
            [
              -73.2475189,
              6.4138703
            ],
            [
              -73.2481222,
              6.4138634
            ],
            [
              -73.2487324,
              6.4137931
            ],
            [
              -73.2493198,
              6.4138405
            ],
            [
              -73.24961,
              6.4139686
            ],
            [
              -73.2498763,
              6.4141408
            ],
            [
              -73.2512349,
              6.415176
            ],
            [
              -73.2515171,
              6.4153494
            ],
            [
              -73.2520048,
              6.4155864
            ],
            [
              -73.2522872,
              6.415623
            ],
            [
              -73.2525776,
              6.4155975
            ],
            [
              -73.2528747,
              6.4156161
            ],
            [
              -73.25376,
              6.415908
            ],
            [
              -73.2543097,
              6.4162264
            ],
            [
              -73.2553771,
              6.4170984
            ],
            [
              -73.2558195,
              6.4173624
            ],
            [
              -73.2562847,
              6.4175711
            ],
            [
              -73.256926,
              6.4178276
            ],
            [
              -73.2584515,
              6.4183657
            ],
            [
              -73.2608173,
              6.4190793
            ],
            [
              -73.2613276,
              6.41927
            ],
            [
              -73.2635405,
              6.4202093
            ],
            [
              -73.2638758,
              6.4204099
            ],
            [
              -73.264098,
              6.4206148
            ],
            [
              -73.2647691,
              6.4213256
            ],
            [
              -73.265005,
              6.4216107
            ],
            [
              -73.2652989,
              6.421383
            ],
            [
              -73.2660915,
              6.4209989
            ],
            [
              -73.26694,
              6.420739
            ],
            [
              -73.2678254,
              6.4205524
            ],
            [
              -73.2687309,
              6.4204043
            ],
            [
              -73.2696394,
              6.42026
            ],
            [
              -73.270534,
              6.4200845
            ],
            [
              -73.2713648,
              6.4197377
            ],
            [
              -73.2722234,
              6.4194895
            ],
            [
              -73.273105,
              6.4197081
            ],
            [
              -73.2739655,
              6.419986
            ],
            [
              -73.2748314,
              6.4202454
            ],
            [
              -73.2756968,
              6.4205063
            ],
            [
              -73.2765619,
              6.4207683
            ],
            [
              -73.2774268,
              6.4210309
            ],
            [
              -73.2791557,
              6.4215589
            ],
            [
              -73.2800197,
              6.4218245
            ],
            [
              -73.2808835,
              6.4220907
            ],
            [
              -73.2817467,
              6.422359
            ],
            [
              -73.2826081,
              6.4226327
            ],
            [
              -73.2834558,
              6.4229467
            ],
            [
              -73.2843088,
              6.423247
            ],
            [
              -73.2851957,
              6.4234162
            ],
            [
              -73.286099,
              6.4233917
            ],
            [
              -73.2869993,
              6.423318
            ],
            [
              -73.2878953,
              6.4231988
            ],
            [
              -73.2887902,
              6.4230719
            ],
            [
              -73.2896862,
              6.4229527
            ],
            [
              -73.2905856,
              6.4228629
            ],
            [
              -73.2914887,
              6.4228196
            ],
            [
              -73.2923178,
              6.4230506
            ],
            [
              -73.2929255,
              6.4236765
            ],
            [
              -73.2938342,
              6.4237917
            ],
            [
              -73.2947382,
              6.4238049
            ],
            [
              -73.2956395,
              6.4237387
            ],
            [
              -73.2965294,
              6.4235827
            ],
            [
              -73.2973917,
              6.4233123
            ],
            [
              -73.2982292,
              6.4229723
            ],
            [
              -73.2990596,
              6.4226152
            ],
            [
              -73.2998835,
              6.4222422
            ],
            [
              -73.3006893,
              6.42183
            ],
            [
              -73.3013754,
              6.4212468
            ],
            [
              -73.3021835,
              6.4208658
            ],
            [
              -73.3030915,
              6.4208803
            ],
            [
              -73.3039937,
              6.4209505
            ],
            [
              -73.3048937,
              6.4208835
            ],
            [
              -73.3057665,
              6.4206481
            ],
            [
              -73.3065945,
              6.4202907
            ],
            [
              -73.3073852,
              6.4198508
            ],
            [
              -73.3082276,
              6.4195257
            ],
            [
              -73.3090796,
              6.4192219
            ],
            [
              -73.3099358,
              6.4189274
            ],
            [
              -73.3107913,
              6.4186313
            ],
            [
              -73.3116411,
              6.4183227
            ],
            [
              -73.3124804,
              6.4179908
            ],
            [
              -73.3133007,
              6.417617
            ],
            [
              -73.3140966,
              6.4171889
            ],
            [
              -73.3148808,
              6.4167353
            ],
            [
              -73.3157596,
              6.416236
            ],
            [
              -73.3157023,
              6.4146664
            ],
            [
              -73.3156915,
              6.413762
            ],
            [
              -73.3157563,
              6.4128646
            ],
            [
              -73.3158906,
              6.4119725
            ],
            [
              -73.3160669,
              6.4110842
            ],
            [
              -73.3162668,
              6.4101992
            ],
            [
              -73.3164716,
              6.4093175
            ],
            [
              -73.3166942,
              6.4084416
            ],
            [
              -73.3169239,
              6.4076185
            ],
            [
              -73.3191944,
              6.404211
            ],
            [
              -73.3191544,
              6.4037839
            ],
            [
              -73.3191406,
              6.4037707
            ],
            [
              -73.3191358,
              6.4037178
            ],
            [
              -73.3191519,
              6.4036349
            ],
            [
              -73.319234,
              6.4034041
            ],
            [
              -73.3194265,
              6.4030037
            ],
            [
              -73.3196383,
              6.4026291
            ],
            [
              -73.3209074,
              6.4006399
            ],
            [
              -73.3221845,
              6.3985244
            ],
            [
              -73.3225589,
              6.397932
            ],
            [
              -73.32311,
              6.397146
            ],
            [
              -73.3234454,
              6.3967254
            ],
            [
              -73.3237912,
              6.396336
            ],
            [
              -73.3243521,
              6.3957842
            ],
            [
              -73.3248185,
              6.3953799
            ],
            [
              -73.326556,
              6.3939866
            ],
            [
              -73.3270413,
              6.3935521
            ],
            [
              -73.3276741,
              6.3929081
            ],
            [
              -73.3280212,
              6.3925043
            ],
            [
              -73.3283558,
              6.3920704
            ],
            [
              -73.3286728,
              6.3916076
            ],
            [
              -73.3289679,
              6.3911174
            ],
            [
              -73.329236,
              6.3906047
            ],
            [
              -73.3294733,
              6.390075
            ],
            [
              -73.3296768,
              6.3895347
            ],
            [
              -73.3298299,
              6.3890444
            ],
            [
              -73.3299541,
              6.3885574
            ],
            [
              -73.3300483,
              6.388089
            ],
            [
              -73.3301218,
              6.3875997
            ],
            [
              -73.3301736,
              6.3870772
            ],
            [
              -73.3301994,
              6.3865423
            ],
            [
              -73.3301992,
              6.3860016
            ],
            [
              -73.3301741,
              6.3854624
            ],
            [
              -73.3301172,
              6.3848447
            ],
            [
              -73.3300391,
              6.3842647
            ],
            [
              -73.3299381,
              6.3836625
            ],
            [
              -73.329555,
              6.3816584
            ],
            [
              -73.3293692,
              6.3804219
            ],
            [
              -73.3292848,
              6.3795505
            ],
            [
              -73.3292453,
              6.3786749
            ],
            [
              -73.3292563,
              6.3778082
            ],
            [
              -73.3293174,
              6.3769917
            ],
            [
              -73.3294285,
              6.3762081
            ],
            [
              -73.3295876,
              6.3754669
            ],
            [
              -73.3297915,
              6.3747747
            ],
            [
              -73.3300353,
              6.3741372
            ],
            [
              -73.3303141,
              6.3735552
            ],
            [
              -73.3306224,
              6.3730286
            ],
            [
              -73.3309549,
              6.3725553
            ],
            [
              -73.3311834,
              6.3722727
            ],
            [
              -73.3314394,
              6.3719881
            ],
            [
              -73.3319888,
              6.3714623
            ]
          ]
        ]
      },
      "id": "relation/1315458"
    }
  ]
}