{
  "type": "FeatureCollection",
  "features": [
    {
      "type": "Feature",
      "properties": {
        "@id": "relation/1315426",
        "DANE:area": "57.00",
        "DANE:departamento": "68",
        "admin_level": "6",
        "boundary": "administrative",
        "clcfile": "MunicipiosDepartamentos/ADM_Municipios.shp",
        "divipola": "68077",
        "entidad_te": "Cabecera Municipal",
        "is_in:country": "Colombia",
        "is_in:state": "Santander",
        "name": "Barbosa",
        "objectid": "3747",
        "source": "OCHA - SIGOT",
        "type": "boundary",
        "wikidata": "Q937957",
        "wikipedia": "es:Barbosa (Santander)"
      },
      "geometry": {
        "type": "Polygon",
        "coordinates": [
          [
            [
              -73.6294416,
              5.9862185
            ],
            [
              -73.6300484,
              5.9854211
            ],
            [
              -73.6307776,
              5.9846843
            ],
            [
              -73.6319922,
              5.983334
            ],
            [
              -73.6327827,
              5.982658
            ],
            [
              -73.63339,
              5.9819828
            ],
            [
              -73.6340584,
              5.9813074
            ],
            [
              -73.6347878,
              5.9806317
            ],
            [
              -73.635578,
              5.9798946
            ],
            [
              -73.6364307,
              5.9794628
            ],
            [
              -73.6374645,
              5.9786023
            ],
            [
              -73.6397759,
              5.9768191
            ],
            [
              -73.6435405,
              5.9724621
            ],
            [
              -73.6460832,
              5.9684161
            ],
            [
              -73.6480507,
              5.9640693
            ],
            [
              -73.6481647,
              5.9626198
            ],
            [
              -73.648716,
              5.9616983
            ],
            [
              -73.6488912,
              5.9602977
            ],
            [
              -73.6494632,
              5.9596606
            ],
            [
              -73.6499092,
              5.9587649
            ],
            [
              -73.6507836,
              5.955699
            ],
            [
              -73.6524407,
              5.9530411
            ],
            [
              -73.652309,
              5.9509258
            ],
            [
              -73.6539964,
              5.9495827
            ],
            [
              -73.6568343,
              5.9437073
            ],
            [
              -73.6574678,
              5.9420747
            ],
            [
              -73.6583538,
              5.9413847
            ],
            [
              -73.6593816,
              5.9383282
            ],
            [
              -73.6611807,
              5.9367439
            ],
            [
              -73.6621385,
              5.9346397
            ],
            [
              -73.6625526,
              5.9331771
            ],
            [
              -73.6632689,
              5.9322494
            ],
            [
              -73.6633358,
              5.9303555
            ],
            [
              -73.6634699,
              5.9290361
            ],
            [
              -73.6630953,
              5.9273953
            ],
            [
              -73.6618836,
              5.9268358
            ],
            [
              -73.6602582,
              5.924907
            ],
            [
              -73.6588138,
              5.9247768
            ],
            [
              -73.6564147,
              5.9241463
            ],
            [
              -73.6543426,
              5.9242554
            ],
            [
              -73.6534991,
              5.9244433
            ],
            [
              -73.6531191,
              5.9247435
            ],
            [
              -73.6520452,
              5.9238441
            ],
            [
              -73.6512018,
              5.9232807
            ],
            [
              -73.6501348,
              5.9229038
            ],
            [
              -73.6491524,
              5.9227645
            ],
            [
              -73.6486878,
              5.9222247
            ],
            [
              -73.6486282,
              5.9214977
            ],
            [
              -73.6479591,
              5.9214051
            ],
            [
              -73.6474831,
              5.9209066
            ],
            [
              -73.6463653,
              5.9201975
            ],
            [
              -73.6456444,
              5.9207364
            ],
            [
              -73.6446772,
              5.9203619
            ],
            [
              -73.6440363,
              5.9198394
            ],
            [
              -73.6436574,
              5.9189406
            ],
            [
              -73.6437959,
              5.9180561
            ],
            [
              -73.6435355,
              5.9175521
            ],
            [
              -73.642744,
              5.9171642
            ],
            [
              -73.6424687,
              5.9168357
            ],
            [
              -73.6417578,
              5.9165203
            ],
            [
              -73.6406275,
              5.9164938
            ],
            [
              -73.6400589,
              5.9159709
            ],
            [
              -73.6374133,
              5.9124061
            ],
            [
              -73.6370063,
              5.9122994
            ],
            [
              -73.6366025,
              5.9122514
            ],
            [
              -73.6361173,
              5.9119923
            ],
            [
              -73.6359055,
              5.9112044
            ],
            [
              -73.6344877,
              5.9109513
            ],
            [
              -73.6338745,
              5.9109576
            ],
            [
              -73.6333033,
              5.91112
            ],
            [
              -73.632886,
              5.9114437
            ],
            [
              -73.6326357,
              5.9118177
            ],
            [
              -73.6323902,
              5.9124485
            ],
            [
              -73.631142,
              5.913579
            ],
            [
              -73.6303883,
              5.9141207
            ],
            [
              -73.630155,
              5.9142445
            ],
            [
              -73.6301596,
              5.9142753
            ],
            [
              -73.6300937,
              5.9143126
            ],
            [
              -73.6297136,
              5.9145005
            ],
            [
              -73.6286206,
              5.9149939
            ],
            [
              -73.6283356,
              5.9151264
            ],
            [
              -73.6279823,
              5.9153393
            ],
            [
              -73.6274314,
              5.9157085
            ],
            [
              -73.6268786,
              5.9161589
            ],
            [
              -73.6266304,
              5.9163914
            ],
            [
              -73.6261316,
              5.9169245
            ],
            [
              -73.6258809,
              5.9172298
            ],
            [
              -73.6253767,
              5.9179279
            ],
            [
              -73.6248566,
              5.9187723
            ],
            [
              -73.6246182,
              5.9192031
            ],
            [
              -73.6244494,
              5.9195168
            ],
            [
              -73.6237059,
              5.9209279
            ],
            [
              -73.6232741,
              5.9216396
            ],
            [
              -73.6230224,
              5.9221096
            ],
            [
              -73.6226838,
              5.9224055
            ],
            [
              -73.622242,
              5.9228502
            ],
            [
              -73.6219502,
              5.923096
            ],
            [
              -73.6215513,
              5.9233804
            ],
            [
              -73.621327,
              5.9235173
            ],
            [
              -73.6209488,
              5.9237155
            ],
            [
              -73.6203156,
              5.9239723
            ],
            [
              -73.6195585,
              5.9241997
            ],
            [
              -73.6179364,
              5.9246288
            ],
            [
              -73.6161251,
              5.9252182
            ],
            [
              -73.615616,
              5.9253414
            ],
            [
              -73.6151463,
              5.9254169
            ],
            [
              -73.6146779,
              5.9254614
            ],
            [
              -73.6133583,
              5.9254071
            ],
            [
              -73.612672,
              5.9256255
            ],
            [
              -73.6122716,
              5.9257134
            ],
            [
              -73.6119223,
              5.9258211
            ],
            [
              -73.6116278,
              5.9259414
            ],
            [
              -73.6113894,
              5.9260646
            ],
            [
              -73.6110964,
              5.9262634
            ],
            [
              -73.6110455,
              5.9262979
            ],
            [
              -73.6107303,
              5.9265946
            ],
            [
              -73.6104741,
              5.9269129
            ],
            [
              -73.6097224,
              5.9280867
            ],
            [
              -73.6092865,
              5.9286737
            ],
            [
              -73.6088681,
              5.9291503
            ],
            [
              -73.607791,
              5.9302807
            ],
            [
              -73.6072074,
              5.9309657
            ],
            [
              -73.6061965,
              5.9323184
            ],
            [
              -73.605906,
              5.9326955
            ],
            [
              -73.6051316,
              5.9336867
            ],
            [
              -73.6046523,
              5.9343468
            ],
            [
              -73.6043342,
              5.9348261
            ],
            [
              -73.6040346,
              5.9353193
            ],
            [
              -73.6037587,
              5.93582
            ],
            [
              -73.6033588,
              5.9366537
            ],
            [
              -73.6030382,
              5.9374453
            ],
            [
              -73.6023704,
              5.9393708
            ],
            [
              -73.6020878,
              5.9401036
            ],
            [
              -73.6017542,
              5.9408554
            ],
            [
              -73.6007393,
              5.9428795
            ],
            [
              -73.600374,
              5.9436567
            ],
            [
              -73.599921,
              5.9447205
            ],
            [
              -73.5992409,
              5.9463924
            ],
            [
              -73.598809,
              5.9473545
            ],
            [
              -73.5983622,
              5.9482413
            ],
            [
              -73.5973175,
              5.9501707
            ],
            [
              -73.5969418,
              5.9509227
            ],
            [
              -73.5965698,
              5.9517465
            ],
            [
              -73.5960751,
              5.9529136
            ],
            [
              -73.5957975,
              5.9535328
            ],
            [
              -73.5955649,
              5.9540305
            ],
            [
              -73.595119,
              5.9548446
            ],
            [
              -73.5941582,
              5.9564203
            ],
            [
              -73.5939263,
              5.956854
            ],
            [
              -73.5937631,
              5.9571952
            ],
            [
              -73.5934956,
              5.9578437
            ],
            [
              -73.5933112,
              5.9583684
            ],
            [
              -73.5928173,
              5.9599789
            ],
            [
              -73.5927242,
              5.9602823
            ],
            [
              -73.5924069,
              5.9612138
            ],
            [
              -73.5920755,
              5.9620678
            ],
            [
              -73.5913025,
              5.9639373
            ],
            [
              -73.5910744,
              5.9645529
            ],
            [
              -73.5908299,
              5.9653368
            ],
            [
              -73.5906959,
              5.9658848
            ],
            [
              -73.5906139,
              5.9663088
            ],
            [
              -73.5905497,
              5.9667369
            ],
            [
              -73.5905008,
              5.9671957
            ],
            [
              -73.5904701,
              5.9676799
            ],
            [
              -73.5904596,
              5.968207
            ],
            [
              -73.5904745,
              5.9688139
            ],
            [
              -73.5905168,
              5.9694277
            ],
            [
              -73.5905756,
              5.9699764
            ],
            [
              -73.5906614,
              5.9705879
            ],
            [
              -73.5907655,
              5.9712087
            ],
            [
              -73.5911732,
              5.9733793
            ],
            [
              -73.5913347,
              5.9743859
            ],
            [
              -73.5913925,
              5.9748564
            ],
            [
              -73.5914706,
              5.9755042
            ],
            [
              -73.5915349,
              5.9763164
            ],
            [
              -73.591566,
              5.9770663
            ],
            [
              -73.5915643,
              5.9779578
            ],
            [
              -73.591523,
              5.9787851
            ],
            [
              -73.5914486,
              5.9795588
            ],
            [
              -73.5913481,
              5.9802859
            ],
            [
              -73.5912218,
              5.9810096
            ],
            [
              -73.5909686,
              5.9822943
            ],
            [
              -73.5908142,
              5.9831855
            ],
            [
              -73.590728,
              5.9838521
            ],
            [
              -73.5905709,
              5.9854304
            ],
            [
              -73.5904525,
              5.9860934
            ],
            [
              -73.5903148,
              5.9865729
            ],
            [
              -73.5901335,
              5.9870287
            ],
            [
              -73.5899078,
              5.9874825
            ],
            [
              -73.5891912,
              5.988735
            ],
            [
              -73.5889796,
              5.9891509
            ],
            [
              -73.5887604,
              5.9896794
            ],
            [
              -73.5886021,
              5.9901946
            ],
            [
              -73.5884416,
              5.9909323
            ],
            [
              -73.588163,
              5.9924061
            ],
            [
              -73.5877196,
              5.9941199
            ],
            [
              -73.5875912,
              5.9946763
            ],
            [
              -73.587503,
              5.9951375
            ],
            [
              -73.5873047,
              5.9963583
            ],
            [
              -73.5871758,
              5.9970133
            ],
            [
              -73.586926,
              5.9979936
            ],
            [
              -73.5872332,
              5.9981676
            ],
            [
              -73.5875275,
              5.9982359
            ],
            [
              -73.5875601,
              5.9982359
            ],
            [
              -73.5879142,
              5.998362
            ],
            [
              -73.5881774,
              5.9984702
            ],
            [
              -73.5882447,
              5.9984651
            ],
            [
              -73.5891579,
              5.9984006
            ],
            [
              -73.5896144,
              5.9984336
            ],
            [
              -73.5900382,
              5.998532
            ],
            [
              -73.5904948,
              5.9985324
            ],
            [
              -73.5913426,
              5.9985984
            ],
            [
              -73.5921905,
              5.9985992
            ],
            [
              -73.592647,
              5.9985669
            ],
            [
              -73.593071,
              5.9985347
            ],
            [
              -73.5935276,
              5.9984698
            ],
            [
              -73.5939191,
              5.9983069
            ],
            [
              -73.5943105,
              5.9981766
            ],
            [
              -73.5946694,
              5.9979811
            ],
            [
              -73.595126,
              5.9978835
            ],
            [
              -73.5959739,
              5.9978843
            ],
            [
              -73.5968216,
              5.9980156
            ],
            [
              -73.5972128,
              5.9981465
            ],
            [
              -73.5976367,
              5.9982122
            ],
            [
              -73.5980606,
              5.9982126
            ],
            [
              -73.5984846,
              5.9981803
            ],
            [
              -73.5989412,
              5.9980827
            ],
            [
              -73.5997891,
              5.9980835
            ],
            [
              -73.6002457,
              5.9980512
            ],
            [
              -73.6006697,
              5.9979537
            ],
            [
              -73.6015178,
              5.9976932
            ],
            [
              -73.6019418,
              5.9975956
            ],
            [
              -73.6023984,
              5.9974654
            ],
            [
              -73.6028551,
              5.9973679
            ],
            [
              -73.6037682,
              5.9973034
            ],
            [
              -73.6046162,
              5.9971735
            ],
            [
              -73.6053991,
              5.9968477
            ],
            [
              -73.605758,
              5.9966195
            ],
            [
              -73.6060518,
              5.9963259
            ],
            [
              -73.6063129,
              5.9959997
            ],
            [
              -73.606374,
              5.9959037
            ],
            [
              -73.6064184,
              5.9958843
            ],
            [
              -73.6064948,
              5.9958245
            ],
            [
              -73.6065799,
              5.9957366
            ],
            [
              -73.6067143,
              5.995577
            ],
            [
              -73.606792,
              5.9954618
            ],
            [
              -73.6068951,
              5.9952553
            ],
            [
              -73.6070958,
              5.9947566
            ],
            [
              -73.6072145,
              5.9945413
            ],
            [
              -73.6074684,
              5.9942168
            ],
            [
              -73.6077316,
              5.9939435
            ],
            [
              -73.6079077,
              5.993794
            ],
            [
              -73.6080841,
              5.9936703
            ],
            [
              -73.6084991,
              5.9934756
            ],
            [
              -73.6086395,
              5.9933903
            ],
            [
              -73.6087658,
              5.993274
            ],
            [
              -73.6090406,
              5.9929593
            ],
            [
              -73.6092044,
              5.9928329
            ],
            [
              -73.6093837,
              5.9927388
            ],
            [
              -73.6095757,
              5.9926652
            ],
            [
              -73.6097802,
              5.992612
            ],
            [
              -73.6099972,
              5.9925791
            ],
            [
              -73.6101157,
              5.9928055
            ],
            [
              -73.610244,
              5.993008
            ],
            [
              -73.6103823,
              5.9931866
            ],
            [
              -73.6105305,
              5.9933412
            ],
            [
              -73.6106881,
              5.9934716
            ],
            [
              -73.6108556,
              5.9935781
            ],
            [
              -73.6110306,
              5.99366
            ],
            [
              -73.6112245,
              5.9937223
            ],
            [
              -73.6114599,
              5.9937708
            ],
            [
              -73.6116883,
              5.9937909
            ],
            [
              -73.6118948,
              5.9937815
            ],
            [
              -73.6120737,
              5.9937429
            ],
            [
              -73.6122145,
              5.9936801
            ],
            [
              -73.6123654,
              5.9935715
            ],
            [
              -73.612498,
              5.9934367
            ],
            [
              -73.6126184,
              5.9932721
            ],
            [
              -73.6128943,
              5.9930093
            ],
            [
              -73.6132188,
              5.9929239
            ],
            [
              -73.6136374,
              5.9928171
            ],
            [
              -73.6142555,
              5.9927932
            ],
            [
              -73.6149575,
              5.99279
            ],
            [
              -73.6158796,
              5.9928067
            ],
            [
              -73.6165607,
              5.9928035
            ],
            [
              -73.6170112,
              5.9927804
            ],
            [
              -73.6174302,
              5.992768
            ],
            [
              -73.6180894,
              5.9925761
            ],
            [
              -73.6185184,
              5.9924378
            ],
            [
              -73.6189582,
              5.9923833
            ],
            [
              -73.6195804,
              5.9923763
            ],
            [
              -73.6204941,
              5.9919442
            ],
            [
              -73.6213474,
              5.9916346
            ],
            [
              -73.6237214,
              5.9901567
            ],
            [
              -73.6244511,
              5.9895421
            ],
            [
              -73.6253032,
              5.9889881
            ],
            [
              -73.6262152,
              5.9881893
            ],
            [
              -73.6270673,
              5.9876353
            ],
            [
              -73.6279819,
              5.9873865
            ],
            [
              -73.628773,
              5.9868328
            ],
            [
              -73.6294416,
              5.9862185
            ]
          ]
        ]
      },
      "id": "relation/1315426"
    }
  ]
}