{
  "type": "FeatureCollection",
  "features": [
    {
      "type": "Feature",
      "properties": {
        "@id": "relation/1423508",
        "DANE:area": "54.00",
        "DANE:departamento": "68",
        "admin_level": "6",
        "boundary": "administrative",
        "clcfile": "MunicipiosDepartamentos/ADM_Municipios.shp",
        "divipola": "68549",
        "entidad_te": "Cabecera Municipal",
        "is_in:country": "Colombia",
        "is_in:state": "Santander",
        "name": "Pinchote",
        "objectid": "4311",
        "source": "OCHA - SIGOT",
        "type": "boundary",
        "wikidata": "Q585762",
        "wikipedia": "es:Pinchote"
      },
      "geometry": {
        "type": "Polygon",
        "coordinates": [
          [
            [
              -73.1757343,
              6.4648206
            ],
            [
              -73.1723665,
              6.4638934
            ],
            [
              -73.1688832,
              6.4644148
            ],
            [
              -73.168051,
              6.4648128
            ],
            [
              -73.1671566,
              6.4650882
            ],
            [
              -73.1656301,
              6.4652833
            ],
            [
              -73.1645953,
              6.465172
            ],
            [
              -73.1628649,
              6.4653616
            ],
            [
              -73.1611856,
              6.4663426
            ],
            [
              -73.1599398,
              6.4671752
            ],
            [
              -73.1593336,
              6.4675125
            ],
            [
              -73.1590526,
              6.4677562
            ],
            [
              -73.1577933,
              6.4685427
            ],
            [
              -73.1573347,
              6.469452
            ],
            [
              -73.156813,
              6.4708757
            ],
            [
              -73.1557873,
              6.472614
            ],
            [
              -73.1548917,
              6.4739825
            ],
            [
              -73.1544887,
              6.4747427
            ],
            [
              -73.1539121,
              6.4750534
            ],
            [
              -73.1518712,
              6.478382
            ],
            [
              -73.1516791,
              6.4797653
            ],
            [
              -73.1508386,
              6.4808569
            ],
            [
              -73.1501767,
              6.4808108
            ],
            [
              -73.1497117,
              6.4811468
            ],
            [
              -73.149358,
              6.4819416
            ],
            [
              -73.1489072,
              6.4826156
            ],
            [
              -73.1481601,
              6.4840457
            ],
            [
              -73.1478466,
              6.4856095
            ],
            [
              -73.1478891,
              6.4859454
            ],
            [
              -73.1478975,
              6.4863378
            ],
            [
              -73.1480661,
              6.4874528
            ],
            [
              -73.1483889,
              6.4893704
            ],
            [
              -73.1489668,
              6.4904254
            ],
            [
              -73.1489992,
              6.4915124
            ],
            [
              -73.1490491,
              6.4920089
            ],
            [
              -73.1491798,
              6.4926643
            ],
            [
              -73.149108,
              6.4928667
            ],
            [
              -73.1489651,
              6.4933136
            ],
            [
              -73.1489697,
              6.4936295
            ],
            [
              -73.1488729,
              6.4941417
            ],
            [
              -73.1487889,
              6.494279
            ],
            [
              -73.1485434,
              6.4948042
            ],
            [
              -73.148475,
              6.4950259
            ],
            [
              -73.1483355,
              6.4958265
            ],
            [
              -73.1479494,
              6.4985599
            ],
            [
              -73.1473419,
              6.4999206
            ],
            [
              -73.1463735,
              6.5012854
            ],
            [
              -73.1459562,
              6.5021578
            ],
            [
              -73.1455041,
              6.5027191
            ],
            [
              -73.1452873,
              6.503509
            ],
            [
              -73.1449328,
              6.505043
            ],
            [
              -73.1447357,
              6.5072521
            ],
            [
              -73.1444094,
              6.5080237
            ],
            [
              -73.1437114,
              6.5090784
            ],
            [
              -73.143346,
              6.5098003
            ],
            [
              -73.1428519,
              6.511773
            ],
            [
              -73.1426363,
              6.512634
            ],
            [
              -73.1424737,
              6.5144644
            ],
            [
              -73.1425126,
              6.515844
            ],
            [
              -73.142655,
              6.516616
            ],
            [
              -73.1430258,
              6.5177415
            ],
            [
              -73.1433894,
              6.5187584
            ],
            [
              -73.1438938,
              6.5197266
            ],
            [
              -73.1444138,
              6.5210674
            ],
            [
              -73.1448039,
              6.5223906
            ],
            [
              -73.1449067,
              6.5232129
            ],
            [
              -73.1448645,
              6.5237951
            ],
            [
              -73.1447437,
              6.5241564
            ],
            [
              -73.1445663,
              6.5245586
            ],
            [
              -73.1441688,
              6.5244781
            ],
            [
              -73.1434977,
              6.5245928
            ],
            [
              -73.1425671,
              6.5251191
            ],
            [
              -73.1419711,
              6.5253454
            ],
            [
              -73.1412249,
              6.5253485
            ],
            [
              -73.1403661,
              6.5252027
            ],
            [
              -73.1398823,
              6.5255032
            ],
            [
              -73.1397739,
              6.5263619
            ],
            [
              -73.1399643,
              6.527294
            ],
            [
              -73.1409027,
              6.5286708
            ],
            [
              -73.1413165,
              6.5294901
            ],
            [
              -73.1415455,
              6.5307579
            ],
            [
              -73.1413284,
              6.5324006
            ],
            [
              -73.1414458,
              6.5337435
            ],
            [
              -73.1417498,
              6.5350856
            ],
            [
              -73.1422757,
              6.5359417
            ],
            [
              -73.1428412,
              6.5373573
            ],
            [
              -73.143441,
              6.5380639
            ],
            [
              -73.1444139,
              6.5387315
            ],
            [
              -73.1454395,
              6.5393989
            ],
            [
              -73.1457635,
              6.5397156
            ],
            [
              -73.1461058,
              6.539891
            ],
            [
              -73.1465219,
              6.5399516
            ],
            [
              -73.1465328,
              6.539953
            ],
            [
              -73.1465206,
              6.5399749
            ],
            [
              -73.1465546,
              6.5400572
            ],
            [
              -73.1466525,
              6.5400916
            ],
            [
              -73.1469382,
              6.5400935
            ],
            [
              -73.1471383,
              6.5401029
            ],
            [
              -73.1471545,
              6.5401775
            ],
            [
              -73.1471313,
              6.5402304
            ],
            [
              -73.1466436,
              6.5402302
            ],
            [
              -73.1462984,
              6.5401371
            ],
            [
              -73.1460714,
              6.5400576
            ],
            [
              -73.1458001,
              6.540078
            ],
            [
              -73.1453206,
              6.5400579
            ],
            [
              -73.1451212,
              6.5400399
            ],
            [
              -73.1448291,
              6.5400676
            ],
            [
              -73.1448503,
              6.5409293
            ],
            [
              -73.145647,
              6.5414143
            ],
            [
              -73.1463506,
              6.5412454
            ],
            [
              -73.1469142,
              6.5416643
            ],
            [
              -73.1473876,
              6.5417257
            ],
            [
              -73.1465979,
              6.5424824
            ],
            [
              -73.1461635,
              6.5428753
            ],
            [
              -73.1455026,
              6.5429127
            ],
            [
              -73.1455335,
              6.5430673
            ],
            [
              -73.146192,
              6.5433367
            ],
            [
              -73.1468915,
              6.5436248
            ],
            [
              -73.1473499,
              6.5438528
            ],
            [
              -73.147835,
              6.5438347
            ],
            [
              -73.1476054,
              6.5443589
            ],
            [
              -73.1480768,
              6.5447451
            ],
            [
              -73.1483833,
              6.5450889
            ],
            [
              -73.1482385,
              6.5457557
            ],
            [
              -73.1484685,
              6.5465133
            ],
            [
              -73.1487094,
              6.546177
            ],
            [
              -73.1488431,
              6.5456863
            ],
            [
              -73.1489252,
              6.5452921
            ],
            [
              -73.149377,
              6.5452438
            ],
            [
              -73.1494479,
              6.5453522
            ],
            [
              -73.1493804,
              6.5454518
            ],
            [
              -73.1493778,
              6.5455491
            ],
            [
              -73.1494585,
              6.5455664
            ],
            [
              -73.1496072,
              6.545555
            ],
            [
              -73.1496547,
              6.5456191
            ],
            [
              -73.1496312,
              6.5457294
            ],
            [
              -73.1495435,
              6.545877
            ],
            [
              -73.1496975,
              6.5459866
            ],
            [
              -73.1508574,
              6.545334
            ],
            [
              -73.1519623,
              6.5456234
            ],
            [
              -73.1532808,
              6.5461029
            ],
            [
              -73.1536047,
              6.5466045
            ],
            [
              -73.1533489,
              6.5500721
            ],
            [
              -73.153219,
              6.5515358
            ],
            [
              -73.1526122,
              6.5527265
            ],
            [
              -73.1534846,
              6.553742
            ],
            [
              -73.1531261,
              6.55416
            ],
            [
              -73.1530398,
              6.5551815
            ],
            [
              -73.1531472,
              6.5560539
            ],
            [
              -73.1532697,
              6.5568288
            ],
            [
              -73.1532815,
              6.55717
            ],
            [
              -73.1531103,
              6.5577139
            ],
            [
              -73.1528648,
              6.5581908
            ],
            [
              -73.1534852,
              6.5583696
            ],
            [
              -73.153419,
              6.5589674
            ],
            [
              -73.1539259,
              6.5596738
            ],
            [
              -73.1548071,
              6.5594774
            ],
            [
              -73.1556877,
              6.5592726
            ],
            [
              -73.1565544,
              6.5590094
            ],
            [
              -73.1572902,
              6.5585071
            ],
            [
              -73.1577966,
              6.5577543
            ],
            [
              -73.1584729,
              6.5571625
            ],
            [
              -73.1593161,
              6.556834
            ],
            [
              -73.1601987,
              6.5566403
            ],
            [
              -73.1610917,
              6.5565821
            ],
            [
              -73.1614265,
              6.5565792
            ],
            [
              -73.1620046,
              6.5565751
            ],
            [
              -73.1629086,
              6.5565898
            ],
            [
              -73.1638227,
              6.5566297
            ],
            [
              -73.1645424,
              6.5562062
            ],
            [
              -73.1651018,
              6.5554952
            ],
            [
              -73.1656551,
              6.5547788
            ],
            [
              -73.1662212,
              6.5540738
            ],
            [
              -73.1668167,
              6.5533945
            ],
            [
              -73.1674202,
              6.5527103
            ],
            [
              -73.1680326,
              6.5520294
            ],
            [
              -73.1686702,
              6.5513811
            ],
            [
              -73.1693492,
              6.5507947
            ],
            [
              -73.1700868,
              6.5502996
            ],
            [
              -73.17089,
              6.5499016
            ],
            [
              -73.1717357,
              6.5495666
            ],
            [
              -73.1725982,
              6.5492575
            ],
            [
              -73.1734516,
              6.5489374
            ],
            [
              -73.1743051,
              6.5486396
            ],
            [
              -73.1751563,
              6.5483344
            ],
            [
              -73.1760311,
              6.5481054
            ],
            [
              -73.1769324,
              6.5480701
            ],
            [
              -73.1778271,
              6.5481981
            ],
            [
              -73.1787195,
              6.5483443
            ],
            [
              -73.179623,
              6.5483476
            ],
            [
              -73.1804668,
              6.5480362
            ],
            [
              -73.1812137,
              6.5475273
            ],
            [
              -73.1819188,
              6.5469625
            ],
            [
              -73.1825329,
              6.5462807
            ],
            [
              -73.1832345,
              6.5457841
            ],
            [
              -73.184133,
              6.5456644
            ],
            [
              -73.185048,
              6.5455753
            ],
            [
              -73.1859854,
              6.5454939
            ],
            [
              -73.1869398,
              6.5454304
            ],
            [
              -73.1878502,
              6.5453201
            ],
            [
              -73.1886555,
              6.5450984
            ],
            [
              -73.1889406,
              6.5443646
            ],
            [
              -73.1892015,
              6.5434694
            ],
            [
              -73.1897712,
              6.5427846
            ],
            [
              -73.1903794,
              6.5421196
            ],
            [
              -73.191013,
              6.5414677
            ],
            [
              -73.1919946,
              6.5408405
            ],
            [
              -73.1930166,
              6.5396606
            ],
            [
              -73.1938006,
              6.5397494
            ],
            [
              -73.1946696,
              6.5407634
            ],
            [
              -73.1955299,
              6.5409518
            ],
            [
              -73.1963508,
              6.5406869
            ],
            [
              -73.1972456,
              6.5408166
            ],
            [
              -73.1981288,
              6.5409625
            ],
            [
              -73.1990604,
              6.5410235
            ],
            [
              -73.2000951,
              6.541125
            ],
            [
              -73.200756,
              6.5416728
            ],
            [
              -73.2014948,
              6.5422392
            ],
            [
              -73.2023773,
              6.542483
            ],
            [
              -73.203263,
              6.5422929
            ],
            [
              -73.2041032,
              6.5420452
            ],
            [
              -73.2048322,
              6.5418196
            ],
            [
              -73.2054277,
              6.5413364
            ],
            [
              -73.2060036,
              6.5406716
            ],
            [
              -73.2064429,
              6.5397877
            ],
            [
              -73.2066013,
              6.5388812
            ],
            [
              -73.2073092,
              6.5379635
            ],
            [
              -73.2075029,
              6.537775
            ],
            [
              -73.2077543,
              6.5374877
            ],
            [
              -73.2083647,
              6.5368218
            ],
            [
              -73.2090192,
              6.5361963
            ],
            [
              -73.2096564,
              6.5355553
            ],
            [
              -73.2102423,
              6.5348633
            ],
            [
              -73.2108081,
              6.5341435
            ],
            [
              -73.2113647,
              6.533413
            ],
            [
              -73.2119214,
              6.5326878
            ],
            [
              -73.2124877,
              6.5319845
            ],
            [
              -73.213073,
              6.531319
            ],
            [
              -73.2137985,
              6.5309625
            ],
            [
              -73.2147148,
              6.5308853
            ],
            [
              -73.2155907,
              6.5306675
            ],
            [
              -73.216465,
              6.5304371
            ],
            [
              -73.2173385,
              6.5301998
            ],
            [
              -73.2182119,
              6.5299615
            ],
            [
              -73.2190862,
              6.5297278
            ],
            [
              -73.2199672,
              6.5295242
            ],
            [
              -73.2208271,
              6.5292478
            ],
            [
              -73.2216306,
              6.528833
            ],
            [
              -73.2223865,
              6.5283394
            ],
            [
              -73.2229522,
              6.5276398
            ],
            [
              -73.2235321,
              6.5269473
            ],
            [
              -73.2241648,
              6.5263014
            ],
            [
              -73.2247923,
              6.525785
            ],
            [
              -73.2243517,
              6.5253038
            ],
            [
              -73.2238579,
              6.5245212
            ],
            [
              -73.2232665,
              6.5238371
            ],
            [
              -73.2225775,
              6.5232514
            ],
            [
              -73.2219861,
              6.5225673
            ],
            [
              -73.2212971,
              6.5219817
            ],
            [
              -73.2207057,
              6.5212975
            ],
            [
              -73.2200166,
              6.5207119
            ],
            [
              -73.2193272,
              6.5200282
            ],
            [
              -73.2188335,
              6.5192455
            ],
            [
              -73.2176507,
              6.5178773
            ],
            [
              -73.2170589,
              6.517095
            ],
            [
              -73.2164675,
              6.5164109
            ],
            [
              -73.2157777,
              6.5156291
            ],
            [
              -73.2150887,
              6.5150434
            ],
            [
              -73.2139059,
              6.5136751
            ],
            [
              -73.2132165,
              6.5129914
            ],
            [
              -73.212765,
              6.5124691
            ],
            [
              -73.2123333,
              6.5124674
            ],
            [
              -73.2116996,
              6.5123352
            ],
            [
              -73.2112422,
              6.5122033
            ],
            [
              -73.2109983,
              6.5120978
            ],
            [
              -73.2102422,
              6.5115574
            ],
            [
              -73.209365,
              6.5110857
            ],
            [
              -73.2085866,
              6.5103102
            ],
            [
              -73.2081141,
              6.5097624
            ],
            [
              -73.2069083,
              6.5085092
            ],
            [
              -73.2065272,
              6.5080305
            ],
            [
              -73.2057104,
              6.507282
            ],
            [
              -73.2047493,
              6.5062982
            ],
            [
              -73.2041617,
              6.5056451
            ],
            [
              -73.2038642,
              6.5052106
            ],
            [
              -73.2035055,
              6.5048359
            ],
            [
              -73.2031471,
              6.5043143
            ],
            [
              -73.2023925,
              6.5035004
            ],
            [
              -73.2017968,
              6.502984
            ],
            [
              -73.2013768,
              6.502747
            ],
            [
              -73.2005608,
              6.5022077
            ],
            [
              -73.1997825,
              6.5020425
            ],
            [
              -73.1991419,
              6.5020052
            ],
            [
              -73.1987523,
              6.5018982
            ],
            [
              -73.1983785,
              6.5017563
            ],
            [
              -73.1980737,
              6.5015919
            ],
            [
              -73.1978063,
              6.5013564
            ],
            [
              -73.197669,
              6.5010295
            ],
            [
              -73.1975927,
              6.500748
            ],
            [
              -73.1975706,
              6.5004326
            ],
            [
              -73.1976852,
              6.5001763
            ],
            [
              -73.1978448,
              6.5000104
            ],
            [
              -73.197858,
              6.4998908
            ],
            [
              -73.1978585,
              6.4992248
            ],
            [
              -73.1975606,
              6.4983432
            ],
            [
              -73.1970669,
              6.4975605
            ],
            [
              -73.1964756,
              6.4968764
            ],
            [
              -73.1957862,
              6.4961926
            ],
            [
              -73.1946036,
              6.4948242
            ],
            [
              -73.1940118,
              6.4940419
            ],
            [
              -73.1933225,
              6.4933581
            ],
            [
              -73.1931226,
              6.4924761
            ],
            [
              -73.1930205,
              6.4914956
            ],
            [
              -73.1927226,
              6.490614
            ],
            [
              -73.1922285,
              6.4897332
            ],
            [
              -73.1916372,
              6.489049
            ],
            [
              -73.1908502,
              6.4884637
            ],
            [
              -73.1903565,
              6.487681
            ],
            [
              -73.1895699,
              6.4871938
            ],
            [
              -73.1888809,
              6.4866081
            ],
            [
              -73.187997,
              6.4863175
            ],
            [
              -73.1871136,
              6.486125
            ],
            [
              -73.1866196,
              6.4852442
            ],
            [
              -73.1859306,
              6.4846585
            ],
            [
              -73.1852412,
              6.4839747
            ],
            [
              -73.1842573,
              6.483194
            ],
            [
              -73.183666,
              6.4825098
            ],
            [
              -73.1829762,
              6.4817279
            ],
            [
              -73.1822873,
              6.4811422
            ],
            [
              -73.181696,
              6.480458
            ],
            [
              -73.1813,
              6.4795768
            ],
            [
              -73.1806107,
              6.478893
            ],
            [
              -73.1799217,
              6.4783072
            ],
            [
              -73.17933,
              6.4775249
            ],
            [
              -73.1786411,
              6.4769392
            ],
            [
              -73.1782397,
              6.4765698
            ],
            [
              -73.1782023,
              6.4751489
            ],
            [
              -73.1782397,
              6.4741394
            ],
            [
              -73.1783145,
              6.4731672
            ],
            [
              -73.1781649,
              6.4722324
            ],
            [
              -73.1780154,
              6.471335
            ],
            [
              -73.1777536,
              6.4704751
            ],
            [
              -73.1771554,
              6.4689046
            ],
            [
              -73.1768563,
              6.4680447
            ],
            [
              -73.1765197,
              6.4672221
            ],
            [
              -73.1763702,
              6.4664742
            ],
            [
              -73.1761084,
              6.4657638
            ],
            [
              -73.1757343,
              6.4648206
            ]
          ]
        ]
      },
      "id": "relation/1423508"
    }
  ]
}