{
  "type": "FeatureCollection",
  "features": [
    {
      "type": "Feature",
      "properties": {
        "@id": "relation/1423518",
        "DANE:area": "73.00",
        "DANE:departamento": "68",
        "admin_level": "6",
        "boundary": "administrative",
        "clcfile": "MunicipiosDepartamentos/ADM_Municipios.shp",
        "divipola": "68209",
        "entidad_te": "Cabecera Municipal",
        "is_in:country": "Colombia",
        "is_in:state": "Santander",
        "name": "Confines",
        "objectid": "4309",
        "source": "OCHA - SIGOT",
        "type": "boundary",
        "wikidata": "Q1655570",
        "wikipedia": "es:Confines"
      },
      "geometry": {
        "type": "Polygon",
        "coordinates": [
          [
            [
              -73.2050137,
              6.3325064
            ],
            [
              -73.2056956,
              6.3348575
            ],
            [
              -73.2075456,
              6.3360691
            ],
            [
              -73.2066366,
              6.3371065
            ],
            [
              -73.2061293,
              6.337931
            ],
            [
              -73.2057303,
              6.3383299
            ],
            [
              -73.2053275,
              6.3386655
            ],
            [
              -73.2045065,
              6.3390445
            ],
            [
              -73.2039499,
              6.3394898
            ],
            [
              -73.2036429,
              6.3417614
            ],
            [
              -73.203387,
              6.3427211
            ],
            [
              -73.2031374,
              6.3435322
            ],
            [
              -73.2030094,
              6.3443001
            ],
            [
              -73.2027007,
              6.3449794
            ],
            [
              -73.2027007,
              6.3457726
            ],
            [
              -73.2028742,
              6.3460618
            ],
            [
              -73.2031398,
              6.3468585
            ],
            [
              -73.2032035,
              6.347751
            ],
            [
              -73.2033884,
              6.3486139
            ],
            [
              -73.2035725,
              6.3492274
            ],
            [
              -73.2039276,
              6.3500559
            ],
            [
              -73.2044655,
              6.3504593
            ],
            [
              -73.2044655,
              6.3520614
            ],
            [
              -73.20397,
              6.3526984
            ],
            [
              -73.2034603,
              6.3530625
            ],
            [
              -73.2028282,
              6.3530625
            ],
            [
              -73.2026976,
              6.3533672
            ],
            [
              -73.2026376,
              6.3540868
            ],
            [
              -73.2026377,
              6.3546193
            ],
            [
              -73.2028774,
              6.3553984
            ],
            [
              -73.2030158,
              6.3556753
            ],
            [
              -73.2030158,
              6.3563601
            ],
            [
              -73.2028186,
              6.3565573
            ],
            [
              -73.2027716,
              6.3569804
            ],
            [
              -73.2033726,
              6.3576415
            ],
            [
              -73.2037651,
              6.3588188
            ],
            [
              -73.2039612,
              6.3596034
            ],
            [
              -73.2039612,
              6.3607765
            ],
            [
              -73.2038312,
              6.3614916
            ],
            [
              -73.2037014,
              6.3620107
            ],
            [
              -73.2034602,
              6.3626741
            ],
            [
              -73.2035143,
              6.3632146
            ],
            [
              -73.2039778,
              6.3638519
            ],
            [
              -73.2045378,
              6.3643419
            ],
            [
              -73.2044557,
              6.3650807
            ],
            [
              -73.2041144,
              6.3653368
            ],
            [
              -73.2036861,
              6.3654591
            ],
            [
              -73.2032941,
              6.3658511
            ],
            [
              -73.2023071,
              6.3675167
            ],
            [
              -73.2018693,
              6.3688302
            ],
            [
              -73.2016245,
              6.3693809
            ],
            [
              -73.2015571,
              6.3699202
            ],
            [
              -73.2012257,
              6.3702515
            ],
            [
              -73.2006514,
              6.3703951
            ],
            [
              -73.1992089,
              6.3703951
            ],
            [
              -73.1989091,
              6.370495
            ],
            [
              -73.1987299,
              6.370719
            ],
            [
              -73.1987299,
              6.3722915
            ],
            [
              -73.1982988,
              6.3728663
            ],
            [
              -73.1978148,
              6.373212
            ],
            [
              -73.1970961,
              6.3734734
            ],
            [
              -73.1965522,
              6.3736547
            ],
            [
              -73.1961913,
              6.3739125
            ],
            [
              -73.1961414,
              6.3741618
            ],
            [
              -73.1959453,
              6.3749465
            ],
            [
              -73.1956637,
              6.3754392
            ],
            [
              -73.1953633,
              6.3756795
            ],
            [
              -73.1952676,
              6.3759666
            ],
            [
              -73.1953229,
              6.3763533
            ],
            [
              -73.1954525,
              6.3768069
            ],
            [
              -73.1954525,
              6.3773205
            ],
            [
              -73.195759,
              6.3790368
            ],
            [
              -73.1961275,
              6.3796509
            ],
            [
              -73.1963979,
              6.380327
            ],
            [
              -73.1963979,
              6.380944
            ],
            [
              -73.1963349,
              6.3813222
            ],
            [
              -73.1963349,
              6.3819153
            ],
            [
              -73.1964495,
              6.3823737
            ],
            [
              -73.1966772,
              6.3827722
            ],
            [
              -73.1970441,
              6.3831391
            ],
            [
              -73.1973746,
              6.3835358
            ],
            [
              -73.1976371,
              6.3839951
            ],
            [
              -73.198092,
              6.3849048
            ],
            [
              -73.1984161,
              6.3866548
            ],
            [
              -73.1982969,
              6.3882235
            ],
            [
              -73.1981043,
              6.3891865
            ],
            [
              -73.1981043,
              6.3912853
            ],
            [
              -73.1983234,
              6.3924667
            ],
            [
              -73.1980042,
              6.3939257
            ],
            [
              -73.1983075,
              6.3943301
            ],
            [
              -73.1994634,
              6.3949723
            ],
            [
              -73.200486,
              6.3980399
            ],
            [
              -73.2017428,
              6.4009307
            ],
            [
              -73.2019315,
              6.4017323
            ],
            [
              -73.2038857,
              6.4023211
            ],
            [
              -73.2055522,
              6.402962
            ],
            [
              -73.2078332,
              6.4049896
            ],
            [
              -73.2086997,
              6.4059887
            ],
            [
              -73.2097042,
              6.4062324
            ],
            [
              -73.2099544,
              6.4066456
            ],
            [
              -73.2102884,
              6.4073069
            ],
            [
              -73.2106234,
              6.4082168
            ],
            [
              -73.2103767,
              6.4086321
            ],
            [
              -73.2096349,
              6.4094636
            ],
            [
              -73.2093077,
              6.4104591
            ],
            [
              -73.2092277,
              6.4111221
            ],
            [
              -73.2144562,
              6.4138342
            ],
            [
              -73.2179347,
              6.4139025
            ],
            [
              -73.2232872,
              6.4155562
            ],
            [
              -73.2235917,
              6.414817
            ],
            [
              -73.2248576,
              6.4117473
            ],
            [
              -73.2252263,
              6.4108656
            ],
            [
              -73.2253991,
              6.4104521
            ],
            [
              -73.2259721,
              6.4090817
            ],
            [
              -73.2260189,
              6.4089459
            ],
            [
              -73.226414,
              6.407949
            ],
            [
              -73.2265218,
              6.4076666
            ],
            [
              -73.2266433,
              6.4075391
            ],
            [
              -73.2266191,
              6.4074272
            ],
            [
              -73.2267618,
              6.4070045
            ],
            [
              -73.2268873,
              6.406746
            ],
            [
              -73.2269404,
              6.4066366
            ],
            [
              -73.2271548,
              6.4061035
            ],
            [
              -73.227299,
              6.405707
            ],
            [
              -73.2273989,
              6.4053997
            ],
            [
              -73.2275431,
              6.4049389
            ],
            [
              -73.2276105,
              6.4047192
            ],
            [
              -73.2277254,
              6.4040678
            ],
            [
              -73.2303514,
              6.3996475
            ],
            [
              -73.2316735,
              6.396388
            ],
            [
              -73.2328737,
              6.3909956
            ],
            [
              -73.2336911,
              6.3895543
            ],
            [
              -73.2345726,
              6.3872976
            ],
            [
              -73.2350774,
              6.385354
            ],
            [
              -73.2355195,
              6.3834102
            ],
            [
              -73.2367153,
              6.3805896
            ],
            [
              -73.2380973,
              6.3790237
            ],
            [
              -73.2393538,
              6.3774576
            ],
            [
              -73.2401822,
              6.3764767
            ],
            [
              -73.240586,
              6.3759117
            ],
            [
              -73.2412389,
              6.3748889
            ],
            [
              -73.242108,
              6.3730662
            ],
            [
              -73.2421787,
              6.3729355
            ],
            [
              -73.242997,
              6.3728987
            ],
            [
              -73.2434814,
              6.3728799
            ],
            [
              -73.2444332,
              6.3728091
            ],
            [
              -73.2450501,
              6.3725224
            ],
            [
              -73.2456328,
              6.3720687
            ],
            [
              -73.2463992,
              6.3715976
            ],
            [
              -73.2467152,
              6.371262
            ],
            [
              -73.2474819,
              6.3708744
            ],
            [
              -73.2482489,
              6.370537
            ],
            [
              -73.2487325,
              6.3703554
            ],
            [
              -73.2490394,
              6.3702679
            ],
            [
              -73.2496404,
              6.3700826
            ],
            [
              -73.2501183,
              6.3699279
            ],
            [
              -73.25089,
              6.3696695
            ],
            [
              -73.2512021,
              6.3695712
            ],
            [
              -73.2514947,
              6.3694869
            ],
            [
              -73.2518011,
              6.3694086
            ],
            [
              -73.2519906,
              6.3693663
            ],
            [
              -73.2521798,
              6.3693289
            ],
            [
              -73.2525226,
              6.3692743
            ],
            [
              -73.2527193,
              6.3692504
            ],
            [
              -73.2529158,
              6.3692314
            ],
            [
              -73.2532167,
              6.369211
            ],
            [
              -73.2534009,
              6.3692032
            ],
            [
              -73.253727,
              6.3691967
            ],
            [
              -73.254098,
              6.369198
            ],
            [
              -73.2544456,
              6.3692043
            ],
            [
              -73.2556507,
              6.3692366
            ],
            [
              -73.256056,
              6.3692387
            ],
            [
              -73.2567356,
              6.3692339
            ],
            [
              -73.2572051,
              6.3692386
            ],
            [
              -73.257792,
              6.3692578
            ],
            [
              -73.2588199,
              6.369304
            ],
            [
              -73.2591542,
              6.3693108
            ],
            [
              -73.2593212,
              6.36931
            ],
            [
              -73.2594878,
              6.369305
            ],
            [
              -73.2596424,
              6.3692958
            ],
            [
              -73.2597963,
              6.3692818
            ],
            [
              -73.26039,
              6.3692103
            ],
            [
              -73.2607438,
              6.3691871
            ],
            [
              -73.2609662,
              6.3691813
            ],
            [
              -73.261203,
              6.3691813
            ],
            [
              -73.2619559,
              6.3691915
            ],
            [
              -73.2620906,
              6.3692432
            ],
            [
              -73.2622102,
              6.3692021
            ],
            [
              -73.262507,
              6.3691994
            ],
            [
              -73.2628551,
              6.369184
            ],
            [
              -73.2630298,
              6.3691705
            ],
            [
              -73.2632325,
              6.3691497
            ],
            [
              -73.263432,
              6.369124
            ],
            [
              -73.2638267,
              6.3690601
            ],
            [
              -73.2642352,
              6.3689787
            ],
            [
              -73.2645245,
              6.368926
            ],
            [
              -73.2647029,
              6.3689525
            ],
            [
              -73.2648763,
              6.3689575
            ],
            [
              -73.2653698,
              6.3689485
            ],
            [
              -73.2655862,
              6.3689499
            ],
            [
              -73.2658022,
              6.3689644
            ],
            [
              -73.2660239,
              6.3690004
            ],
            [
              -73.266173,
              6.3690382
            ],
            [
              -73.2663192,
              6.3690848
            ],
            [
              -73.2664732,
              6.369142
            ],
            [
              -73.2669705,
              6.3693389
            ],
            [
              -73.2672386,
              6.3694304
            ],
            [
              -73.2673957,
              6.3694762
            ],
            [
              -73.2675536,
              6.3695159
            ],
            [
              -73.2677711,
              6.3695592
            ],
            [
              -73.2679927,
              6.3695899
            ],
            [
              -73.2682149,
              6.3696075
            ],
            [
              -73.2684218,
              6.3696124
            ],
            [
              -73.2686303,
              6.3696081
            ],
            [
              -73.2692848,
              6.3695766
            ],
            [
              -73.2695032,
              6.3695723
            ],
            [
              -73.2698557,
              6.3695788
            ],
            [
              -73.2702081,
              6.3695997
            ],
            [
              -73.2704783,
              6.3696246
            ],
            [
              -73.2707017,
              6.36965
            ],
            [
              -73.2710821,
              6.3697028
            ],
            [
              -73.2713961,
              6.3697553
            ],
            [
              -73.2716091,
              6.3697958
            ],
            [
              -73.2720356,
              6.3698887
            ],
            [
              -73.2724066,
              6.3699832
            ],
            [
              -73.2725896,
              6.3700346
            ],
            [
              -73.272773,
              6.3700898
            ],
            [
              -73.2731023,
              6.370199
            ],
            [
              -73.2732674,
              6.3702591
            ],
            [
              -73.2735266,
              6.370362
            ],
            [
              -73.2736894,
              6.3704331
            ],
            [
              -73.2738514,
              6.3705094
            ],
            [
              -73.2740091,
              6.3705893
            ],
            [
              -73.2741651,
              6.3706736
            ],
            [
              -73.2743785,
              6.3707968
            ],
            [
              -73.2745846,
              6.3709241
            ],
            [
              -73.274778,
              6.3710516
            ],
            [
              -73.2749447,
              6.3711694
            ],
            [
              -73.2750802,
              6.371274
            ],
            [
              -73.2751906,
              6.3713795
            ],
            [
              -73.2753379,
              6.3713597
            ],
            [
              -73.2761235,
              6.3713333
            ],
            [
              -73.2764332,
              6.3713174
            ],
            [
              -73.2768384,
              6.3712877
            ],
            [
              -73.2773722,
              6.3712349
            ],
            [
              -73.2778346,
              6.3711776
            ],
            [
              -73.2785069,
              6.3710805
            ],
            [
              -73.2789427,
              6.3710062
            ],
            [
              -73.2793699,
              6.3709194
            ],
            [
              -73.2795856,
              6.3708683
            ],
            [
              -73.2797996,
              6.3708121
            ],
            [
              -73.280147,
              6.370709
            ],
            [
              -73.2804357,
              6.3706152
            ],
            [
              -73.2813057,
              6.37032
            ],
            [
              -73.2816554,
              6.3702107
            ],
            [
              -73.2820089,
              6.3701109
            ],
            [
              -73.2823441,
              6.3700289
            ],
            [
              -73.2825513,
              6.3699852
            ],
            [
              -73.2827604,
              6.369947
            ],
            [
              -73.2834275,
              6.3698475
            ],
            [
              -73.2836373,
              6.3698063
            ],
            [
              -73.2838522,
              6.3697543
            ],
            [
              -73.2840683,
              6.3696935
            ],
            [
              -73.2842858,
              6.3696257
            ],
            [
              -73.2845047,
              6.3695523
            ],
            [
              -73.2849088,
              6.3694068
            ],
            [
              -73.2852749,
              6.3692669
            ],
            [
              -73.2858485,
              6.3690395
            ],
            [
              -73.286139,
              6.3689258
            ],
            [
              -73.2863043,
              6.3689146
            ],
            [
              -73.2867387,
              6.3688573
            ],
            [
              -73.2871362,
              6.3689457
            ],
            [
              -73.2881523,
              6.3691206
            ],
            [
              -73.2922834,
              6.3696973
            ],
            [
              -73.2932685,
              6.3697712
            ],
            [
              -73.2949996,
              6.3698046
            ],
            [
              -73.2955533,
              6.3698334
            ],
            [
              -73.2955711,
              6.369835
            ],
            [
              -73.2955533,
              6.369355
            ],
            [
              -73.2956011,
              6.3686179
            ],
            [
              -73.2957667,
              6.3679544
            ],
            [
              -73.2957503,
              6.3641351
            ],
            [
              -73.2958573,
              6.362899
            ],
            [
              -73.2963021,
              6.3618861
            ],
            [
              -73.2964105,
              6.360987
            ],
            [
              -73.2964064,
              6.3600322
            ],
            [
              -73.2965124,
              6.3585714
            ],
            [
              -73.2966196,
              6.3573914
            ],
            [
              -73.2966071,
              6.3544708
            ],
            [
              -73.2974437,
              6.3531754
            ],
            [
              -73.2982277,
              6.3527227
            ],
            [
              -73.2991249,
              6.3524942
            ],
            [
              -73.3001337,
              6.3520967
            ],
            [
              -73.3020424,
              6.3520885
            ],
            [
              -73.3030524,
              6.3519718
            ],
            [
              -73.3039494,
              6.3516871
            ],
            [
              -73.3045633,
              6.350842
            ],
            [
              -73.3051753,
              6.3495476
            ],
            [
              -73.3056165,
              6.3487706
            ],
            [
              -73.3055148,
              6.3485294
            ],
            [
              -73.3054528,
              6.3483979
            ],
            [
              -73.3053852,
              6.3482698
            ],
            [
              -73.305323,
              6.348165
            ],
            [
              -73.3052448,
              6.3480702
            ],
            [
              -73.3051571,
              6.3479327
            ],
            [
              -73.3050499,
              6.3478083
            ],
            [
              -73.304954,
              6.3477093
            ],
            [
              -73.3048531,
              6.3476147
            ],
            [
              -73.3047177,
              6.3475005
            ],
            [
              -73.3045759,
              6.3473927
            ],
            [
              -73.3044126,
              6.3472798
            ],
            [
              -73.3042443,
              6.3471725
            ],
            [
              -73.3040843,
              6.3470766
            ],
            [
              -73.303725,
              6.3468752
            ],
            [
              -73.3030094,
              6.3464995
            ],
            [
              -73.3028175,
              6.3463953
            ],
            [
              -73.3026316,
              6.3462846
            ],
            [
              -73.3024536,
              6.3461626
            ],
            [
              -73.3022883,
              6.3460267
            ],
            [
              -73.3021536,
              6.3458934
            ],
            [
              -73.3020417,
              6.3457641
            ],
            [
              -73.301937,
              6.345628
            ],
            [
              -73.3018605,
              6.345521
            ],
            [
              -73.3015645,
              6.3450945
            ],
            [
              -73.3014488,
              6.3449441
            ],
            [
              -73.3013229,
              6.3447974
            ],
            [
              -73.3011896,
              6.3446561
            ],
            [
              -73.3010506,
              6.3445191
            ],
            [
              -73.3009073,
              6.3443853
            ],
            [
              -73.3006404,
              6.3441486
            ],
            [
              -73.2996965,
              6.3433496
            ],
            [
              -73.2988902,
              6.3426491
            ],
            [
              -73.298676,
              6.3424747
            ],
            [
              -73.2985724,
              6.3423976
            ],
            [
              -73.2984051,
              6.3422875
            ],
            [
              -73.2982785,
              6.3422179
            ],
            [
              -73.2981479,
              6.3421547
            ],
            [
              -73.2975633,
              6.341899
            ],
            [
              -73.2973753,
              6.3418039
            ],
            [
              -73.2972135,
              6.3417103
            ],
            [
              -73.2970563,
              6.3416078
            ],
            [
              -73.296895,
              6.3414911
            ],
            [
              -73.2967371,
              6.3413681
            ],
            [
              -73.2962289,
              6.3409581
            ],
            [
              -73.2961085,
              6.340867
            ],
            [
              -73.2959332,
              6.3407412
            ],
            [
              -73.295754,
              6.340621
            ],
            [
              -73.2955709,
              6.3405069
            ],
            [
              -73.295385,
              6.3404006
            ],
            [
              -73.2951952,
              6.3403017
            ],
            [
              -73.2950014,
              6.3402112
            ],
            [
              -73.2948138,
              6.340134
            ],
            [
              -73.294623,
              6.3400646
            ],
            [
              -73.2944295,
              6.3400025
            ],
            [
              -73.2942364,
              6.3399482
            ],
            [
              -73.2940417,
              6.3398998
            ],
            [
              -73.2938457,
              6.3398568
            ],
            [
              -73.2930468,
              6.3397054
            ],
            [
              -73.2929276,
              6.3396776
            ],
            [
              -73.2927913,
              6.3396403
            ],
            [
              -73.2926578,
              6.3395965
            ],
            [
              -73.292529,
              6.3395457
            ],
            [
              -73.2924042,
              6.3394867
            ],
            [
              -73.2922788,
              6.3394161
            ],
            [
              -73.2921588,
              6.3393366
            ],
            [
              -73.292045,
              6.3392493
            ],
            [
              -73.2919366,
              6.3391545
            ],
            [
              -73.2918044,
              6.3390223
            ],
            [
              -73.2916792,
              6.3388813
            ],
            [
              -73.2915598,
              6.3387336
            ],
            [
              -73.2914452,
              6.3385808
            ],
            [
              -73.2913378,
              6.3384293
            ],
            [
              -73.2910252,
              6.3379712
            ],
            [
              -73.2909213,
              6.3378248
            ],
            [
              -73.2908147,
              6.337684
            ],
            [
              -73.2907038,
              6.3375513
            ],
            [
              -73.2905867,
              6.3374298
            ],
            [
              -73.2904662,
              6.337328
            ],
            [
              -73.2902932,
              6.3372194
            ],
            [
              -73.2900779,
              6.3371378
            ],
            [
              -73.2899427,
              6.3371102
            ],
            [
              -73.2898031,
              6.3370933
            ],
            [
              -73.2896531,
              6.3370834
            ],
            [
              -73.2891721,
              6.3370663
            ],
            [
              -73.2890072,
              6.337056
            ],
            [
              -73.2888628,
              6.3370416
            ],
            [
              -73.2887197,
              6.3370208
            ],
            [
              -73.2885786,
              6.336992
            ],
            [
              -73.2884287,
              6.3369499
            ],
            [
              -73.2882828,
              6.336896
            ],
            [
              -73.2881495,
              6.3368338
            ],
            [
              -73.2880204,
              6.3367617
            ],
            [
              -73.2878955,
              6.3366811
            ],
            [
              -73.287726,
              6.3365557
            ],
            [
              -73.2872289,
              6.3361449
            ],
            [
              -73.2870701,
              6.3360195
            ],
            [
              -73.2869076,
              6.3358996
            ],
            [
              -73.2867403,
              6.3357876
            ],
            [
              -73.2866127,
              6.3357111
            ],
            [
              -73.2864818,
              6.3356413
            ],
            [
              -73.2863472,
              6.3355788
            ],
            [
              -73.2862093,
              6.3355238
            ],
            [
              -73.2860569,
              6.3354726
            ],
            [
              -73.2859018,
              6.3354284
            ],
            [
              -73.2857385,
              6.3353879
            ],
            [
              -73.2850105,
              6.335226
            ],
            [
              -73.2848262,
              6.3351805
            ],
            [
              -73.284644,
              6.3351305
            ],
            [
              -73.2844648,
              6.3350747
            ],
            [
              -73.2843233,
              6.3350249
            ],
            [
              -73.2838946,
              6.3348585
            ],
            [
              -73.2837432,
              6.334804
            ],
            [
              -73.2835911,
              6.3347592
            ],
            [
              -73.2834002,
              6.3347242
            ],
            [
              -73.2832097,
              6.3347164
            ],
            [
              -73.2830168,
              6.3347313
            ],
            [
              -73.2828225,
              6.3347642
            ],
            [
              -73.2826822,
              6.334797
            ],
            [
              -73.2824005,
              6.3348784
            ],
            [
              -73.2818257,
              6.3350699
            ],
            [
              -73.2814379,
              6.3351911
            ],
            [
              -73.2812423,
              6.3352435
            ],
            [
              -73.2810453,
              6.3352878
            ],
            [
              -73.2808469,
              6.3353216
            ],
            [
              -73.2806859,
              6.3353396
            ],
            [
              -73.2805241,
              6.3353496
            ],
            [
              -73.2803618,
              6.3353522
            ],
            [
              -73.2801723,
              6.3353468
            ],
            [
              -73.2799824,
              6.3353348
            ],
            [
              -73.2794109,
              6.3352868
            ],
            [
              -73.2792384,
              6.3352757
            ],
            [
              -73.2788935,
              6.3352645
            ],
            [
              -73.2787214,
              6.3352658
            ],
            [
              -73.2785479,
              6.3352727
            ],
            [
              -73.2783754,
              6.3352861
            ],
            [
              -73.278216,
              6.3353048
            ],
            [
              -73.278058,
              6.3353302
            ],
            [
              -73.2779205,
              6.3353937
            ],
            [
              -73.2757199,
              6.3333503
            ],
            [
              -73.2747354,
              6.332081
            ],
            [
              -73.2736515,
              6.3304204
            ],
            [
              -73.2726675,
              6.3292491
            ],
            [
              -73.2710965,
              6.3281782
            ],
            [
              -73.269625,
              6.3274987
            ],
            [
              -73.2683478,
              6.3264266
            ],
            [
              -73.2668747,
              6.3253553
            ],
            [
              -73.2651042,
              6.3234036
            ],
            [
              -73.2639228,
              6.3218413
            ],
            [
              -73.2629397,
              6.3208659
            ],
            [
              -73.2619553,
              6.3195966
            ],
            [
              -73.2600894,
              6.318233
            ],
            [
              -73.2582244,
              6.3170654
            ],
            [
              -73.2561647,
              6.3161924
            ],
            [
              -73.2543021,
              6.3156124
            ],
            [
              -73.2516568,
              6.3151337
            ],
            [
              -73.2500875,
              6.3144546
            ],
            [
              -73.2492015,
              6.3132828
            ],
            [
              -73.2479243,
              6.3122106
            ],
            [
              -73.2464549,
              6.3120208
            ],
            [
              -73.2443031,
              6.3125195
            ],
            [
              -73.2409733,
              6.3122395
            ],
            [
              -73.2395019,
              6.3115599
            ],
            [
              -73.2384189,
              6.310095
            ],
            [
              -73.2368468,
              6.3087301
            ],
            [
              -73.233616,
              6.3087435
            ],
            [
              -73.2330682,
              6.3090755
            ],
            [
              -73.2321511,
              6.3096312
            ],
            [
              -73.2305876,
              6.3103234
            ],
            [
              -73.2290211,
              6.3103299
            ],
            [
              -73.2273572,
              6.3104347
            ],
            [
              -73.2262827,
              6.3110269
            ],
            [
              -73.2223694,
              6.3117287
            ],
            [
              -73.220608,
              6.3119319
            ],
            [
              -73.2184557,
              6.3123326
            ],
            [
              -73.2164976,
              6.3123406
            ],
            [
              -73.2135629,
              6.3129404
            ],
            [
              -73.2125907,
              6.3146098
            ],
            [
              -73.2124005,
              6.315982
            ],
            [
              -73.2125089,
              6.3185285
            ],
            [
              -73.2126164,
              6.3208791
            ],
            [
              -73.2126269,
              6.323426
            ],
            [
              -73.2120463,
              6.3250937
            ],
            [
              -73.210879,
              6.3269597
            ],
            [
              -73.2095136,
              6.3282388
            ],
            [
              -73.2080498,
              6.3294203
            ],
            [
              -73.2071714,
              6.3301096
            ],
            [
              -73.206391,
              6.3307985
            ],
            [
              -73.2057089,
              6.331585
            ],
            [
              -73.2050137,
              6.3325064
            ]
          ]
        ]
      },
      "id": "relation/1423518"
    }
  ]
}