{
  "type": "FeatureCollection",
  "features": [
    {
      "type": "Feature",
      "properties": {
        "@id": "relation/1423446",
        "DANE:area": "238.00",
        "DANE:departamento": "68",
        "admin_level": "6",
        "boundary": "administrative",
        "clcfile": "MunicipiosDepartamentos/ADM_Municipios.shp",
        "divipola": "68229",
        "entidad_te": "Cabecera Municipal",
        "is_in:country": "Colombia",
        "is_in:state": "Santander",
        "name": "Curití",
        "objectid": "4312",
        "source": "OCHA - SIGOT",
        "type": "boundary",
        "wikidata": "Q1575978",
        "wikipedia": "es:Curití"
      },
      "geometry": {
        "type": "Polygon",
        "coordinates": [
          [
            [
              -73.1129996,
              6.6499785
            ],
            [
              -73.1129494,
              6.6499287
            ],
            [
              -73.1121989,
              6.6492909
            ],
            [
              -73.1113416,
              6.6486534
            ],
            [
              -73.1104856,
              6.6483365
            ],
            [
              -73.1097356,
              6.6478054
            ],
            [
              -73.1090915,
              6.6470603
            ],
            [
              -73.1082337,
              6.6463161
            ],
            [
              -73.1075901,
              6.6456778
            ],
            [
              -73.1065213,
              6.6455753
            ],
            [
              -73.1059841,
              6.6448298
            ],
            [
              -73.1052332,
              6.6440851
            ],
            [
              -73.1044827,
              6.6434472
            ],
            [
              -73.1037327,
              6.6429161
            ],
            [
              -73.1028754,
              6.6422787
            ],
            [
              -73.1023377,
              6.6414263
            ],
            [
              -73.1019064,
              6.6404666
            ],
            [
              -73.1015824,
              6.6396134
            ],
            [
              -73.1009384,
              6.6388682
            ],
            [
              -73.1005075,
              6.6380154
            ],
            [
              -73.1003963,
              6.6369476
            ],
            [
              -73.0998591,
              6.636202
            ],
            [
              -73.0993215,
              6.6353496
            ],
            [
              -73.0991039,
              6.6343891
            ],
            [
              -73.0989931,
              6.6334281
            ],
            [
              -73.0985623,
              6.6325752
            ],
            [
              -73.0984516,
              6.6316143
            ],
            [
              -73.0981409,
              6.6301448
            ],
            [
              -73.0983266,
              6.6298554
            ],
            [
              -73.0987938,
              6.6290814
            ],
            [
              -73.0992413,
              6.6282957
            ],
            [
              -73.0996696,
              6.6274995
            ],
            [
              -73.1000862,
              6.6266971
            ],
            [
              -73.1004934,
              6.6258898
            ],
            [
              -73.1008938,
              6.6250792
            ],
            [
              -73.101289,
              6.624266
            ],
            [
              -73.1016833,
              6.6234524
            ],
            [
              -73.1020787,
              6.6226393
            ],
            [
              -73.1024653,
              6.621822
            ],
            [
              -73.1028262,
              6.6209931
            ],
            [
              -73.1031511,
              6.6201494
            ],
            [
              -73.1034525,
              6.6192969
            ],
            [
              -73.1037409,
              6.61844
            ],
            [
              -73.1040215,
              6.6175806
            ],
            [
              -73.1043002,
              6.6167205
            ],
            [
              -73.104426,
              6.6163399
            ],
            [
              -73.1048396,
              6.6151223
            ],
            [
              -73.1048793,
              6.6150075
            ],
            [
              -73.1051903,
              6.6141586
            ],
            [
              -73.1055288,
              6.61332
            ],
            [
              -73.105946,
              6.6125187
            ],
            [
              -73.1064274,
              6.6117533
            ],
            [
              -73.1069049,
              6.6109856
            ],
            [
              -73.1073109,
              6.6101767
            ],
            [
              -73.1074965,
              6.609296
            ],
            [
              -73.1073815,
              6.6084008
            ],
            [
              -73.107129,
              6.6075331
            ],
            [
              -73.1067256,
              6.6067252
            ],
            [
              -73.1061315,
              6.606045
            ],
            [
              -73.1053943,
              6.6055226
            ],
            [
              -73.1047301,
              6.604918
            ],
            [
              -73.1045613,
              6.6040266
            ],
            [
              -73.1047014,
              6.603141
            ],
            [
              -73.1054123,
              6.6025692
            ],
            [
              -73.1061023,
              6.6019849
            ],
            [
              -73.106781,
              6.6013876
            ],
            [
              -73.1074644,
              6.6007958
            ],
            [
              -73.1080351,
              6.6000982
            ],
            [
              -73.1084176,
              6.5992777
            ],
            [
              -73.108693,
              6.5984165
            ],
            [
              -73.1088486,
              6.5975267
            ],
            [
              -73.1087819,
              6.5966256
            ],
            [
              -73.1085488,
              6.5957514
            ],
            [
              -73.1080909,
              6.5949573
            ],
            [
              -73.1082477,
              6.5941176
            ],
            [
              -73.1089121,
              6.5935179
            ],
            [
              -73.1097598,
              6.5931966
            ],
            [
              -73.1103974,
              6.5925604
            ],
            [
              -73.1107196,
              6.5917172
            ],
            [
              -73.1108842,
              6.5908272
            ],
            [
              -73.1110167,
              6.5899329
            ],
            [
              -73.1111387,
              6.5890372
            ],
            [
              -73.1112247,
              6.5881368
            ],
            [
              -73.111393,
              6.5872492
            ],
            [
              -73.111662,
              6.5863862
            ],
            [
              -73.1119898,
              6.5855355
            ],
            [
              -73.1120858,
              6.5846939
            ],
            [
              -73.111837,
              6.5838272
            ],
            [
              -73.1117913,
              6.5829227
            ],
            [
              -73.1117545,
              6.5820194
            ],
            [
              -73.1117076,
              6.5811165
            ],
            [
              -73.1116246,
              6.5802163
            ],
            [
              -73.1115165,
              6.5793186
            ],
            [
              -73.1113993,
              6.5784221
            ],
            [
              -73.1112661,
              6.5775279
            ],
            [
              -73.1111104,
              6.5766373
            ],
            [
              -73.1109239,
              6.5757526
            ],
            [
              -73.1106952,
              6.574878
            ],
            [
              -73.1103856,
              6.5740287
            ],
            [
              -73.1099817,
              6.5732193
            ],
            [
              -73.1094425,
              6.5724946
            ],
            [
              -73.1080796,
              6.5714386
            ],
            [
              -73.108067,
              6.5705134
            ],
            [
              -73.1080872,
              6.569613
            ],
            [
              -73.1081086,
              6.5687091
            ],
            [
              -73.1081191,
              6.5678051
            ],
            [
              -73.1081112,
              6.566901
            ],
            [
              -73.1080745,
              6.5659975
            ],
            [
              -73.1079777,
              6.5650988
            ],
            [
              -73.1077886,
              6.5642149
            ],
            [
              -73.1074962,
              6.56336
            ],
            [
              -73.1070381,
              6.5625823
            ],
            [
              -73.1064187,
              6.5617482
            ],
            [
              -73.1048926,
              6.5617316
            ],
            [
              -73.1039907,
              6.5616656
            ],
            [
              -73.1031474,
              6.5619863
            ],
            [
              -73.1023682,
              6.562446
            ],
            [
              -73.1016127,
              6.5629427
            ],
            [
              -73.1008612,
              6.5634452
            ],
            [
              -73.1000957,
              6.5639261
            ],
            [
              -73.0993146,
              6.5643816
            ],
            [
              -73.0985319,
              6.564834
            ],
            [
              -73.0977457,
              6.5652804
            ],
            [
              -73.0969558,
              6.5657202
            ],
            [
              -73.0961602,
              6.5661496
            ],
            [
              -73.0953566,
              6.5665638
            ],
            [
              -73.0945384,
              6.5669483
            ],
            [
              -73.0937103,
              6.5673112
            ],
            [
              -73.0928815,
              6.5676724
            ],
            [
              -73.0920533,
              6.5680348
            ],
            [
              -73.0912202,
              6.5683861
            ],
            [
              -73.0903924,
              6.5687495
            ],
            [
              -73.0895855,
              6.5691582
            ],
            [
              -73.0888551,
              6.5696876
            ],
            [
              -73.0881691,
              6.5702768
            ],
            [
              -73.0878918,
              6.5703609
            ],
            [
              -73.0874677,
              6.5703915
            ],
            [
              -73.0870122,
              6.5703906
            ],
            [
              -73.0866254,
              6.5704027
            ],
            [
              -73.0862132,
              6.5702165
            ],
            [
              -73.0856255,
              6.5696695
            ],
            [
              -73.0854351,
              6.5693798
            ],
            [
              -73.0851903,
              6.5691861
            ],
            [
              -73.0849316,
              6.5691573
            ],
            [
              -73.0845654,
              6.5691588
            ],
            [
              -73.0844732,
              6.5689213
            ],
            [
              -73.0838939,
              6.5681449
            ],
            [
              -73.0838248,
              6.5676385
            ],
            [
              -73.0838246,
              6.5671808
            ],
            [
              -73.0840005,
              6.5668206
            ],
            [
              -73.0840995,
              6.5664829
            ],
            [
              -73.0841452,
              6.5662185
            ],
            [
              -73.0841225,
              6.5656885
            ],
            [
              -73.0839926,
              6.5650881
            ],
            [
              -73.0835051,
              6.5641921
            ],
            [
              -73.0832151,
              6.5633959
            ],
            [
              -73.0831,
              6.5627696
            ],
            [
              -73.0830851,
              6.5605963
            ],
            [
              -73.0830395,
              6.5602108
            ],
            [
              -73.082871,
              6.5597042
            ],
            [
              -73.0826808,
              6.5593184
            ],
            [
              -73.0822538,
              6.5586904
            ],
            [
              -73.081552,
              6.558133
            ],
            [
              -73.0801548,
              6.5576391
            ],
            [
              -73.0783793,
              6.5566338
            ],
            [
              -73.0777396,
              6.5548648
            ],
            [
              -73.0764703,
              6.5538575
            ],
            [
              -73.0744438,
              6.5533594
            ],
            [
              -73.0724178,
              6.5529878
            ],
            [
              -73.0708336,
              6.5528045
            ],
            [
              -73.0704435,
              6.5532095
            ],
            [
              -73.0693795,
              6.5540617
            ],
            [
              -73.0681742,
              6.554794
            ],
            [
              -73.0672759,
              6.5552632
            ],
            [
              -73.0665506,
              6.5553343
            ],
            [
              -73.0661038,
              6.5553172
            ],
            [
              -73.0654238,
              6.5550563
            ],
            [
              -73.0649333,
              6.5545937
            ],
            [
              -73.0645944,
              6.5544017
            ],
            [
              -73.0638645,
              6.5543039
            ],
            [
              -73.0633211,
              6.5542672
            ],
            [
              -73.0625684,
              6.5540889
            ],
            [
              -73.0619018,
              6.5537509
            ],
            [
              -73.0615231,
              6.5534663
            ],
            [
              -73.0608412,
              6.5522752
            ],
            [
              -73.0604322,
              6.5515557
            ],
            [
              -73.059906,
              6.5510084
            ],
            [
              -73.0591568,
              6.5499816
            ],
            [
              -73.0584633,
              6.5492337
            ],
            [
              -73.0577045,
              6.5484313
            ],
            [
              -73.0568938,
              6.547679
            ],
            [
              -73.056168,
              6.5470357
            ],
            [
              -73.0556341,
              6.546716
            ],
            [
              -73.0515116,
              6.5452852
            ],
            [
              -73.0497609,
              6.544895
            ],
            [
              -73.0474169,
              6.544215
            ],
            [
              -73.0454392,
              6.5437313
            ],
            [
              -73.0446081,
              6.5432068
            ],
            [
              -73.0435723,
              6.5424558
            ],
            [
              -73.042764,
              6.5417069
            ],
            [
              -73.0409177,
              6.5406895
            ],
            [
              -73.0398381,
              6.5401547
            ],
            [
              -73.0391508,
              6.5398889
            ],
            [
              -73.0384495,
              6.5396852
            ],
            [
              -73.03763,
              6.5393685
            ],
            [
              -73.0367783,
              6.5392535
            ],
            [
              -73.0360633,
              6.5393147
            ],
            [
              -73.0351929,
              6.5395209
            ],
            [
              -73.0345637,
              6.539872
            ],
            [
              -73.0334078,
              6.5400921
            ],
            [
              -73.03277,
              6.5400014
            ],
            [
              -73.0320645,
              6.5395879
            ],
            [
              -73.0310673,
              6.5387925
            ],
            [
              -73.0300597,
              6.5380899
            ],
            [
              -73.0293643,
              6.5374027
            ],
            [
              -73.0277556,
              6.5384438
            ],
            [
              -73.0257901,
              6.5394424
            ],
            [
              -73.0243265,
              6.5401496
            ],
            [
              -73.0222366,
              6.5407301
            ],
            [
              -73.0209847,
              6.540059
            ],
            [
              -73.0194008,
              6.5383845
            ],
            [
              -73.0186943,
              6.5366701
            ],
            [
              -73.0167741,
              6.5359976
            ],
            [
              -73.0146848,
              6.5362857
            ],
            [
              -73.0129727,
              6.5359896
            ],
            [
              -73.0103852,
              6.5348143
            ],
            [
              -73.0080489,
              6.5333889
            ],
            [
              -73.0054465,
              6.5336947
            ],
            [
              -73.0021727,
              6.5345489
            ],
            [
              -72.9986107,
              6.5359191
            ],
            [
              -72.9968276,
              6.5375802
            ],
            [
              -72.9953877,
              6.5398161
            ],
            [
              -72.9948618,
              6.5441207
            ],
            [
              -72.995024,
              6.5487712
            ],
            [
              -72.9950172,
              6.5519288
            ],
            [
              -72.9952978,
              6.5549147
            ],
            [
              -72.9944867,
              6.5583576
            ],
            [
              -72.9916633,
              6.5631739
            ],
            [
              -72.9870022,
              6.5683306
            ],
            [
              -72.9849878,
              6.5706801
            ],
            [
              -72.9837791,
              6.5721127
            ],
            [
              -72.9834318,
              6.5734323
            ],
            [
              -72.9833114,
              6.5759581
            ],
            [
              -72.9833052,
              6.5788286
            ],
            [
              -72.9833486,
              6.5852012
            ],
            [
              -72.9824735,
              6.5915717
            ],
            [
              -72.9818338,
              6.5953019
            ],
            [
              -72.9805622,
              6.599203
            ],
            [
              -72.9786622,
              6.6016674
            ],
            [
              -72.9775097,
              6.6036168
            ],
            [
              -72.9765305,
              6.6050499
            ],
            [
              -72.9753218,
              6.606425
            ],
            [
              -72.9719887,
              6.6079103
            ],
            [
              -72.9672781,
              6.6091628
            ],
            [
              -72.962512,
              6.6096114
            ],
            [
              -72.9621905,
              6.6095832
            ],
            [
              -72.9581478,
              6.6100035
            ],
            [
              -72.953269,
              6.6094758
            ],
            [
              -72.9498274,
              6.6081476
            ],
            [
              -72.9464464,
              6.6053843
            ],
            [
              -72.9435809,
              6.6031389
            ],
            [
              -72.9421458,
              6.6030782
            ],
            [
              -72.9380684,
              6.603643
            ],
            [
              -72.9330097,
              6.6065018
            ],
            [
              -72.9312817,
              6.6089664
            ],
            [
              -72.9277127,
              6.6130916
            ],
            [
              -72.9236277,
              6.6168711
            ],
            [
              -72.9207525,
              6.6188737
            ],
            [
              -72.9197739,
              6.6199622
            ],
            [
              -72.9183326,
              6.6225422
            ],
            [
              -72.9171754,
              6.6263859
            ],
            [
              -72.9164156,
              6.6321249
            ],
            [
              -72.9161778,
              6.6356263
            ],
            [
              -72.9159942,
              6.6404482
            ],
            [
              -72.916443,
              6.6449271
            ],
            [
              -72.9160938,
              6.6469355
            ],
            [
              -72.9149426,
              6.6481958
            ],
            [
              -72.9127026,
              6.648535
            ],
            [
              -72.9110948,
              6.6485886
            ],
            [
              -72.9097752,
              6.6481836
            ],
            [
              -72.907596,
              6.6470877
            ],
            [
              -72.9062807,
              6.6449031
            ],
            [
              -72.906112,
              6.6434101
            ],
            [
              -72.9049661,
              6.642374
            ],
            [
              -72.9012922,
              6.6421357
            ],
            [
              -72.898479,
              6.6420716
            ],
            [
              -72.8964712,
              6.6413779
            ],
            [
              -72.8956719,
              6.6394816
            ],
            [
              -72.8956743,
              6.6385056
            ],
            [
              -72.8963124,
              6.6357516
            ],
            [
              -72.897237,
              6.6332278
            ],
            [
              -72.8973584,
              6.6304725
            ],
            [
              -72.8971347,
              6.6279461
            ],
            [
              -72.8962772,
              6.626394
            ],
            [
              -72.8933525,
              6.6250092
            ],
            [
              -72.8888752,
              6.6246541
            ],
            [
              -72.8839323,
              6.6269386
            ],
            [
              -72.8809443,
              6.6280221
            ],
            [
              -72.8772686,
              6.6285873
            ],
            [
              -72.8752594,
              6.6284676
            ],
            [
              -72.8734811,
              6.6278892
            ],
            [
              -72.8720457,
              6.6271148
            ],
            [
              -72.8721622,
              6.6280109
            ],
            [
              -72.8722035,
              6.6289366
            ],
            [
              -72.8722308,
              6.6298664
            ],
            [
              -72.8723009,
              6.6307758
            ],
            [
              -72.8723577,
              6.6316781
            ],
            [
              -72.8724106,
              6.6325808
            ],
            [
              -72.8724687,
              6.6334829
            ],
            [
              -72.8724578,
              6.6344122
            ],
            [
              -72.8728585,
              6.6351798
            ],
            [
              -72.8734122,
              6.635887
            ],
            [
              -72.8740088,
              6.6365774
            ],
            [
              -72.8746122,
              6.637266
            ],
            [
              -72.8751832,
              6.6379709
            ],
            [
              -72.8757212,
              6.6386976
            ],
            [
              -72.8762648,
              6.6394201
            ],
            [
              -72.8767587,
              6.640177
            ],
            [
              -72.8769636,
              6.6410365
            ],
            [
              -72.8771121,
              6.6418627
            ],
            [
              -72.8777116,
              6.6425542
            ],
            [
              -72.8783167,
              6.6432259
            ],
            [
              -72.8789401,
              6.6438807
            ],
            [
              -72.8795738,
              6.6445256
            ],
            [
              -72.8802119,
              6.645166
            ],
            [
              -72.8808509,
              6.6458056
            ],
            [
              -72.881491,
              6.6464459
            ],
            [
              -72.882062,
              6.64714
            ],
            [
              -72.8824861,
              6.6479492
            ],
            [
              -72.8829359,
              6.6487287
            ],
            [
              -72.8836777,
              6.6492194
            ],
            [
              -72.883883,
              6.6500858
            ],
            [
              -72.8837621,
              6.6509873
            ],
            [
              -72.8836356,
              6.6518824
            ],
            [
              -72.8835137,
              6.6527782
            ],
            [
              -72.8834539,
              6.6536803
            ],
            [
              -72.8835384,
              6.6545872
            ],
            [
              -72.8840795,
              6.6552831
            ],
            [
              -72.8848465,
              6.6557617
            ],
            [
              -72.8855454,
              6.6563336
            ],
            [
              -72.8859887,
              6.6571153
            ],
            [
              -72.8863071,
              6.6579604
            ],
            [
              -72.8867126,
              6.658267
            ],
            [
              -72.8869211,
              6.6586162
            ],
            [
              -72.8875822,
              6.6592427
            ],
            [
              -72.8882089,
              6.6598944
            ],
            [
              -72.8888486,
              6.6605335
            ],
            [
              -72.8895522,
              6.6610968
            ],
            [
              -72.8904223,
              6.6613552
            ],
            [
              -72.8912019,
              6.6617974
            ],
            [
              -72.8918521,
              6.6624271
            ],
            [
              -72.892396,
              6.6631481
            ],
            [
              -72.8926654,
              6.6640014
            ],
            [
              -72.8924729,
              6.6649223
            ],
            [
              -72.8924033,
              6.6657673
            ],
            [
              -72.8929328,
              6.6664402
            ],
            [
              -72.8935809,
              6.667078
            ],
            [
              -72.8942816,
              6.6677003
            ],
            [
              -72.8951208,
              6.6684764
            ],
            [
              -72.8959328,
              6.6688743
            ],
            [
              -72.8967142,
              6.6693295
            ],
            [
              -72.8973989,
              6.6699168
            ],
            [
              -72.8980263,
              6.6705681
            ],
            [
              -72.8986455,
              6.6712269
            ],
            [
              -72.899271,
              6.6718845
            ],
            [
              -72.9000328,
              6.6723521
            ],
            [
              -72.9008152,
              6.6727848
            ],
            [
              -72.9014079,
              6.6734748
            ],
            [
              -72.9020005,
              6.6741577
            ],
            [
              -72.9026164,
              6.6748195
            ],
            [
              -72.9032918,
              6.6754233
            ],
            [
              -72.9040993,
              6.6757978
            ],
            [
              -72.905,
              6.6757376
            ],
            [
              -72.9059025,
              6.6756832
            ],
            [
              -72.9068068,
              6.6756859
            ],
            [
              -72.907711,
              6.675688
            ],
            [
              -72.9092742,
              6.6758393
            ],
            [
              -72.910137,
              6.67585
            ],
            [
              -72.9114044,
              6.6756968
            ],
            [
              -72.9122676,
              6.6754255
            ],
            [
              -72.9130919,
              6.6756518
            ],
            [
              -72.9136351,
              6.6763881
            ],
            [
              -72.9141708,
              6.6771171
            ],
            [
              -72.9148955,
              6.6776544
            ],
            [
              -72.9157151,
              6.6780399
            ],
            [
              -72.9165807,
              6.6782938
            ],
            [
              -72.9174681,
              6.6784725
            ],
            [
              -72.9183565,
              6.6786407
            ],
            [
              -72.9192461,
              6.6788028
            ],
            [
              -72.9205145,
              6.6790328
            ],
            [
              -72.9213665,
              6.6793291
            ],
            [
              -72.9221592,
              6.679766
            ],
            [
              -72.9229519,
              6.680201
            ],
            [
              -72.9237391,
              6.6806457
            ],
            [
              -72.9245185,
              6.6811042
            ],
            [
              -72.9252871,
              6.681584
            ],
            [
              -72.9259335,
              6.682211
            ],
            [
              -72.9263252,
              6.6830231
            ],
            [
              -72.9266162,
              6.683879
            ],
            [
              -72.9269112,
              6.6847339
            ],
            [
              -72.9273086,
              6.6855485
            ],
            [
              -72.9279736,
              6.6861519
            ],
            [
              -72.9288205,
              6.6864653
            ],
            [
              -72.9297192,
              6.686562
            ],
            [
              -72.9306227,
              6.68652
            ],
            [
              -72.931525,
              6.6864577
            ],
            [
              -72.932428,
              6.6864858
            ],
            [
              -72.9333002,
              6.6867173
            ],
            [
              -72.9341034,
              6.6871331
            ],
            [
              -72.9348597,
              6.6876287
            ],
            [
              -72.9355863,
              6.6881667
            ],
            [
              -72.9362845,
              6.6887413
            ],
            [
              -72.9369679,
              6.6893333
            ],
            [
              -72.9378953,
              6.6901233
            ],
            [
              -72.9386013,
              6.6891182
            ],
            [
              -72.9392331,
              6.6884703
            ],
            [
              -72.9398641,
              6.6878227
            ],
            [
              -72.9405111,
              6.6871912
            ],
            [
              -72.9411824,
              6.6865854
            ],
            [
              -72.9418883,
              6.6860206
            ],
            [
              -72.9426485,
              6.6855336
            ],
            [
              -72.9435069,
              6.6852514
            ],
            [
              -72.9443971,
              6.6850893
            ],
            [
              -72.9452997,
              6.6849407
            ],
            [
              -72.9459636,
              6.6843453
            ],
            [
              -72.9466132,
              6.6837236
            ],
            [
              -72.9472553,
              6.6830882
            ],
            [
              -72.9478922,
              6.682443
            ],
            [
              -72.9485262,
              6.6817925
            ],
            [
              -72.9491595,
              6.6811408
            ],
            [
              -72.9497945,
              6.6804922
            ],
            [
              -72.9504326,
              6.6798498
            ],
            [
              -72.9510918,
              6.6792334
            ],
            [
              -72.9518221,
              6.6786993
            ],
            [
              -72.9524794,
              6.678079
            ],
            [
              -72.953081,
              6.6774037
            ],
            [
              -72.9536595,
              6.6767089
            ],
            [
              -72.9541994,
              6.6759838
            ],
            [
              -72.9546491,
              6.6752049
            ],
            [
              -72.9548812,
              6.6743268
            ],
            [
              -72.955283,
              6.6735253
            ],
            [
              -72.9558188,
              6.6727963
            ],
            [
              -72.956392,
              6.6720972
            ],
            [
              -72.9569877,
              6.6714164
            ],
            [
              -72.9576455,
              6.6707977
            ],
            [
              -72.9581785,
              6.670426
            ],
            [
              -72.9583446,
              6.6702442
            ],
            [
              -72.9586915,
              6.6693829
            ],
            [
              -72.9594415,
              6.6682063
            ],
            [
              -72.9607692,
              6.6657665
            ],
            [
              -72.9614313,
              6.6653082
            ],
            [
              -72.9624952,
              6.6651381
            ],
            [
              -72.9644226,
              6.6644527
            ],
            [
              -72.9650278,
              6.6637356
            ],
            [
              -72.9656339,
              6.6626162
            ],
            [
              -72.9676778,
              6.6612413
            ],
            [
              -72.9696625,
              6.6606135
            ],
            [
              -72.9718495,
              6.6594688
            ],
            [
              -72.9748986,
              6.6584411
            ],
            [
              -72.9775449,
              6.657556
            ],
            [
              -72.9788961,
              6.6574441
            ],
            [
              -72.9805064,
              6.6571315
            ],
            [
              -72.9818588,
              6.6564448
            ],
            [
              -72.9829835,
              6.6547804
            ],
            [
              -72.9853157,
              6.652975
            ],
            [
              -72.9876196,
              6.6509109
            ],
            [
              -72.9895757,
              6.6502254
            ],
            [
              -72.9914459,
              6.6493386
            ],
            [
              -72.9930854,
              6.6488249
            ],
            [
              -72.995242,
              6.6476048
            ],
            [
              -72.9974135,
              6.6463984
            ],
            [
              -73.0005904,
              6.6455539
            ],
            [
              -73.0055384,
              6.6456207
            ],
            [
              -73.0096727,
              6.6465595
            ],
            [
              -73.010661,
              6.646889
            ],
            [
              -73.0125388,
              6.6477125
            ],
            [
              -73.0150589,
              6.6489314
            ],
            [
              -73.0160395,
              6.6494127
            ],
            [
              -73.0169163,
              6.6496338
            ],
            [
              -73.017794,
              6.6498521
            ],
            [
              -73.0186874,
              6.6500019
            ],
            [
              -73.0195784,
              6.6498751
            ],
            [
              -73.0204275,
              6.6495643
            ],
            [
              -73.0212843,
              6.6492751
            ],
            [
              -73.0221256,
              6.6489417
            ],
            [
              -73.0228828,
              6.6484507
            ],
            [
              -73.0236134,
              6.6479212
            ],
            [
              -73.0244611,
              6.6476089
            ],
            [
              -73.0253496,
              6.6474381
            ],
            [
              -73.0262457,
              6.6473177
            ],
            [
              -73.0271462,
              6.6472045
            ],
            [
              -73.028008,
              6.6473506
            ],
            [
              -73.0285965,
              6.648051
            ],
            [
              -73.0285904,
              6.6489433
            ],
            [
              -73.0291947,
              6.6495807
            ],
            [
              -73.0300708,
              6.6498368
            ],
            [
              -73.0309564,
              6.6500171
            ],
            [
              -73.0318562,
              6.6501041
            ],
            [
              -73.0327508,
              6.649999
            ],
            [
              -73.0335609,
              6.6495988
            ],
            [
              -73.0343091,
              6.6490887
            ],
            [
              -73.0351085,
              6.6486683
            ],
            [
              -73.0359845,
              6.6484455
            ],
            [
              -73.0368788,
              6.6483117
            ],
            [
              -73.0377824,
              6.648279
            ],
            [
              -73.0386804,
              6.6483799
            ],
            [
              -73.0395431,
              6.6486481
            ],
            [
              -73.0403607,
              6.6490344
            ],
            [
              -73.0411478,
              6.6494796
            ],
            [
              -73.0419262,
              6.6499396
            ],
            [
              -73.0426997,
              6.6504077
            ],
            [
              -73.0434659,
              6.6508879
            ],
            [
              -73.0442235,
              6.6513814
            ],
            [
              -73.0449704,
              6.651891
            ],
            [
              -73.0457057,
              6.6524172
            ],
            [
              -73.0464267,
              6.6529627
            ],
            [
              -73.0471296,
              6.6535315
            ],
            [
              -73.0478076,
              6.6541297
            ],
            [
              -73.0484486,
              6.6547672
            ],
            [
              -73.0490425,
              6.6554507
            ],
            [
              -73.0494938,
              6.6562317
            ],
            [
              -73.0496368,
              6.6571307
            ],
            [
              -73.0490377,
              6.6580465
            ],
            [
              -73.049312,
              6.658908
            ],
            [
              -73.0495855,
              6.6597699
            ],
            [
              -73.0501316,
              6.6614938
            ],
            [
              -73.0504051,
              6.6623556
            ],
            [
              -73.0506794,
              6.6632172
            ],
            [
              -73.0509551,
              6.6640782
            ],
            [
              -73.0512324,
              6.6649386
            ],
            [
              -73.0515118,
              6.6657983
            ],
            [
              -73.0518794,
              6.6666229
            ],
            [
              -73.0525101,
              6.6672621
            ],
            [
              -73.0533161,
              6.6676748
            ],
            [
              -73.0541647,
              6.6679874
            ],
            [
              -73.0550271,
              6.668259
            ],
            [
              -73.0559067,
              6.6684681
            ],
            [
              -73.0568014,
              6.6685982
            ],
            [
              -73.057702,
              6.6686785
            ],
            [
              -73.0586046,
              6.6687333
            ],
            [
              -73.0595081,
              6.6687709
            ],
            [
              -73.0604118,
              6.6688014
            ],
            [
              -73.0613155,
              6.6688324
            ],
            [
              -73.0622189,
              6.6688737
            ],
            [
              -73.063121,
              6.6689346
            ],
            [
              -73.0640208,
              6.6690248
            ],
            [
              -73.0649154,
              6.6691564
            ],
            [
              -73.0657909,
              6.6693812
            ],
            [
              -73.06664,
              6.669692
            ],
            [
              -73.0674734,
              6.6700431
            ],
            [
              -73.0683072,
              6.670393
            ],
            [
              -73.069129,
              6.6707633
            ],
            [
              -73.0698283,
              6.6713385
            ],
            [
              -73.0704914,
              6.6719536
            ],
            [
              -73.0711808,
              6.6725387
            ],
            [
              -73.0719483,
              6.6730141
            ],
            [
              -73.0728075,
              6.6732928
            ],
            [
              -73.0737025,
              6.6734243
            ],
            [
              -73.0746018,
              6.673519
            ],
            [
              -73.0755009,
              6.6736111
            ],
            [
              -73.0764073,
              6.6736311
            ],
            [
              -73.0772575,
              6.6739024
            ],
            [
              -73.077996,
              6.6744265
            ],
            [
              -73.0786814,
              6.6750161
            ],
            [
              -73.0793304,
              6.6756456
            ],
            [
              -73.0799563,
              6.6762981
            ],
            [
              -73.0805736,
              6.6769589
            ],
            [
              -73.0811668,
              6.6776408
            ],
            [
              -73.08157,
              6.6784425
            ],
            [
              -73.0817147,
              6.6793379
            ],
            [
              -73.0818197,
              6.680236
            ],
            [
              -73.0818961,
              6.6811369
            ],
            [
              -73.0819375,
              6.68204
            ],
            [
              -73.0819376,
              6.6829441
            ],
            [
              -73.0818904,
              6.6838473
            ],
            [
              -73.0817025,
              6.6847299
            ],
            [
              -73.0813091,
              6.6855445
            ],
            [
              -73.0807537,
              6.6865662
            ],
            [
              -73.0816059,
              6.6883775
            ],
            [
              -73.0816416,
              6.6884788
            ],
            [
              -73.0821609,
              6.6887422
            ],
            [
              -73.0830004,
              6.6891576
            ],
            [
              -73.0839433,
              6.6892585
            ],
            [
              -73.0848342,
              6.6894642
            ],
            [
              -73.085622,
              6.6900368
            ],
            [
              -73.0865651,
              6.69019
            ],
            [
              -73.0875075,
              6.6901862
            ],
            [
              -73.0884504,
              6.690287
            ],
            [
              -73.0894459,
              6.69044
            ],
            [
              -73.090337,
              6.6906981
            ],
            [
              -73.0911244,
              6.691166
            ],
            [
              -73.0919627,
              6.6913196
            ],
            [
              -73.0929576,
              6.6913155
            ],
            [
              -73.0938466,
              6.6910502
            ],
            [
              -73.0948412,
              6.6909937
            ],
            [
              -73.0957841,
              6.6910946
            ],
            [
              -73.0966235,
              6.6915099
            ],
            [
              -73.0975147,
              6.691768
            ],
            [
              -73.0984583,
              6.6920258
            ],
            [
              -73.0994009,
              6.6920743
            ],
            [
              -73.1003957,
              6.6920702
            ],
            [
              -73.101338,
              6.692014
            ],
            [
              -73.1022791,
              6.691696
            ],
            [
              -73.1026945,
              6.6908567
            ],
            [
              -73.1035836,
              6.6905913
            ],
            [
              -73.1044728,
              6.6903783
            ],
            [
              -73.1052562,
              6.6899039
            ],
            [
              -73.1060394,
              6.6893772
            ],
            [
              -73.1068224,
              6.6887981
            ],
            [
              -73.1078164,
              6.6885846
            ],
            [
              -73.1086524,
              6.6881624
            ],
            [
              -73.109595,
              6.6882109
            ],
            [
              -73.1104868,
              6.688626
            ],
            [
              -73.1112744,
              6.6891462
            ],
            [
              -73.1122177,
              6.6893517
            ],
            [
              -73.1131599,
              6.6892954
            ],
            [
              -73.1155095,
              6.6877153
            ],
            [
              -73.1164517,
              6.687659
            ],
            [
              -73.1173937,
              6.6875504
            ],
            [
              -73.1182532,
              6.6872642
            ],
            [
              -73.1181923,
              6.6870484
            ],
            [
              -73.1181885,
              6.6861351
            ],
            [
              -73.1181904,
              6.6858801
            ],
            [
              -73.1182414,
              6.6856212
            ],
            [
              -73.1183408,
              6.6850744
            ],
            [
              -73.1183478,
              6.6843906
            ],
            [
              -73.1182104,
              6.6835688
            ],
            [
              -73.1180272,
              6.6830203
            ],
            [
              -73.1178674,
              6.682647
            ],
            [
              -73.1177453,
              6.6820749
            ],
            [
              -73.1176841,
              6.6815776
            ],
            [
              -73.1177836,
              6.6810059
            ],
            [
              -73.117913,
              6.6807078
            ],
            [
              -73.1183407,
              6.6799254
            ],
            [
              -73.1186377,
              6.6794672
            ],
            [
              -73.1190269,
              6.6787221
            ],
            [
              -73.1197368,
              6.6775458
            ],
            [
              -73.1198743,
              6.6771709
            ],
            [
              -73.1199123,
              6.6768353
            ],
            [
              -73.1196607,
              6.6754165
            ],
            [
              -73.1195149,
              6.6748444
            ],
            [
              -73.1183406,
              6.6724146
            ],
            [
              -73.1173945,
              6.6706949
            ],
            [
              -73.1167159,
              6.6691622
            ],
            [
              -73.1167537,
              6.668326
            ],
            [
              -73.1167916,
              6.6680356
            ],
            [
              -73.1170358,
              6.6674236
            ],
            [
              -73.1171046,
              6.6669332
            ],
            [
              -73.1172194,
              6.6666001
            ],
            [
              -73.1179358,
              6.6655538
            ],
            [
              -73.1189126,
              6.6642753
            ],
            [
              -73.1192181,
              6.6635526
            ],
            [
              -73.1196603,
              6.6628403
            ],
            [
              -73.1199737,
              6.6621233
            ],
            [
              -73.1202783,
              6.6612367
            ],
            [
              -73.120469,
              6.6596651
            ],
            [
              -73.120515,
              6.6586955
            ],
            [
              -73.1203616,
              6.6573345
            ],
            [
              -73.1201717,
              6.6567521
            ],
            [
              -73.1193934,
              6.6553526
            ],
            [
              -73.1189121,
              6.6546872
            ],
            [
              -73.1183943,
              6.6541607
            ],
            [
              -73.1179592,
              6.6535462
            ],
            [
              -73.1165937,
              6.6527979
            ],
            [
              -73.1148808,
              6.6519504
            ],
            [
              -73.1143435,
              6.6512049
            ],
            [
              -73.1135931,
              6.650567
            ],
            [
              -73.1129996,
              6.6499785
            ]
          ]
        ]
      },
      "id": "relation/1423446"
    }
  ]
}